{"type":"FeatureCollection","name":"electric_secondary","crs_note":"EPSG:4326","features":[{"type":"Feature","id":"electric-E217","geometry":{"type":"LineString","coordinates":[[-80.6047711,43.2998317],[-80.6047711,43.2998478]]},"properties":{"kind":"transformer","tier":"transformer","placement":"underground","from":"electric-T-55","to":"electric-TX-00001","lengthM":1.8,"voltageKV":13.8,"secondaryVoltageKV":0.24,"ratingKVA":25.0,"phases":1,"phase":"A","feeder":"F1-01","feederId":"F1-01","designRole":"transformer"}},{"type":"Feature","id":"electric-E220","geometry":{"type":"LineString","coordinates":[[-80.6048092,43.2990554],[-80.604787,43.2990561]]},"properties":{"kind":"transformer","tier":"transformer","placement":"underground","from":"electric-T-56","to":"electric-TX-00002","lengthM":1.8,"voltageKV":13.8,"secondaryVoltageKV":0.24,"ratingKVA":25.0,"phases":1,"phase":"C","feeder":"F1-01","feederId":"F1-01","designRole":"transformer"}},{"type":"Feature","id":"electric-E226","geometry":{"type":"LineString","coordinates":[[-80.6047135,43.2983329],[-80.6046916,43.2983352]]},"properties":{"kind":"transformer","tier":"transformer","placement":"underground","from":"electric-T-57","to":"electric-TX-00003","lengthM":1.8,"voltageKV":13.8,"secondaryVoltageKV":0.24,"ratingKVA":25.0,"phases":1,"phase":"C","feeder":"F1-01","feederId":"F1-01","designRole":"transformer"}},{"type":"Feature","id":"electric-E231","geometry":{"type":"LineString","coordinates":[[-80.6044982,43.3009123],[-80.6044761,43.3009143]]},"properties":{"kind":"transformer","tier":"transformer","placement":"underground","from":"electric-T-58","to":"electric-TX-00004","lengthM":1.8,"voltageKV":13.8,"secondaryVoltageKV":0.24,"ratingKVA":25.0,"phases":1,"phase":"A","feeder":"F1-01","feederId":"F1-01","designRole":"transformer"}},{"type":"Feature","id":"electric-E240","geometry":{"type":"LineString","coordinates":[[-80.6044038,43.3003156],[-80.6043817,43.3003171]]},"properties":{"kind":"transformer","tier":"transformer","placement":"underground","from":"electric-T-59","to":"electric-TX-00005","lengthM":1.8,"voltageKV":13.8,"secondaryVoltageKV":0.24,"ratingKVA":50.0,"phases":1,"phase":"A","feeder":"F1-01","feederId":"F1-01","designRole":"transformer"}},{"type":"Feature","id":"electric-E249","geometry":{"type":"LineString","coordinates":[[-80.6037596,43.2993733],[-80.6039194,43.2993624]]},"properties":{"kind":"transformer","tier":"transformer","placement":"overhead","from":"electric-T-60","to":"electric-TX-00006","lengthM":13.0,"voltageKV":13.8,"secondaryVoltageKV":0.24,"ratingKVA":25.0,"phases":1,"phase":"C","feeder":"F1-01","feederId":"F1-01","designRole":"transformer"}},{"type":"Feature","id":"electric-E251","geometry":{"type":"LineString","coordinates":[[-80.6037581,43.2993617],[-80.6039326,43.2993497]]},"properties":{"kind":"transformer","tier":"transformer","placement":"underground","from":"electric-T-61","to":"electric-TX-00007","lengthM":14.2,"voltageKV":13.8,"secondaryVoltageKV":0.24,"ratingKVA":25.0,"phases":1,"phase":"C","feeder":"F1-01","feederId":"F1-01","designRole":"transformer"}},{"type":"Feature","id":"electric-E253","geometry":{"type":"LineString","coordinates":[[-80.6037398,43.2992315],[-80.6038991,43.2992175]]},"properties":{"kind":"transformer","tier":"transformer","placement":"overhead","from":"electric-T-62","to":"electric-TX-00008","lengthM":13.0,"voltageKV":13.8,"secondaryVoltageKV":0.24,"ratingKVA":25.0,"phases":1,"phase":"C","feeder":"F1-01","feederId":"F1-01","designRole":"transformer"}},{"type":"Feature","id":"electric-E255","geometry":{"type":"LineString","coordinates":[[-80.603736,43.2992088],[-80.60391,43.2991935]]},"properties":{"kind":"transformer","tier":"transformer","placement":"underground","from":"electric-T-63","to":"electric-TX-00009","lengthM":14.2,"voltageKV":13.8,"secondaryVoltageKV":0.24,"ratingKVA":25.0,"phases":1,"phase":"C","feeder":"F1-01","feederId":"F1-01","designRole":"transformer"}},{"type":"Feature","id":"electric-E257","geometry":{"type":"LineString","coordinates":[[-80.6037136,43.2990767],[-80.6038725,43.2990606]]},"properties":{"kind":"transformer","tier":"transformer","placement":"overhead","from":"electric-T-64","to":"electric-TX-00010","lengthM":13.0,"voltageKV":13.8,"secondaryVoltageKV":0.24,"ratingKVA":25.0,"phases":1,"phase":"C","feeder":"F1-01","feederId":"F1-01","designRole":"transformer"}},{"type":"Feature","id":"electric-E259","geometry":{"type":"LineString","coordinates":[[-80.6037091,43.2990533],[-80.6038827,43.2990357]]},"properties":{"kind":"transformer","tier":"transformer","placement":"underground","from":"electric-T-65","to":"electric-TX-00011","lengthM":14.2,"voltageKV":13.8,"secondaryVoltageKV":0.24,"ratingKVA":25.0,"phases":1,"phase":"C","feeder":"F1-01","feederId":"F1-01","designRole":"transformer"}},{"type":"Feature","id":"electric-E261","geometry":{"type":"LineString","coordinates":[[-80.6036847,43.298926],[-80.6038436,43.2989098]]},"properties":{"kind":"transformer","tier":"transformer","placement":"overhead","from":"electric-T-66","to":"electric-TX-00012","lengthM":13.0,"voltageKV":13.8,"secondaryVoltageKV":0.24,"ratingKVA":25.0,"phases":1,"phase":"C","feeder":"F1-01","feederId":"F1-01","designRole":"transformer"}},{"type":"Feature","id":"electric-E263","geometry":{"type":"LineString","coordinates":[[-80.6036049,43.298533],[-80.6035829,43.2985352]]},"properties":{"kind":"transformer","tier":"transformer","placement":"underground","from":"electric-T-67","to":"electric-TX-00013","lengthM":1.8,"voltageKV":13.8,"secondaryVoltageKV":0.24,"ratingKVA":25.0,"phases":1,"phase":"C","feeder":"F1-01","feederId":"F1-01","designRole":"transformer"}},{"type":"Feature","id":"electric-E274","geometry":{"type":"LineString","coordinates":[[-80.6035222,43.2980049],[-80.6036972,43.2979974]]},"properties":{"kind":"transformer","tier":"transformer","placement":"underground","from":"electric-T-68","to":"electric-TX-00014","lengthM":14.2,"voltageKV":13.8,"secondaryVoltageKV":0.24,"ratingKVA":25.0,"phases":1,"phase":"C","feeder":"F1-01","feederId":"F1-01","designRole":"transformer"}},{"type":"Feature","id":"electric-E277","geometry":{"type":"LineString","coordinates":[[-80.6035073,43.2975036],[-80.6036826,43.297506]]},"properties":{"kind":"transformer","tier":"transformer","placement":"underground","from":"electric-T-69","to":"electric-TX-00015","lengthM":14.2,"voltageKV":13.8,"secondaryVoltageKV":0.24,"ratingKVA":25.0,"phases":1,"phase":"C","feeder":"F1-01","feederId":"F1-01","designRole":"transformer"}},{"type":"Feature","id":"electric-E280","geometry":{"type":"LineString","coordinates":[[-80.6029639,43.2978039],[-80.6029639,43.2976763]]},"properties":{"kind":"transformer","tier":"transformer","placement":"underground","from":"electric-T-70","to":"electric-TX-00016","lengthM":14.2,"voltageKV":13.8,"secondaryVoltageKV":0.24,"ratingKVA":25.0,"phases":1,"phase":"A","feeder":"F1-01","feederId":"F1-01","designRole":"transformer"}},{"type":"Feature","id":"electric-E285","geometry":{"type":"LineString","coordinates":[[-80.6034863,43.3001138],[-80.603326,43.3001095]]},"properties":{"kind":"transformer","tier":"transformer","placement":"overhead","from":"electric-T-71","to":"electric-TX-00017","lengthM":13.0,"voltageKV":13.8,"secondaryVoltageKV":0.24,"ratingKVA":25.0,"phases":1,"phase":"B","feeder":"F1-01","feederId":"F1-01","designRole":"transformer"}},{"type":"Feature","id":"electric-E292","geometry":{"type":"LineString","coordinates":[[-80.6034819,43.3004182],[-80.6033215,43.3004204]]},"properties":{"kind":"transformer","tier":"transformer","placement":"overhead","from":"electric-T-72","to":"electric-TX-00018","lengthM":13.0,"voltageKV":13.8,"secondaryVoltageKV":0.24,"ratingKVA":25.0,"phases":1,"phase":"B","feeder":"F1-01","feederId":"F1-01","designRole":"transformer"}},{"type":"Feature","id":"electric-E296","geometry":{"type":"LineString","coordinates":[[-80.6034864,43.3005602],[-80.6035086,43.3005595]]},"properties":{"kind":"transformer","tier":"transformer","placement":"underground","from":"electric-T-73","to":"electric-TX-00019","lengthM":1.8,"voltageKV":13.8,"secondaryVoltageKV":0.24,"ratingKVA":25.0,"phases":1,"phase":"B","feeder":"F1-01","feederId":"F1-01","designRole":"transformer"}},{"type":"Feature","id":"electric-E298","geometry":{"type":"LineString","coordinates":[[-80.6034946,43.3006878],[-80.6033343,43.3006932]]},"properties":{"kind":"transformer","tier":"transformer","placement":"overhead","from":"electric-T-74","to":"electric-TX-00020","lengthM":13.0,"voltageKV":13.8,"secondaryVoltageKV":0.24,"ratingKVA":25.0,"phases":1,"phase":"B","feeder":"F1-01","feederId":"F1-01","designRole":"transformer"}},{"type":"Feature","id":"electric-E300","geometry":{"type":"LineString","coordinates":[[-80.6034954,43.3007007],[-80.6035176,43.3006999]]},"properties":{"kind":"transformer","tier":"transformer","placement":"underground","from":"electric-T-75","to":"electric-TX-00021","lengthM":1.8,"voltageKV":13.8,"secondaryVoltageKV":0.24,"ratingKVA":25.0,"phases":1,"phase":"B","feeder":"F1-01","feederId":"F1-01","designRole":"transformer"}},{"type":"Feature","id":"electric-E302","geometry":{"type":"LineString","coordinates":[[-80.6035082,43.3008367],[-80.6033481,43.3008451]]},"properties":{"kind":"transformer","tier":"transformer","placement":"overhead","from":"electric-T-76","to":"electric-TX-00022","lengthM":13.0,"voltageKV":13.8,"secondaryVoltageKV":0.24,"ratingKVA":25.0,"phases":1,"phase":"B","feeder":"F1-01","feederId":"F1-01","designRole":"transformer"}},{"type":"Feature","id":"electric-E304","geometry":{"type":"LineString","coordinates":[[-80.6035101,43.3008558],[-80.6035322,43.3008547]]},"properties":{"kind":"transformer","tier":"transformer","placement":"underground","from":"electric-T-77","to":"electric-TX-00023","lengthM":1.8,"voltageKV":13.8,"secondaryVoltageKV":0.24,"ratingKVA":25.0,"phases":1,"phase":"B","feeder":"F1-01","feederId":"F1-01","designRole":"transformer"}},{"type":"Feature","id":"electric-E306","geometry":{"type":"LineString","coordinates":[[-80.6035262,43.300991],[-80.6033664,43.3010018]]},"properties":{"kind":"transformer","tier":"transformer","placement":"overhead","from":"electric-T-78","to":"electric-TX-00024","lengthM":13.0,"voltageKV":13.8,"secondaryVoltageKV":0.24,"ratingKVA":25.0,"phases":1,"phase":"B","feeder":"F1-01","feederId":"F1-01","designRole":"transformer"}},{"type":"Feature","id":"electric-E308","geometry":{"type":"LineString","coordinates":[[-80.6035285,43.301009],[-80.6035506,43.3010075]]},"properties":{"kind":"transformer","tier":"transformer","placement":"underground","from":"electric-T-79","to":"electric-TX-00025","lengthM":1.8,"voltageKV":13.8,"secondaryVoltageKV":0.24,"ratingKVA":25.0,"phases":1,"phase":"B","feeder":"F1-01","feederId":"F1-01","designRole":"transformer"}},{"type":"Feature","id":"electric-E310","geometry":{"type":"LineString","coordinates":[[-80.6035456,43.3011326],[-80.6033861,43.3011453]]},"properties":{"kind":"transformer","tier":"transformer","placement":"overhead","from":"electric-T-80","to":"electric-TX-00026","lengthM":13.0,"voltageKV":13.8,"secondaryVoltageKV":0.24,"ratingKVA":25.0,"phases":1,"phase":"B","feeder":"F1-01","feederId":"F1-01","designRole":"transformer"}},{"type":"Feature","id":"electric-E312","geometry":{"type":"LineString","coordinates":[[-80.6035499,43.3011617],[-80.603572,43.3011599]]},"properties":{"kind":"transformer","tier":"transformer","placement":"underground","from":"electric-T-81","to":"electric-TX-00027","lengthM":1.8,"voltageKV":13.8,"secondaryVoltageKV":0.24,"ratingKVA":25.0,"phases":1,"phase":"B","feeder":"F1-01","feederId":"F1-01","designRole":"transformer"}},{"type":"Feature","id":"electric-E314","geometry":{"type":"LineString","coordinates":[[-80.6035686,43.3012826],[-80.6034092,43.3012965]]},"properties":{"kind":"transformer","tier":"transformer","placement":"overhead","from":"electric-T-82","to":"electric-TX-00028","lengthM":13.0,"voltageKV":13.8,"secondaryVoltageKV":0.24,"ratingKVA":25.0,"phases":1,"phase":"B","feeder":"F1-01","feederId":"F1-01","designRole":"transformer"}},{"type":"Feature","id":"electric-E316","geometry":{"type":"LineString","coordinates":[[-80.6035734,43.3013117],[-80.6035954,43.3013098]]},"properties":{"kind":"transformer","tier":"transformer","placement":"underground","from":"electric-T-83","to":"electric-TX-00029","lengthM":1.8,"voltageKV":13.8,"secondaryVoltageKV":0.24,"ratingKVA":25.0,"phases":1,"phase":"B","feeder":"F1-01","feederId":"F1-01","designRole":"transformer"}},{"type":"Feature","id":"electric-E318","geometry":{"type":"LineString","coordinates":[[-80.6035934,43.301433],[-80.6034341,43.3014473]]},"properties":{"kind":"transformer","tier":"transformer","placement":"overhead","from":"electric-T-84","to":"electric-TX-00030","lengthM":13.0,"voltageKV":13.8,"secondaryVoltageKV":0.24,"ratingKVA":25.0,"phases":1,"phase":"B","feeder":"F1-01","feederId":"F1-01","designRole":"transformer"}},{"type":"Feature","id":"electric-E320","geometry":{"type":"LineString","coordinates":[[-80.6036476,43.3017521],[-80.6034736,43.3017676]]},"properties":{"kind":"transformer","tier":"transformer","placement":"underground","from":"electric-T-85","to":"electric-TX-00031","lengthM":14.2,"voltageKV":13.8,"secondaryVoltageKV":0.24,"ratingKVA":25.0,"phases":1,"phase":"B","feeder":"F1-01","feederId":"F1-01","designRole":"transformer"}},{"type":"Feature","id":"electric-E330","geometry":{"type":"LineString","coordinates":[[-80.6037423,43.3025554],[-80.6035671,43.302559]]},"properties":{"kind":"transformer","tier":"transformer","placement":"underground","from":"electric-T-86","to":"electric-TX-00032","lengthM":14.2,"voltageKV":13.8,"secondaryVoltageKV":0.24,"ratingKVA":25.0,"phases":1,"phase":"B","feeder":"F1-01","feederId":"F1-01","designRole":"transformer"}},{"type":"Feature","id":"electric-E335","geometry":{"type":"LineString","coordinates":[[-80.602755,43.2992113],[-80.602755,43.2992113]]},"properties":{"kind":"transformer","tier":"transformer","placement":"overhead","from":"electric-T-87","to":"electric-TX-00033","lengthM":0.0,"voltageKV":13.8,"secondaryVoltageKV":0.24,"ratingKVA":25.0,"phases":1,"phase":"A","feeder":"F1-01","feederId":"F1-01","designRole":"transformer"}},{"type":"Feature","id":"electric-E342","geometry":{"type":"LineString","coordinates":[[-80.6026669,43.2986842],[-80.6026669,43.2986842]]},"properties":{"kind":"transformer","tier":"transformer","placement":"overhead","from":"electric-T-88","to":"electric-TX-00034","lengthM":0.0,"voltageKV":13.8,"secondaryVoltageKV":0.24,"ratingKVA":25.0,"phases":1,"phase":"A","feeder":"F1-01","feederId":"F1-01","designRole":"transformer"}},{"type":"Feature","id":"electric-E349","geometry":{"type":"LineString","coordinates":[[-80.6026425,43.2982533],[-80.6026425,43.2982533]]},"properties":{"kind":"transformer","tier":"transformer","placement":"overhead","from":"electric-T-89","to":"electric-TX-00035","lengthM":0.0,"voltageKV":13.8,"secondaryVoltageKV":0.24,"ratingKVA":25.0,"phases":1,"phase":"A","feeder":"F1-01","feederId":"F1-01","designRole":"transformer"}},{"type":"Feature","id":"electric-E353","geometry":{"type":"LineString","coordinates":[[-80.6026041,43.2972752],[-80.6025821,43.2972729]]},"properties":{"kind":"transformer","tier":"transformer","placement":"underground","from":"electric-T-90","to":"electric-TX-00036","lengthM":1.8,"voltageKV":13.8,"secondaryVoltageKV":0.24,"ratingKVA":25.0,"phases":1,"phase":"A","feeder":"F1-01","feederId":"F1-01","designRole":"transformer"}},{"type":"Feature","id":"electric-E360","geometry":{"type":"LineString","coordinates":[[-80.6023657,43.2978303],[-80.6023657,43.2978195]]},"properties":{"kind":"transformer","tier":"transformer","placement":"underground","from":"electric-T-91","to":"electric-TX-00037","lengthM":1.2,"voltageKV":13.8,"secondaryVoltageKV":0.24,"ratingKVA":25.0,"phases":1,"phase":"A","feeder":"F1-01","feederId":"F1-01","designRole":"transformer"}},{"type":"Feature","id":"electric-E362","geometry":{"type":"LineString","coordinates":[[-80.6023536,43.2978303],[-80.6023536,43.2978303]]},"properties":{"kind":"transformer","tier":"transformer","placement":"overhead","from":"electric-T-92","to":"electric-TX-00038","lengthM":0.0,"voltageKV":13.8,"secondaryVoltageKV":0.24,"ratingKVA":25.0,"phases":1,"phase":"A","feeder":"F1-01","feederId":"F1-01","designRole":"transformer"}},{"type":"Feature","id":"electric-E364","geometry":{"type":"LineString","coordinates":[[-80.6021308,43.2978303],[-80.6021308,43.2978195]]},"properties":{"kind":"transformer","tier":"transformer","placement":"underground","from":"electric-T-93","to":"electric-TX-00039","lengthM":1.2,"voltageKV":13.8,"secondaryVoltageKV":0.24,"ratingKVA":25.0,"phases":1,"phase":"A","feeder":"F1-01","feederId":"F1-01","designRole":"transformer"}},{"type":"Feature","id":"electric-E366","geometry":{"type":"LineString","coordinates":[[-80.6018955,43.2978303],[-80.6018955,43.2978303]]},"properties":{"kind":"transformer","tier":"transformer","placement":"overhead","from":"electric-T-94","to":"electric-TX-00040","lengthM":0.0,"voltageKV":13.8,"secondaryVoltageKV":0.24,"ratingKVA":25.0,"phases":1,"phase":"A","feeder":"F1-01","feederId":"F1-01","designRole":"transformer"}},{"type":"Feature","id":"electric-E370","geometry":{"type":"LineString","coordinates":[[-80.6023767,43.300102],[-80.6023767,43.300102]]},"properties":{"kind":"transformer","tier":"transformer","placement":"overhead","from":"electric-T-95","to":"electric-TX-00041","lengthM":0.0,"voltageKV":13.8,"secondaryVoltageKV":0.24,"ratingKVA":25.0,"phases":1,"phase":"C","feeder":"F1-01","feederId":"F1-01","designRole":"transformer"}},{"type":"Feature","id":"electric-E377","geometry":{"type":"LineString","coordinates":[[-80.6023143,43.3005842],[-80.6023143,43.3005842]]},"properties":{"kind":"transformer","tier":"transformer","placement":"overhead","from":"electric-T-96","to":"electric-TX-00042","lengthM":0.0,"voltageKV":13.8,"secondaryVoltageKV":0.24,"ratingKVA":25.0,"phases":1,"phase":"C","feeder":"F1-01","feederId":"F1-01","designRole":"transformer"}},{"type":"Feature","id":"electric-E384","geometry":{"type":"LineString","coordinates":[[-80.6022925,43.301064],[-80.6022925,43.301064]]},"properties":{"kind":"transformer","tier":"transformer","placement":"overhead","from":"electric-T-97","to":"electric-TX-00043","lengthM":0.0,"voltageKV":13.8,"secondaryVoltageKV":0.24,"ratingKVA":25.0,"phases":1,"phase":"C","feeder":"F1-01","feederId":"F1-01","designRole":"transformer"}},{"type":"Feature","id":"electric-E391","geometry":{"type":"LineString","coordinates":[[-80.6023207,43.3015508],[-80.6023207,43.3015508]]},"properties":{"kind":"transformer","tier":"transformer","placement":"overhead","from":"electric-T-98","to":"electric-TX-00044","lengthM":0.0,"voltageKV":13.8,"secondaryVoltageKV":0.24,"ratingKVA":25.0,"phases":1,"phase":"C","feeder":"F1-01","feederId":"F1-01","designRole":"transformer"}},{"type":"Feature","id":"electric-E398","geometry":{"type":"LineString","coordinates":[[-80.6023676,43.3019103],[-80.6023676,43.3019103]]},"properties":{"kind":"transformer","tier":"transformer","placement":"overhead","from":"electric-T-99","to":"electric-TX-00045","lengthM":0.0,"voltageKV":13.8,"secondaryVoltageKV":0.24,"ratingKVA":25.0,"phases":1,"phase":"C","feeder":"F1-01","feederId":"F1-01","designRole":"transformer"}},{"type":"Feature","id":"electric-E402","geometry":{"type":"LineString","coordinates":[[-80.6023917,43.3020618],[-80.602573,43.3020458]]},"properties":{"kind":"transformer","tier":"transformer","placement":"underground","from":"electric-T-100","to":"electric-TX-00046","lengthM":14.8,"voltageKV":13.8,"secondaryVoltageKV":0.24,"ratingKVA":25.0,"phases":1,"phase":"C","feeder":"F1-01","feederId":"F1-01","designRole":"transformer"}},{"type":"Feature","id":"electric-E404","geometry":{"type":"LineString","coordinates":[[-80.6024109,43.3021771],[-80.6024109,43.3021771]]},"properties":{"kind":"transformer","tier":"transformer","placement":"overhead","from":"electric-T-101","to":"electric-TX-00047","lengthM":0.0,"voltageKV":13.8,"secondaryVoltageKV":0.24,"ratingKVA":25.0,"phases":1,"phase":"C","feeder":"F1-01","feederId":"F1-01","designRole":"transformer"}},{"type":"Feature","id":"electric-E406","geometry":{"type":"LineString","coordinates":[[-80.6024785,43.3025814],[-80.60266,43.3025665]]},"properties":{"kind":"transformer","tier":"transformer","placement":"underground","from":"electric-T-102","to":"electric-TX-00048","lengthM":14.8,"voltageKV":13.8,"secondaryVoltageKV":0.24,"ratingKVA":50.0,"phases":1,"phase":"C","feeder":"F1-01","feederId":"F1-01","designRole":"transformer"}},{"type":"Feature","id":"electric-E417","geometry":{"type":"LineString","coordinates":[[-80.6025401,43.3030573],[-80.6027223,43.3030475]]},"properties":{"kind":"transformer","tier":"transformer","placement":"underground","from":"electric-T-103","to":"electric-TX-00049","lengthM":14.8,"voltageKV":13.8,"secondaryVoltageKV":0.24,"ratingKVA":25.0,"phases":1,"phase":"C","feeder":"F1-01","feederId":"F1-01","designRole":"transformer"}},{"type":"Feature","id":"electric-E420","geometry":{"type":"LineString","coordinates":[[-80.6014977,43.2983181],[-80.6014977,43.2983181]]},"properties":{"kind":"transformer","tier":"transformer","placement":"overhead","from":"electric-T-104","to":"electric-TX-00050","lengthM":0.0,"voltageKV":13.8,"secondaryVoltageKV":0.24,"ratingKVA":25.0,"phases":1,"phase":"A","feeder":"F1-01","feederId":"F1-01","designRole":"transformer"}},{"type":"Feature","id":"electric-E427","geometry":{"type":"LineString","coordinates":[[-80.6014544,43.2990287],[-80.6014544,43.2990287]]},"properties":{"kind":"transformer","tier":"transformer","placement":"overhead","from":"electric-T-105","to":"electric-TX-00051","lengthM":0.0,"voltageKV":13.8,"secondaryVoltageKV":0.24,"ratingKVA":25.0,"phases":1,"phase":"A","feeder":"F1-01","feederId":"F1-01","designRole":"transformer"}},{"type":"Feature","id":"electric-E434","geometry":{"type":"LineString","coordinates":[[-80.6014967,43.2994697],[-80.6014967,43.2994697]]},"properties":{"kind":"transformer","tier":"transformer","placement":"overhead","from":"electric-T-106","to":"electric-TX-00052","lengthM":0.0,"voltageKV":13.8,"secondaryVoltageKV":0.24,"ratingKVA":25.0,"phases":1,"phase":"A","feeder":"F1-01","feederId":"F1-01","designRole":"transformer"}},{"type":"Feature","id":"electric-E436","geometry":{"type":"LineString","coordinates":[[-80.6017836,43.2976687],[-80.6016249,43.2976514]]},"properties":{"kind":"transformer","tier":"transformer","placement":"overhead","from":"electric-T-107","to":"electric-TX-00053","lengthM":13.0,"voltageKV":13.8,"secondaryVoltageKV":0.24,"ratingKVA":25.0,"phases":1,"phase":"A","feeder":"F1-01","feederId":"F1-01","designRole":"transformer"}},{"type":"Feature","id":"electric-E439","geometry":{"type":"LineString","coordinates":[[-80.6018524,43.2972871],[-80.6018745,43.2972887]]},"properties":{"kind":"transformer","tier":"transformer","placement":"underground","from":"electric-T-108","to":"electric-TX-00054","lengthM":1.8,"voltageKV":13.8,"secondaryVoltageKV":0.24,"ratingKVA":25.0,"phases":1,"phase":"A","feeder":"F1-01","feederId":"F1-01","designRole":"transformer"}},{"type":"Feature","id":"electric-E447","geometry":{"type":"LineString","coordinates":[[-80.6014624,43.3001172],[-80.6014624,43.3001172]]},"properties":{"kind":"transformer","tier":"transformer","placement":"overhead","from":"electric-T-109","to":"electric-TX-00055","lengthM":0.0,"voltageKV":13.8,"secondaryVoltageKV":0.24,"ratingKVA":25.0,"phases":1,"phase":"B","feeder":"F1-01","feederId":"F1-01","designRole":"transformer"}},{"type":"Feature","id":"electric-E454","geometry":{"type":"LineString","coordinates":[[-80.601379,43.3006226],[-80.601379,43.3006226]]},"properties":{"kind":"transformer","tier":"transformer","placement":"overhead","from":"electric-T-110","to":"electric-TX-00056","lengthM":0.0,"voltageKV":13.8,"secondaryVoltageKV":0.24,"ratingKVA":25.0,"phases":1,"phase":"B","feeder":"F1-01","feederId":"F1-01","designRole":"transformer"}},{"type":"Feature","id":"electric-E461","geometry":{"type":"LineString","coordinates":[[-80.6013039,43.3011255],[-80.6013039,43.3011255]]},"properties":{"kind":"transformer","tier":"transformer","placement":"overhead","from":"electric-T-111","to":"electric-TX-00057","lengthM":0.0,"voltageKV":13.8,"secondaryVoltageKV":0.24,"ratingKVA":25.0,"phases":1,"phase":"B","feeder":"F1-01","feederId":"F1-01","designRole":"transformer"}},{"type":"Feature","id":"electric-E468","geometry":{"type":"LineString","coordinates":[[-80.6012659,43.3016391],[-80.6012659,43.3016391]]},"properties":{"kind":"transformer","tier":"transformer","placement":"overhead","from":"electric-T-112","to":"electric-TX-00058","lengthM":0.0,"voltageKV":13.8,"secondaryVoltageKV":0.24,"ratingKVA":25.0,"phases":1,"phase":"B","feeder":"F1-01","feederId":"F1-01","designRole":"transformer"}},{"type":"Feature","id":"electric-E475","geometry":{"type":"LineString","coordinates":[[-80.6012822,43.3021447],[-80.6012822,43.3021447]]},"properties":{"kind":"transformer","tier":"transformer","placement":"overhead","from":"electric-T-113","to":"electric-TX-00059","lengthM":0.0,"voltageKV":13.8,"secondaryVoltageKV":0.24,"ratingKVA":25.0,"phases":1,"phase":"B","feeder":"F1-01","feederId":"F1-01","designRole":"transformer"}},{"type":"Feature","id":"electric-E482","geometry":{"type":"LineString","coordinates":[[-80.6013174,43.3024585],[-80.6013174,43.3024585]]},"properties":{"kind":"transformer","tier":"transformer","placement":"overhead","from":"electric-T-114","to":"electric-TX-00060","lengthM":0.0,"voltageKV":13.8,"secondaryVoltageKV":0.24,"ratingKVA":25.0,"phases":1,"phase":"B","feeder":"F1-01","feederId":"F1-01","designRole":"transformer"}},{"type":"Feature","id":"electric-E484","geometry":{"type":"LineString","coordinates":[[-80.6013693,43.3027975],[-80.6015506,43.3027816]]},"properties":{"kind":"transformer","tier":"transformer","placement":"underground","from":"electric-T-115","to":"electric-TX-00061","lengthM":14.8,"voltageKV":13.8,"secondaryVoltageKV":0.24,"ratingKVA":25.0,"phases":1,"phase":"B","feeder":"F1-01","feederId":"F1-01","designRole":"transformer"}},{"type":"Feature","id":"electric-E492","geometry":{"type":"LineString","coordinates":[[-80.5997749,43.3002487],[-80.5997749,43.3002487]]},"properties":{"kind":"transformer","tier":"transformer","placement":"overhead","from":"electric-T-116","to":"electric-TX-00062","lengthM":0.0,"voltageKV":13.8,"secondaryVoltageKV":0.24,"ratingKVA":25.0,"phases":1,"phase":"ABC","feeder":"F1-02","feederId":"F1-02","designRole":"transformer"}},{"type":"Feature","id":"electric-E499","geometry":{"type":"LineString","coordinates":[[-80.5997168,43.3006088],[-80.5997168,43.3006088]]},"properties":{"kind":"transformer","tier":"transformer","placement":"overhead","from":"electric-T-117","to":"electric-TX-00063","lengthM":0.0,"voltageKV":13.8,"secondaryVoltageKV":0.24,"ratingKVA":25.0,"phases":1,"phase":"C","feeder":"F1-02","feederId":"F1-02","designRole":"transformer"}},{"type":"Feature","id":"electric-E501","geometry":{"type":"LineString","coordinates":[[-80.5994512,43.3029511],[-80.5994365,43.302952]]},"properties":{"kind":"transformer","tier":"transformer","placement":"underground","from":"electric-T-118","to":"electric-TX-00064","lengthM":1.2,"voltageKV":13.8,"secondaryVoltageKV":0.24,"ratingKVA":25.0,"phases":1,"phase":"C","feeder":"F1-02","feederId":"F1-02","designRole":"transformer"}},{"type":"Feature","id":"electric-E508","geometry":{"type":"LineString","coordinates":[[-80.5994246,43.3024271],[-80.5994246,43.3024271]]},"properties":{"kind":"transformer","tier":"transformer","placement":"overhead","from":"electric-T-119","to":"electric-TX-00065","lengthM":0.0,"voltageKV":13.8,"secondaryVoltageKV":0.24,"ratingKVA":25.0,"phases":1,"phase":"C","feeder":"F1-02","feederId":"F1-02","designRole":"transformer"}},{"type":"Feature","id":"electric-E515","geometry":{"type":"LineString","coordinates":[[-80.5994609,43.3019191],[-80.5994609,43.3019191]]},"properties":{"kind":"transformer","tier":"transformer","placement":"overhead","from":"electric-T-120","to":"electric-TX-00066","lengthM":0.0,"voltageKV":13.8,"secondaryVoltageKV":0.24,"ratingKVA":25.0,"phases":1,"phase":"C","feeder":"F1-02","feederId":"F1-02","designRole":"transformer"}},{"type":"Feature","id":"electric-E522","geometry":{"type":"LineString","coordinates":[[-80.5995457,43.3014187],[-80.5995457,43.3014188]]},"properties":{"kind":"transformer","tier":"transformer","placement":"overhead","from":"electric-T-121","to":"electric-TX-00067","lengthM":0.0,"voltageKV":13.8,"secondaryVoltageKV":0.24,"ratingKVA":25.0,"phases":1,"phase":"C","feeder":"F1-02","feederId":"F1-02","designRole":"transformer"}},{"type":"Feature","id":"electric-E529","geometry":{"type":"LineString","coordinates":[[-80.5996202,43.301071],[-80.5996202,43.301071]]},"properties":{"kind":"transformer","tier":"transformer","placement":"overhead","from":"electric-T-122","to":"electric-TX-00068","lengthM":0.0,"voltageKV":13.8,"secondaryVoltageKV":0.24,"ratingKVA":25.0,"phases":1,"phase":"C","feeder":"F1-02","feederId":"F1-02","designRole":"transformer"}},{"type":"Feature","id":"electric-E533","geometry":{"type":"LineString","coordinates":[[-80.5991925,43.3007032],[-80.5991925,43.3007032]]},"properties":{"kind":"transformer","tier":"transformer","placement":"overhead","from":"electric-T-123","to":"electric-TX-00069","lengthM":0.0,"voltageKV":13.8,"secondaryVoltageKV":0.24,"ratingKVA":25.0,"phases":1,"phase":"A","feeder":"F1-02","feederId":"F1-02","designRole":"transformer"}},{"type":"Feature","id":"electric-E538","geometry":{"type":"LineString","coordinates":[[-80.5995487,43.2987831],[-80.5997091,43.2987855]]},"properties":{"kind":"transformer","tier":"transformer","placement":"overhead","from":"electric-T-124","to":"electric-TX-00070","lengthM":13.0,"voltageKV":13.8,"secondaryVoltageKV":0.24,"ratingKVA":25.0,"phases":1,"phase":"C","feeder":"F1-02","feederId":"F1-02","designRole":"transformer"}},{"type":"Feature","id":"electric-E545","geometry":{"type":"LineString","coordinates":[[-80.5995436,43.2983387],[-80.599704,43.298335]]},"properties":{"kind":"transformer","tier":"transformer","placement":"overhead","from":"electric-T-125","to":"electric-TX-00071","lengthM":13.0,"voltageKV":13.8,"secondaryVoltageKV":0.24,"ratingKVA":25.0,"phases":1,"phase":"C","feeder":"F1-02","feederId":"F1-02","designRole":"transformer"}},{"type":"Feature","id":"electric-E552","geometry":{"type":"LineString","coordinates":[[-80.5994669,43.2975995],[-80.5996265,43.2975875]]},"properties":{"kind":"transformer","tier":"transformer","placement":"overhead","from":"electric-T-126","to":"electric-TX-00072","lengthM":13.0,"voltageKV":13.8,"secondaryVoltageKV":0.24,"ratingKVA":25.0,"phases":1,"phase":"C","feeder":"F1-02","feederId":"F1-02","designRole":"transformer"}},{"type":"Feature","id":"electric-E559","geometry":{"type":"LineString","coordinates":[[-80.5994323,43.2973572],[-80.5995919,43.297345]]},"properties":{"kind":"transformer","tier":"transformer","placement":"overhead","from":"electric-T-127","to":"electric-TX-00073","lengthM":13.0,"voltageKV":13.8,"secondaryVoltageKV":0.24,"ratingKVA":25.0,"phases":1,"phase":"C","feeder":"F1-02","feederId":"F1-02","designRole":"transformer"}},{"type":"Feature","id":"electric-E561","geometry":{"type":"LineString","coordinates":[[-80.5993832,43.2970034],[-80.5995577,43.2969915]]},"properties":{"kind":"transformer","tier":"transformer","placement":"underground","from":"electric-T-128","to":"electric-TX-00074","lengthM":14.2,"voltageKV":13.8,"secondaryVoltageKV":0.24,"ratingKVA":25.0,"phases":1,"phase":"C","feeder":"F1-02","feederId":"F1-02","designRole":"transformer"}},{"type":"Feature","id":"electric-E570","geometry":{"type":"LineString","coordinates":[[-80.5993234,43.2963359],[-80.5994986,43.2963333]]},"properties":{"kind":"transformer","tier":"transformer","placement":"underground","from":"electric-T-129","to":"electric-TX-00075","lengthM":14.2,"voltageKV":13.8,"secondaryVoltageKV":0.24,"ratingKVA":25.0,"phases":1,"phase":"C","feeder":"F1-02","feederId":"F1-02","designRole":"transformer"}},{"type":"Feature","id":"electric-E572","geometry":{"type":"LineString","coordinates":[[-80.5987618,43.3002661],[-80.5987618,43.3002661]]},"properties":{"kind":"transformer","tier":"transformer","placement":"overhead","from":"electric-T-130","to":"electric-TX-00076","lengthM":0.0,"voltageKV":13.8,"secondaryVoltageKV":0.24,"ratingKVA":25.0,"phases":1,"phase":"A","feeder":"F1-02","feederId":"F1-02","designRole":"transformer"}},{"type":"Feature","id":"electric-E579","geometry":{"type":"LineString","coordinates":[[-80.5987275,43.2999118],[-80.5987275,43.2999118]]},"properties":{"kind":"transformer","tier":"transformer","placement":"overhead","from":"electric-T-131","to":"electric-TX-00077","lengthM":0.0,"voltageKV":13.8,"secondaryVoltageKV":0.24,"ratingKVA":25.0,"phases":1,"phase":"A","feeder":"F1-02","feederId":"F1-02","designRole":"transformer"}},{"type":"Feature","id":"electric-E584","geometry":{"type":"LineString","coordinates":[[-80.5988665,43.301225],[-80.598707,43.3012122]]},"properties":{"kind":"transformer","tier":"transformer","placement":"overhead","from":"electric-T-132","to":"electric-TX-00078","lengthM":13.0,"voltageKV":13.8,"secondaryVoltageKV":0.24,"ratingKVA":25.0,"phases":1,"phase":"A","feeder":"F1-02","feederId":"F1-02","designRole":"transformer"}},{"type":"Feature","id":"electric-E591","geometry":{"type":"LineString","coordinates":[[-80.598782,43.3016689],[-80.5986235,43.3016509]]},"properties":{"kind":"transformer","tier":"transformer","placement":"overhead","from":"electric-T-133","to":"electric-TX-00079","lengthM":13.0,"voltageKV":13.8,"secondaryVoltageKV":0.24,"ratingKVA":25.0,"phases":1,"phase":"A","feeder":"F1-02","feederId":"F1-02","designRole":"transformer"}},{"type":"Feature","id":"electric-E598","geometry":{"type":"LineString","coordinates":[[-80.5986839,43.3021211],[-80.5985254,43.302103]]},"properties":{"kind":"transformer","tier":"transformer","placement":"overhead","from":"electric-T-134","to":"electric-TX-00080","lengthM":13.0,"voltageKV":13.8,"secondaryVoltageKV":0.24,"ratingKVA":25.0,"phases":1,"phase":"A","feeder":"F1-02","feederId":"F1-02","designRole":"transformer"}},{"type":"Feature","id":"electric-E605","geometry":{"type":"LineString","coordinates":[[-80.5986219,43.3024362],[-80.5984628,43.302421]]},"properties":{"kind":"transformer","tier":"transformer","placement":"overhead","from":"electric-T-135","to":"electric-TX-00081","lengthM":13.0,"voltageKV":13.8,"secondaryVoltageKV":0.24,"ratingKVA":25.0,"phases":1,"phase":"A","feeder":"F1-02","feederId":"F1-02","designRole":"transformer"}},{"type":"Feature","id":"electric-E609","geometry":{"type":"LineString","coordinates":[[-80.5985612,43.3028613],[-80.5985833,43.3028626]]},"properties":{"kind":"transformer","tier":"transformer","placement":"underground","from":"electric-T-136","to":"electric-TX-00082","lengthM":1.8,"voltageKV":13.8,"secondaryVoltageKV":0.24,"ratingKVA":25.0,"phases":1,"phase":"A","feeder":"F1-02","feederId":"F1-02","designRole":"transformer"}},{"type":"Feature","id":"electric-E617","geometry":{"type":"LineString","coordinates":[[-80.5986402,43.2991067],[-80.5986402,43.2991067]]},"properties":{"kind":"transformer","tier":"transformer","placement":"overhead","from":"electric-T-137","to":"electric-TX-00083","lengthM":0.0,"voltageKV":13.8,"secondaryVoltageKV":0.24,"ratingKVA":25.0,"phases":1,"phase":"B","feeder":"F1-02","feederId":"F1-02","designRole":"transformer"}},{"type":"Feature","id":"electric-E624","geometry":{"type":"LineString","coordinates":[[-80.598599,43.2986067],[-80.598599,43.2986067]]},"properties":{"kind":"transformer","tier":"transformer","placement":"overhead","from":"electric-T-138","to":"electric-TX-00084","lengthM":0.0,"voltageKV":13.8,"secondaryVoltageKV":0.24,"ratingKVA":25.0,"phases":1,"phase":"B","feeder":"F1-02","feederId":"F1-02","designRole":"transformer"}},{"type":"Feature","id":"electric-E631","geometry":{"type":"LineString","coordinates":[[-80.5985305,43.2980969],[-80.5985305,43.2980969]]},"properties":{"kind":"transformer","tier":"transformer","placement":"overhead","from":"electric-T-139","to":"electric-TX-00085","lengthM":0.0,"voltageKV":13.8,"secondaryVoltageKV":0.24,"ratingKVA":25.0,"phases":1,"phase":"B","feeder":"F1-02","feederId":"F1-02","designRole":"transformer"}},{"type":"Feature","id":"electric-E638","geometry":{"type":"LineString","coordinates":[[-80.5984831,43.2977592],[-80.5984831,43.2977592]]},"properties":{"kind":"transformer","tier":"transformer","placement":"overhead","from":"electric-T-140","to":"electric-TX-00086","lengthM":0.0,"voltageKV":13.8,"secondaryVoltageKV":0.24,"ratingKVA":50.0,"phases":1,"phase":"B","feeder":"F1-02","feederId":"F1-02","designRole":"transformer"}},{"type":"Feature","id":"electric-E642","geometry":{"type":"LineString","coordinates":[[-80.5984615,43.2975877],[-80.5982794,43.2975983]]},"properties":{"kind":"transformer","tier":"transformer","placement":"underground","from":"electric-T-141","to":"electric-TX-00087","lengthM":14.8,"voltageKV":13.8,"secondaryVoltageKV":0.24,"ratingKVA":25.0,"phases":1,"phase":"B","feeder":"F1-02","feederId":"F1-02","designRole":"transformer"}},{"type":"Feature","id":"electric-E644","geometry":{"type":"LineString","coordinates":[[-80.5984472,43.2974575],[-80.5984472,43.2974575]]},"properties":{"kind":"transformer","tier":"transformer","placement":"overhead","from":"electric-T-142","to":"electric-TX-00088","lengthM":0.0,"voltageKV":13.8,"secondaryVoltageKV":0.24,"ratingKVA":25.0,"phases":1,"phase":"B","feeder":"F1-02","feederId":"F1-02","designRole":"transformer"}},{"type":"Feature","id":"electric-E646","geometry":{"type":"LineString","coordinates":[[-80.5984246,43.297177],[-80.5982421,43.2971827]]},"properties":{"kind":"transformer","tier":"transformer","placement":"underground","from":"electric-T-143","to":"electric-TX-00089","lengthM":14.8,"voltageKV":13.8,"secondaryVoltageKV":0.24,"ratingKVA":25.0,"phases":1,"phase":"B","feeder":"F1-02","feederId":"F1-02","designRole":"transformer"}},{"type":"Feature","id":"electric-E653","geometry":{"type":"LineString","coordinates":[[-80.598419,43.2965989],[-80.5982364,43.2965954]]},"properties":{"kind":"transformer","tier":"transformer","placement":"underground","from":"electric-T-144","to":"electric-TX-00090","lengthM":14.8,"voltageKV":13.8,"secondaryVoltageKV":0.24,"ratingKVA":25.0,"phases":1,"phase":"B","feeder":"F1-02","feederId":"F1-02","designRole":"transformer"}},{"type":"Feature","id":"electric-E655","geometry":{"type":"LineString","coordinates":[[-80.5975574,43.3000258],[-80.5975574,43.3000258]]},"properties":{"kind":"transformer","tier":"transformer","placement":"overhead","from":"electric-T-145","to":"electric-TX-00091","lengthM":0.0,"voltageKV":13.8,"secondaryVoltageKV":0.24,"ratingKVA":25.0,"phases":1,"phase":"A","feeder":"F1-02","feederId":"F1-02","designRole":"transformer"}},{"type":"Feature","id":"electric-E662","geometry":{"type":"LineString","coordinates":[[-80.5976594,43.3005423],[-80.5976593,43.3005419]]},"properties":{"kind":"transformer","tier":"transformer","placement":"overhead","from":"electric-T-146","to":"electric-TX-00092","lengthM":0.05,"voltageKV":13.8,"secondaryVoltageKV":0.24,"ratingKVA":25.0,"phases":1,"phase":"A","feeder":"F1-02","feederId":"F1-02","designRole":"transformer"}},{"type":"Feature","id":"electric-E669","geometry":{"type":"LineString","coordinates":[[-80.5977172,43.3010448],[-80.5977172,43.3010448]]},"properties":{"kind":"transformer","tier":"transformer","placement":"overhead","from":"electric-T-147","to":"electric-TX-00093","lengthM":0.0,"voltageKV":13.8,"secondaryVoltageKV":0.24,"ratingKVA":25.0,"phases":1,"phase":"A","feeder":"F1-02","feederId":"F1-02","designRole":"transformer"}},{"type":"Feature","id":"electric-E676","geometry":{"type":"LineString","coordinates":[[-80.5977156,43.3015541],[-80.5977156,43.3015541]]},"properties":{"kind":"transformer","tier":"transformer","placement":"overhead","from":"electric-T-148","to":"electric-TX-00094","lengthM":0.0,"voltageKV":13.8,"secondaryVoltageKV":0.24,"ratingKVA":25.0,"phases":1,"phase":"A","feeder":"F1-02","feederId":"F1-02","designRole":"transformer"}},{"type":"Feature","id":"electric-E683","geometry":{"type":"LineString","coordinates":[[-80.5976683,43.3019785],[-80.5976683,43.3019785]]},"properties":{"kind":"transformer","tier":"transformer","placement":"overhead","from":"electric-T-149","to":"electric-TX-00095","lengthM":0.0,"voltageKV":13.8,"secondaryVoltageKV":0.24,"ratingKVA":25.0,"phases":1,"phase":"A","feeder":"F1-02","feederId":"F1-02","designRole":"transformer"}},{"type":"Feature","id":"electric-E688","geometry":{"type":"LineString","coordinates":[[-80.5975711,43.3024882],[-80.5975564,43.3024865]]},"properties":{"kind":"transformer","tier":"transformer","placement":"underground","from":"electric-T-150","to":"electric-TX-00096","lengthM":1.2,"voltageKV":13.8,"secondaryVoltageKV":0.24,"ratingKVA":50.0,"phases":1,"phase":"A","feeder":"F1-02","feederId":"F1-02","designRole":"transformer"}},{"type":"Feature","id":"electric-E697","geometry":{"type":"LineString","coordinates":[[-80.5975078,43.2991241],[-80.5975078,43.2991241]]},"properties":{"kind":"transformer","tier":"transformer","placement":"overhead","from":"electric-T-151","to":"electric-TX-00097","lengthM":0.0,"voltageKV":13.8,"secondaryVoltageKV":0.24,"ratingKVA":25.0,"phases":1,"phase":"B","feeder":"F1-02","feederId":"F1-02","designRole":"transformer"}},{"type":"Feature","id":"electric-E704","geometry":{"type":"LineString","coordinates":[[-80.5974398,43.2986444],[-80.5974398,43.2986444]]},"properties":{"kind":"transformer","tier":"transformer","placement":"overhead","from":"electric-T-152","to":"electric-TX-00098","lengthM":0.0,"voltageKV":13.8,"secondaryVoltageKV":0.24,"ratingKVA":25.0,"phases":1,"phase":"B","feeder":"F1-02","feederId":"F1-02","designRole":"transformer"}},{"type":"Feature","id":"electric-E711","geometry":{"type":"LineString","coordinates":[[-80.5973983,43.2983317],[-80.5973984,43.298332]]},"properties":{"kind":"transformer","tier":"transformer","placement":"overhead","from":"electric-T-153","to":"electric-TX-00099","lengthM":0.04,"voltageKV":13.8,"secondaryVoltageKV":0.24,"ratingKVA":25.0,"phases":1,"phase":"B","feeder":"F1-02","feederId":"F1-02","designRole":"transformer"}},{"type":"Feature","id":"electric-E714","geometry":{"type":"LineString","coordinates":[[-80.5973875,43.2982335],[-80.5972054,43.2982441]]},"properties":{"kind":"transformer","tier":"transformer","placement":"underground","from":"electric-T-154","to":"electric-TX-00100","lengthM":14.8,"voltageKV":13.8,"secondaryVoltageKV":0.24,"ratingKVA":25.0,"phases":1,"phase":"B","feeder":"F1-02","feederId":"F1-02","designRole":"transformer"}},{"type":"Feature","id":"electric-E716","geometry":{"type":"LineString","coordinates":[[-80.5973752,43.2981135],[-80.5973752,43.2981135]]},"properties":{"kind":"transformer","tier":"transformer","placement":"overhead","from":"electric-T-155","to":"electric-TX-00101","lengthM":0.0,"voltageKV":13.8,"secondaryVoltageKV":0.24,"ratingKVA":25.0,"phases":1,"phase":"B","feeder":"F1-02","feederId":"F1-02","designRole":"transformer"}},{"type":"Feature","id":"electric-E718","geometry":{"type":"LineString","coordinates":[[-80.597373,43.2980872],[-80.5971907,43.2980955]]},"properties":{"kind":"transformer","tier":"transformer","placement":"underground","from":"electric-T-156","to":"electric-TX-00102","lengthM":14.8,"voltageKV":13.8,"secondaryVoltageKV":0.24,"ratingKVA":25.0,"phases":1,"phase":"B","feeder":"F1-02","feederId":"F1-02","designRole":"transformer"}},{"type":"Feature","id":"electric-E720","geometry":{"type":"LineString","coordinates":[[-80.5973612,43.2979391],[-80.5973612,43.2979391]]},"properties":{"kind":"transformer","tier":"transformer","placement":"overhead","from":"electric-T-157","to":"electric-TX-00103","lengthM":0.0,"voltageKV":13.8,"secondaryVoltageKV":0.24,"ratingKVA":25.0,"phases":1,"phase":"B","feeder":"F1-02","feederId":"F1-02","designRole":"transformer"}},{"type":"Feature","id":"electric-E722","geometry":{"type":"LineString","coordinates":[[-80.5973491,43.297445],[-80.5973639,43.2974452]]},"properties":{"kind":"transformer","tier":"transformer","placement":"underground","from":"electric-T-158","to":"electric-TX-00104","lengthM":1.2,"voltageKV":13.8,"secondaryVoltageKV":0.24,"ratingKVA":25.0,"phases":1,"phase":"B","feeder":"F1-02","feederId":"F1-02","designRole":"transformer"}},{"type":"Feature","id":"electric-E728","geometry":{"type":"LineString","coordinates":[[-80.5973896,43.2968606],[-80.5974043,43.2968615]]},"properties":{"kind":"transformer","tier":"transformer","placement":"underground","from":"electric-T-159","to":"electric-TX-00105","lengthM":1.2,"voltageKV":13.8,"secondaryVoltageKV":0.24,"ratingKVA":25.0,"phases":1,"phase":"B","feeder":"F1-02","feederId":"F1-02","designRole":"transformer"}},{"type":"Feature","id":"electric-E731","geometry":{"type":"LineString","coordinates":[[-80.5963902,43.3001999],[-80.5965491,43.3001835]]},"properties":{"kind":"transformer","tier":"transformer","placement":"overhead","from":"electric-T-160","to":"electric-TX-00106","lengthM":13.0,"voltageKV":13.8,"secondaryVoltageKV":0.24,"ratingKVA":25.0,"phases":1,"phase":"C","feeder":"F1-02","feederId":"F1-02","designRole":"transformer"}},{"type":"Feature","id":"electric-E733","geometry":{"type":"LineString","coordinates":[[-80.5964181,43.3003432],[-80.5963961,43.3003454]]},"properties":{"kind":"transformer","tier":"transformer","placement":"underground","from":"electric-T-161","to":"electric-TX-00107","lengthM":1.8,"voltageKV":13.8,"secondaryVoltageKV":0.24,"ratingKVA":25.0,"phases":1,"phase":"C","feeder":"F1-02","feederId":"F1-02","designRole":"transformer"}},{"type":"Feature","id":"electric-E735","geometry":{"type":"LineString","coordinates":[[-80.5964205,43.3003555],[-80.5965793,43.3003391]]},"properties":{"kind":"transformer","tier":"transformer","placement":"overhead","from":"electric-T-162","to":"electric-TX-00108","lengthM":13.0,"voltageKV":13.8,"secondaryVoltageKV":0.24,"ratingKVA":25.0,"phases":1,"phase":"C","feeder":"F1-02","feederId":"F1-02","designRole":"transformer"}},{"type":"Feature","id":"electric-E737","geometry":{"type":"LineString","coordinates":[[-80.5964489,43.3004906],[-80.5964269,43.300493]]},"properties":{"kind":"transformer","tier":"transformer","placement":"underground","from":"electric-T-163","to":"electric-TX-00109","lengthM":1.8,"voltageKV":13.8,"secondaryVoltageKV":0.24,"ratingKVA":25.0,"phases":1,"phase":"C","feeder":"F1-02","feederId":"F1-02","designRole":"transformer"}},{"type":"Feature","id":"electric-E739","geometry":{"type":"LineString","coordinates":[[-80.5964657,43.3005693],[-80.5966241,43.300551]]},"properties":{"kind":"transformer","tier":"transformer","placement":"overhead","from":"electric-T-164","to":"electric-TX-00110","lengthM":13.0,"voltageKV":13.8,"secondaryVoltageKV":0.24,"ratingKVA":25.0,"phases":1,"phase":"C","feeder":"F1-02","feederId":"F1-02","designRole":"transformer"}},{"type":"Feature","id":"electric-E742","geometry":{"type":"LineString","coordinates":[[-80.5964814,43.3006411],[-80.5964594,43.3006437]]},"properties":{"kind":"transformer","tier":"transformer","placement":"underground","from":"electric-T-165","to":"electric-TX-00111","lengthM":1.8,"voltageKV":13.8,"secondaryVoltageKV":0.24,"ratingKVA":25.0,"phases":1,"phase":"C","feeder":"F1-02","feederId":"F1-02","designRole":"transformer"}},{"type":"Feature","id":"electric-E744","geometry":{"type":"LineString","coordinates":[[-80.5965133,43.3007874],[-80.5966718,43.3007691]]},"properties":{"kind":"transformer","tier":"transformer","placement":"overhead","from":"electric-T-166","to":"electric-TX-00112","lengthM":13.0,"voltageKV":13.8,"secondaryVoltageKV":0.24,"ratingKVA":25.0,"phases":1,"phase":"C","feeder":"F1-02","feederId":"F1-02","designRole":"transformer"}},{"type":"Feature","id":"electric-E746","geometry":{"type":"LineString","coordinates":[[-80.5965298,43.3008627],[-80.5965078,43.3008652]]},"properties":{"kind":"transformer","tier":"transformer","placement":"underground","from":"electric-T-167","to":"electric-TX-00113","lengthM":1.8,"voltageKV":13.8,"secondaryVoltageKV":0.24,"ratingKVA":25.0,"phases":1,"phase":"C","feeder":"F1-02","feederId":"F1-02","designRole":"transformer"}},{"type":"Feature","id":"electric-E749","geometry":{"type":"LineString","coordinates":[[-80.596546,43.3009388],[-80.5967047,43.3009214]]},"properties":{"kind":"transformer","tier":"transformer","placement":"overhead","from":"electric-T-168","to":"electric-TX-00114","lengthM":13.0,"voltageKV":13.8,"secondaryVoltageKV":0.24,"ratingKVA":25.0,"phases":1,"phase":"C","feeder":"F1-02","feederId":"F1-02","designRole":"transformer"}},{"type":"Feature","id":"electric-E751","geometry":{"type":"LineString","coordinates":[[-80.5965752,43.3010795],[-80.5965532,43.3010817]]},"properties":{"kind":"transformer","tier":"transformer","placement":"underground","from":"electric-T-169","to":"electric-TX-00115","lengthM":1.8,"voltageKV":13.8,"secondaryVoltageKV":0.24,"ratingKVA":25.0,"phases":1,"phase":"C","feeder":"F1-02","feederId":"F1-02","designRole":"transformer"}},{"type":"Feature","id":"electric-E753","geometry":{"type":"LineString","coordinates":[[-80.5965785,43.3010962],[-80.5967374,43.3010803]]},"properties":{"kind":"transformer","tier":"transformer","placement":"overhead","from":"electric-T-170","to":"electric-TX-00116","lengthM":13.0,"voltageKV":13.8,"secondaryVoltageKV":0.24,"ratingKVA":25.0,"phases":1,"phase":"C","feeder":"F1-02","feederId":"F1-02","designRole":"transformer"}},{"type":"Feature","id":"electric-E755","geometry":{"type":"LineString","coordinates":[[-80.5966043,43.3012325],[-80.5965823,43.3012348]]},"properties":{"kind":"transformer","tier":"transformer","placement":"underground","from":"electric-T-171","to":"electric-TX-00117","lengthM":1.8,"voltageKV":13.8,"secondaryVoltageKV":0.24,"ratingKVA":25.0,"phases":1,"phase":"C","feeder":"F1-02","feederId":"F1-02","designRole":"transformer"}},{"type":"Feature","id":"electric-E757","geometry":{"type":"LineString","coordinates":[[-80.5966071,43.3012469],[-80.596766,43.301231]]},"properties":{"kind":"transformer","tier":"transformer","placement":"overhead","from":"electric-T-172","to":"electric-TX-00118","lengthM":13.0,"voltageKV":13.8,"secondaryVoltageKV":0.24,"ratingKVA":25.0,"phases":1,"phase":"C","feeder":"F1-02","feederId":"F1-02","designRole":"transformer"}},{"type":"Feature","id":"electric-E759","geometry":{"type":"LineString","coordinates":[[-80.5966309,43.3013905],[-80.5966088,43.3013924]]},"properties":{"kind":"transformer","tier":"transformer","placement":"underground","from":"electric-T-173","to":"electric-TX-00119","lengthM":1.8,"voltageKV":13.8,"secondaryVoltageKV":0.24,"ratingKVA":25.0,"phases":1,"phase":"C","feeder":"F1-02","feederId":"F1-02","designRole":"transformer"}},{"type":"Feature","id":"electric-E761","geometry":{"type":"LineString","coordinates":[[-80.5966317,43.3013957],[-80.5967911,43.3013819]]},"properties":{"kind":"transformer","tier":"transformer","placement":"overhead","from":"electric-T-174","to":"electric-TX-00120","lengthM":13.0,"voltageKV":13.8,"secondaryVoltageKV":0.24,"ratingKVA":25.0,"phases":1,"phase":"C","feeder":"F1-02","feederId":"F1-02","designRole":"transformer"}},{"type":"Feature","id":"electric-E763","geometry":{"type":"LineString","coordinates":[[-80.5966519,43.3015397],[-80.5966298,43.3015412]]},"properties":{"kind":"transformer","tier":"transformer","placement":"underground","from":"electric-T-175","to":"electric-TX-00121","lengthM":1.8,"voltageKV":13.8,"secondaryVoltageKV":0.24,"ratingKVA":25.0,"phases":1,"phase":"C","feeder":"F1-02","feederId":"F1-02","designRole":"transformer"}},{"type":"Feature","id":"electric-E765","geometry":{"type":"LineString","coordinates":[[-80.5966621,43.3016188],[-80.5968219,43.3016085]]},"properties":{"kind":"transformer","tier":"transformer","placement":"overhead","from":"electric-T-176","to":"electric-TX-00122","lengthM":13.0,"voltageKV":13.8,"secondaryVoltageKV":0.24,"ratingKVA":25.0,"phases":1,"phase":"C","feeder":"F1-02","feederId":"F1-02","designRole":"transformer"}},{"type":"Feature","id":"electric-E768","geometry":{"type":"LineString","coordinates":[[-80.5966879,43.3020741],[-80.5968631,43.3020736]]},"properties":{"kind":"transformer","tier":"transformer","placement":"underground","from":"electric-T-177","to":"electric-TX-00123","lengthM":14.2,"voltageKV":13.8,"secondaryVoltageKV":0.24,"ratingKVA":50.0,"phases":1,"phase":"C","feeder":"F1-02","feederId":"F1-02","designRole":"transformer"}},{"type":"Feature","id":"electric-E779","geometry":{"type":"LineString","coordinates":[[-80.5966493,43.3026521],[-80.5968239,43.3026633]]},"properties":{"kind":"transformer","tier":"transformer","placement":"underground","from":"electric-T-178","to":"electric-TX-00124","lengthM":14.2,"voltageKV":13.8,"secondaryVoltageKV":0.24,"ratingKVA":25.0,"phases":1,"phase":"C","feeder":"F1-02","feederId":"F1-02","designRole":"transformer"}},{"type":"Feature","id":"electric-E782","geometry":{"type":"LineString","coordinates":[[-80.5964903,43.2998023],[-80.5964903,43.2998023]]},"properties":{"kind":"transformer","tier":"transformer","placement":"overhead","from":"electric-T-179","to":"electric-TX-00125","lengthM":0.0,"voltageKV":13.8,"secondaryVoltageKV":0.24,"ratingKVA":25.0,"phases":1,"phase":"C","feeder":"F1-02","feederId":"F1-02","designRole":"transformer"}},{"type":"Feature","id":"electric-E784","geometry":{"type":"LineString","coordinates":[[-80.5962253,43.3000838],[-80.5962253,43.299967]]},"properties":{"kind":"transformer","tier":"transformer","placement":"overhead","from":"electric-T-180","to":"electric-TX-00126","lengthM":13.0,"voltageKV":13.8,"secondaryVoltageKV":0.24,"ratingKVA":25.0,"phases":1,"phase":"C","feeder":"F1-02","feederId":"F1-02","designRole":"transformer"}},{"type":"Feature","id":"electric-E786","geometry":{"type":"LineString","coordinates":[[-80.5957812,43.3000838],[-80.5957812,43.3001]]},"properties":{"kind":"transformer","tier":"transformer","placement":"underground","from":"electric-T-181","to":"electric-TX-00127","lengthM":1.8,"voltageKV":13.8,"secondaryVoltageKV":0.24,"ratingKVA":25.0,"phases":1,"phase":"A","feeder":"F1-02","feederId":"F1-02","designRole":"transformer"}},{"type":"Feature","id":"electric-E793","geometry":{"type":"LineString","coordinates":[[-80.5962906,43.2986993],[-80.5963128,43.2986984]]},"properties":{"kind":"transformer","tier":"transformer","placement":"underground","from":"electric-T-182","to":"electric-TX-00128","lengthM":1.8,"voltageKV":13.8,"secondaryVoltageKV":0.24,"ratingKVA":50.0,"phases":1,"phase":"B","feeder":"F1-02","feederId":"F1-02","designRole":"transformer"}},{"type":"Feature","id":"electric-E802","geometry":{"type":"LineString","coordinates":[[-80.5963184,43.2989922],[-80.5961585,43.2990015]]},"properties":{"kind":"transformer","tier":"transformer","placement":"overhead","from":"electric-T-183","to":"electric-TX-00129","lengthM":13.0,"voltageKV":13.8,"secondaryVoltageKV":0.24,"ratingKVA":25.0,"phases":1,"phase":"B","feeder":"F1-02","feederId":"F1-02","designRole":"transformer"}},{"type":"Feature","id":"electric-E804","geometry":{"type":"LineString","coordinates":[[-80.5963353,43.2991323],[-80.5961607,43.2991441]]},"properties":{"kind":"transformer","tier":"transformer","placement":"underground","from":"electric-T-184","to":"electric-TX-00130","lengthM":14.2,"voltageKV":13.8,"secondaryVoltageKV":0.24,"ratingKVA":25.0,"phases":1,"phase":"B","feeder":"F1-02","feederId":"F1-02","designRole":"transformer"}},{"type":"Feature","id":"electric-E806","geometry":{"type":"LineString","coordinates":[[-80.5963366,43.2991425],[-80.5961768,43.2991533]]},"properties":{"kind":"transformer","tier":"transformer","placement":"overhead","from":"electric-T-185","to":"electric-TX-00131","lengthM":13.0,"voltageKV":13.8,"secondaryVoltageKV":0.24,"ratingKVA":25.0,"phases":1,"phase":"B","feeder":"F1-02","feederId":"F1-02","designRole":"transformer"}},{"type":"Feature","id":"electric-E808","geometry":{"type":"LineString","coordinates":[[-80.5963561,43.2992897],[-80.5961817,43.2993026]]},"properties":{"kind":"transformer","tier":"transformer","placement":"underground","from":"electric-T-186","to":"electric-TX-00132","lengthM":14.2,"voltageKV":13.8,"secondaryVoltageKV":0.24,"ratingKVA":25.0,"phases":1,"phase":"B","feeder":"F1-02","feederId":"F1-02","designRole":"transformer"}},{"type":"Feature","id":"electric-E810","geometry":{"type":"LineString","coordinates":[[-80.5963564,43.2992917],[-80.5961967,43.2993035]]},"properties":{"kind":"transformer","tier":"transformer","placement":"overhead","from":"electric-T-187","to":"electric-TX-00133","lengthM":13.0,"voltageKV":13.8,"secondaryVoltageKV":0.24,"ratingKVA":25.0,"phases":1,"phase":"B","feeder":"F1-02","feederId":"F1-02","designRole":"transformer"}},{"type":"Feature","id":"electric-E812","geometry":{"type":"LineString","coordinates":[[-80.5955667,43.301319],[-80.5955886,43.3013165]]},"properties":{"kind":"transformer","tier":"transformer","placement":"underground","from":"electric-T-188","to":"electric-TX-00134","lengthM":1.8,"voltageKV":13.8,"secondaryVoltageKV":0.24,"ratingKVA":25.0,"phases":1,"phase":"A","feeder":"F1-02","feederId":"F1-02","designRole":"transformer"}},{"type":"Feature","id":"electric-E821","geometry":{"type":"LineString","coordinates":[[-80.5954441,43.3006352],[-80.5952695,43.3006466]]},"properties":{"kind":"transformer","tier":"transformer","placement":"underground","from":"electric-T-189","to":"electric-TX-00135","lengthM":14.2,"voltageKV":13.8,"secondaryVoltageKV":0.24,"ratingKVA":50.0,"phases":1,"phase":"A","feeder":"F1-02","feederId":"F1-02","designRole":"transformer"}},{"type":"Feature","id":"electric-E832","geometry":{"type":"LineString","coordinates":[[-80.600975,43.299553],[-80.6009717,43.2997398]]},"properties":{"kind":"transformer","tier":"transformer","placement":"underground","from":"electric-T-190","to":"electric-TX-00136","lengthM":20.8,"voltageKV":13.8,"secondaryVoltageKV":0.208,"ratingKVA":75.0,"phases":3,"phase":"ABC","feeder":"F1-01","feederId":"F1-01","designRole":"transformer"}},{"type":"Feature","id":"electric-E835","geometry":{"type":"LineString","coordinates":[[-80.600593,43.2966268],[-80.6005043,43.2966233]]},"properties":{"kind":"transformer","tier":"transformer","placement":"underground","from":"electric-T-191","to":"electric-TX-00137","lengthM":7.2,"voltageKV":13.8,"secondaryVoltageKV":0.208,"ratingKVA":75.0,"phases":3,"phase":"ABC","feeder":"F1-01","feederId":"F1-01","designRole":"transformer"}},{"type":"Feature","id":"electric-E839","geometry":{"type":"LineString","coordinates":[[-80.6005717,43.2969269],[-80.6004829,43.2969237]]},"properties":{"kind":"transformer","tier":"transformer","placement":"underground","from":"electric-T-192","to":"electric-TX-00138","lengthM":7.2,"voltageKV":13.8,"secondaryVoltageKV":0.208,"ratingKVA":75.0,"phases":3,"phase":"ABC","feeder":"F1-01","feederId":"F1-01","designRole":"transformer"}},{"type":"Feature","id":"electric-E843","geometry":{"type":"LineString","coordinates":[[-80.6005524,43.2972186],[-80.6008089,43.2972272]]},"properties":{"kind":"transformer","tier":"transformer","placement":"underground","from":"electric-T-193","to":"electric-TX-00139","lengthM":20.8,"voltageKV":13.8,"secondaryVoltageKV":0.208,"ratingKVA":75.0,"phases":3,"phase":"ABC","feeder":"F1-01","feederId":"F1-01","designRole":"transformer"}},{"type":"Feature","id":"electric-E847","geometry":{"type":"LineString","coordinates":[[-80.6005428,43.2973724],[-80.6007993,43.2973807]]},"properties":{"kind":"transformer","tier":"transformer","placement":"underground","from":"electric-T-194","to":"electric-TX-00140","lengthM":20.8,"voltageKV":13.8,"secondaryVoltageKV":0.208,"ratingKVA":150.0,"phases":3,"phase":"ABC","feeder":"F1-01","feederId":"F1-01","designRole":"transformer"}},{"type":"Feature","id":"electric-E851","geometry":{"type":"LineString","coordinates":[[-80.6005254,43.29767],[-80.6004366,43.2976673]]},"properties":{"kind":"transformer","tier":"transformer","placement":"underground","from":"electric-T-195","to":"electric-TX-00141","lengthM":7.2,"voltageKV":13.8,"secondaryVoltageKV":0.208,"ratingKVA":75.0,"phases":3,"phase":"ABC","feeder":"F1-01","feederId":"F1-01","designRole":"transformer"}},{"type":"Feature","id":"electric-E855","geometry":{"type":"LineString","coordinates":[[-80.6005101,43.2979613],[-80.6007667,43.297968]]},"properties":{"kind":"transformer","tier":"transformer","placement":"underground","from":"electric-T-196","to":"electric-TX-00142","lengthM":20.8,"voltageKV":13.8,"secondaryVoltageKV":0.208,"ratingKVA":75.0,"phases":3,"phase":"ABC","feeder":"F1-01","feederId":"F1-01","designRole":"transformer"}},{"type":"Feature","id":"electric-E859","geometry":{"type":"LineString","coordinates":[[-80.6004963,43.2982603],[-80.6007529,43.2982662]]},"properties":{"kind":"transformer","tier":"transformer","placement":"underground","from":"electric-T-197","to":"electric-TX-00143","lengthM":20.8,"voltageKV":13.8,"secondaryVoltageKV":0.208,"ratingKVA":75.0,"phases":3,"phase":"ABC","feeder":"F1-01","feederId":"F1-01","designRole":"transformer"}},{"type":"Feature","id":"electric-E863","geometry":{"type":"LineString","coordinates":[[-80.6004844,43.2985549],[-80.6003955,43.2985532]]},"properties":{"kind":"transformer","tier":"transformer","placement":"underground","from":"electric-T-198","to":"electric-TX-00144","lengthM":7.2,"voltageKV":13.8,"secondaryVoltageKV":0.208,"ratingKVA":75.0,"phases":3,"phase":"ABC","feeder":"F1-01","feederId":"F1-01","designRole":"transformer"}},{"type":"Feature","id":"electric-E867","geometry":{"type":"LineString","coordinates":[[-80.600479,43.2987105],[-80.6003901,43.2987089]]},"properties":{"kind":"transformer","tier":"transformer","placement":"underground","from":"electric-T-199","to":"electric-TX-00145","lengthM":7.2,"voltageKV":13.8,"secondaryVoltageKV":0.208,"ratingKVA":75.0,"phases":3,"phase":"ABC","feeder":"F1-01","feederId":"F1-01","designRole":"transformer"}},{"type":"Feature","id":"electric-E871","geometry":{"type":"LineString","coordinates":[[-80.6004703,43.2990005],[-80.600727,43.2990041]]},"properties":{"kind":"transformer","tier":"transformer","placement":"underground","from":"electric-T-200","to":"electric-TX-00146","lengthM":20.8,"voltageKV":13.8,"secondaryVoltageKV":0.208,"ratingKVA":75.0,"phases":3,"phase":"ABC","feeder":"F1-01","feederId":"F1-01","designRole":"transformer"}},{"type":"Feature","id":"electric-E875","geometry":{"type":"LineString","coordinates":[[-80.6004664,43.2991603],[-80.6003775,43.2991593]]},"properties":{"kind":"transformer","tier":"transformer","placement":"underground","from":"electric-T-201","to":"electric-TX-00147","lengthM":7.2,"voltageKV":13.8,"secondaryVoltageKV":0.208,"ratingKVA":75.0,"phases":3,"phase":"ABC","feeder":"F1-01","feederId":"F1-01","designRole":"transformer"}},{"type":"Feature","id":"electric-E879","geometry":{"type":"LineString","coordinates":[[-80.6004574,43.3029565],[-80.6007142,43.3029561]]},"properties":{"kind":"transformer","tier":"transformer","placement":"underground","from":"electric-T-202","to":"electric-TX-00148","lengthM":20.8,"voltageKV":13.8,"secondaryVoltageKV":0.208,"ratingKVA":75.0,"phases":3,"phase":"ABC","feeder":"F1-01","feederId":"F1-01","designRole":"transformer"}},{"type":"Feature","id":"electric-E883","geometry":{"type":"LineString","coordinates":[[-80.6004566,43.302628],[-80.6003677,43.3026281]]},"properties":{"kind":"transformer","tier":"transformer","placement":"underground","from":"electric-T-203","to":"electric-TX-00149","lengthM":7.2,"voltageKV":13.8,"secondaryVoltageKV":0.208,"ratingKVA":75.0,"phases":3,"phase":"ABC","feeder":"F1-01","feederId":"F1-01","designRole":"transformer"}},{"type":"Feature","id":"electric-E887","geometry":{"type":"LineString","coordinates":[[-80.6004563,43.3024602],[-80.6007131,43.3024599]]},"properties":{"kind":"transformer","tier":"transformer","placement":"underground","from":"electric-T-204","to":"electric-TX-00150","lengthM":20.8,"voltageKV":13.8,"secondaryVoltageKV":0.208,"ratingKVA":75.0,"phases":3,"phase":"ABC","feeder":"F1-01","feederId":"F1-01","designRole":"transformer"}},{"type":"Feature","id":"electric-E891","geometry":{"type":"LineString","coordinates":[[-80.600456,43.3021323],[-80.6003671,43.3021323]]},"properties":{"kind":"transformer","tier":"transformer","placement":"underground","from":"electric-T-205","to":"electric-TX-00151","lengthM":7.2,"voltageKV":13.8,"secondaryVoltageKV":0.208,"ratingKVA":75.0,"phases":3,"phase":"ABC","feeder":"F1-01","feederId":"F1-01","designRole":"transformer"}},{"type":"Feature","id":"electric-E895","geometry":{"type":"LineString","coordinates":[[-80.6004558,43.3019552],[-80.600367,43.3019552]]},"properties":{"kind":"transformer","tier":"transformer","placement":"underground","from":"electric-T-206","to":"electric-TX-00152","lengthM":7.2,"voltageKV":13.8,"secondaryVoltageKV":0.208,"ratingKVA":75.0,"phases":3,"phase":"ABC","feeder":"F1-01","feederId":"F1-01","designRole":"transformer"}},{"type":"Feature","id":"electric-E899","geometry":{"type":"LineString","coordinates":[[-80.6004558,43.3016304],[-80.6007126,43.3016304]]},"properties":{"kind":"transformer","tier":"transformer","placement":"underground","from":"electric-T-207","to":"electric-TX-00153","lengthM":20.8,"voltageKV":13.8,"secondaryVoltageKV":0.208,"ratingKVA":75.0,"phases":3,"phase":"ABC","feeder":"F1-01","feederId":"F1-01","designRole":"transformer"}},{"type":"Feature","id":"electric-E903","geometry":{"type":"LineString","coordinates":[[-80.600456,43.3014537],[-80.6007127,43.3014537]]},"properties":{"kind":"transformer","tier":"transformer","placement":"underground","from":"electric-T-208","to":"electric-TX-00154","lengthM":20.8,"voltageKV":13.8,"secondaryVoltageKV":0.208,"ratingKVA":75.0,"phases":3,"phase":"ABC","feeder":"F1-01","feederId":"F1-01","designRole":"transformer"}},{"type":"Feature","id":"electric-E907","geometry":{"type":"LineString","coordinates":[[-80.6004561,43.3011246],[-80.6003672,43.3011246]]},"properties":{"kind":"transformer","tier":"transformer","placement":"underground","from":"electric-T-209","to":"electric-TX-00155","lengthM":7.2,"voltageKV":13.8,"secondaryVoltageKV":0.208,"ratingKVA":75.0,"phases":3,"phase":"ABC","feeder":"F1-01","feederId":"F1-01","designRole":"transformer"}},{"type":"Feature","id":"electric-E911","geometry":{"type":"LineString","coordinates":[[-80.6004562,43.3009525],[-80.6007129,43.3009525]]},"properties":{"kind":"transformer","tier":"transformer","placement":"underground","from":"electric-T-210","to":"electric-TX-00156","lengthM":20.8,"voltageKV":13.8,"secondaryVoltageKV":0.208,"ratingKVA":75.0,"phases":3,"phase":"ABC","feeder":"F1-01","feederId":"F1-01","designRole":"transformer"}},{"type":"Feature","id":"electric-E915","geometry":{"type":"LineString","coordinates":[[-80.6004565,43.3006125],[-80.6003676,43.3006125]]},"properties":{"kind":"transformer","tier":"transformer","placement":"underground","from":"electric-T-211","to":"electric-TX-00157","lengthM":7.2,"voltageKV":13.8,"secondaryVoltageKV":0.208,"ratingKVA":75.0,"phases":3,"phase":"ABC","feeder":"F1-01","feederId":"F1-01","designRole":"transformer"}},{"type":"Feature","id":"electric-E919","geometry":{"type":"LineString","coordinates":[[-80.6004566,43.3004463],[-80.6007133,43.3004463]]},"properties":{"kind":"transformer","tier":"transformer","placement":"underground","from":"electric-T-212","to":"electric-TX-00158","lengthM":20.8,"voltageKV":13.8,"secondaryVoltageKV":0.208,"ratingKVA":75.0,"phases":3,"phase":"ABC","feeder":"F1-01","feederId":"F1-01","designRole":"transformer"}},{"type":"Feature","id":"electric-E923","geometry":{"type":"LineString","coordinates":[[-80.6004567,43.3001195],[-80.6003678,43.3001195]]},"properties":{"kind":"transformer","tier":"transformer","placement":"underground","from":"electric-T-213","to":"electric-TX-00159","lengthM":7.2,"voltageKV":13.8,"secondaryVoltageKV":0.208,"ratingKVA":75.0,"phases":3,"phase":"ABC","feeder":"F1-01","feederId":"F1-01","designRole":"transformer"}},{"type":"Feature","id":"electric-E927","geometry":{"type":"LineString","coordinates":[[-80.6004569,43.2999437],[-80.600368,43.2999436]]},"properties":{"kind":"transformer","tier":"transformer","placement":"underground","from":"electric-T-214","to":"electric-TX-00160","lengthM":7.2,"voltageKV":13.8,"secondaryVoltageKV":0.208,"ratingKVA":75.0,"phases":3,"phase":"ABC","feeder":"F1-01","feederId":"F1-01","designRole":"transformer"}},{"type":"Feature","id":"electric-E929","geometry":{"type":"LineString","coordinates":[[-80.5997973,43.3000415],[-80.5997825,43.3000408]]},"properties":{"kind":"transformer","tier":"transformer","placement":"underground","from":"electric-T-215","to":"electric-TX-00161","lengthM":1.2,"voltageKV":13.8,"secondaryVoltageKV":0.208,"ratingKVA":75.0,"phases":3,"phase":"ABC","feeder":"F1-02","feederId":"F1-02","designRole":"transformer"}},{"type":"Feature","id":"electric-E933","geometry":{"type":"LineString","coordinates":[[-80.5997533,43.3003996],[-80.5997386,43.3003983]]},"properties":{"kind":"transformer","tier":"transformer","placement":"underground","from":"electric-T-216","to":"electric-TX-00162","lengthM":1.2,"voltageKV":13.8,"secondaryVoltageKV":0.208,"ratingKVA":75.0,"phases":3,"phase":"ABC","feeder":"F1-02","feederId":"F1-02","designRole":"transformer"}},{"type":"Feature","id":"electric-E936","geometry":{"type":"LineString","coordinates":[[-80.5995129,43.2992991],[-80.5996876,43.2993093]]},"properties":{"kind":"transformer","tier":"transformer","placement":"underground","from":"electric-T-217","to":"electric-TX-00163","lengthM":14.2,"voltageKV":13.8,"secondaryVoltageKV":0.208,"ratingKVA":75.0,"phases":3,"phase":"ABC","feeder":"F1-02","feederId":"F1-02","designRole":"transformer"}},{"type":"Feature","id":"electric-E940","geometry":{"type":"LineString","coordinates":[[-80.5995335,43.2990798],[-80.5995113,43.2990788]]},"properties":{"kind":"transformer","tier":"transformer","placement":"underground","from":"electric-T-218","to":"electric-TX-00164","lengthM":1.8,"voltageKV":13.8,"secondaryVoltageKV":0.208,"ratingKVA":75.0,"phases":3,"phase":"ABC","feeder":"F1-02","feederId":"F1-02","designRole":"transformer"}},{"type":"Feature","id":"electric-E943","geometry":{"type":"LineString","coordinates":[[-80.5979542,43.2995444],[-80.5979546,43.2994797]]},"properties":{"kind":"transformer","tier":"transformer","placement":"underground","from":"electric-T-219","to":"electric-TX-00165","lengthM":7.2,"voltageKV":13.8,"secondaryVoltageKV":0.208,"ratingKVA":75.0,"phases":3,"phase":"ABC","feeder":"F1-02","feederId":"F1-02","designRole":"transformer"}},{"type":"Feature","id":"electric-E945","geometry":{"type":"LineString","coordinates":[[-80.5969498,43.2995403],[-80.5969504,43.2994756]]},"properties":{"kind":"transformer","tier":"transformer","placement":"underground","from":"electric-T-220","to":"electric-TX-00166","lengthM":7.2,"voltageKV":13.8,"secondaryVoltageKV":0.208,"ratingKVA":75.0,"phases":3,"phase":"ABC","feeder":"F1-02","feederId":"F1-02","designRole":"transformer"}},{"type":"Feature","id":"electric-E947","geometry":{"type":"LineString","coordinates":[[-80.5959144,43.2995351],[-80.5959124,43.2997219]]},"properties":{"kind":"transformer","tier":"transformer","placement":"underground","from":"electric-T-221","to":"electric-TX-00167","lengthM":20.8,"voltageKV":13.8,"secondaryVoltageKV":0.208,"ratingKVA":75.0,"phases":3,"phase":"ABC","feeder":"F1-02","feederId":"F1-02","designRole":"transformer"}},{"type":"Feature","id":"electric-E950","geometry":{"type":"LineString","coordinates":[[-80.6063146,43.2997971],[-80.6063106,43.2998671]]},"properties":{"kind":"transformer","tier":"transformer","placement":"underground","from":"electric-T-222","to":"electric-TX-00168","lengthM":7.8,"voltageKV":13.8,"secondaryVoltageKV":0.208,"ratingKVA":75.0,"phases":3,"phase":"ABC","feeder":"F1-01","feederId":"F1-01","designRole":"transformer"}},{"type":"Feature","id":"electric-E952","geometry":{"type":"LineString","coordinates":[[-80.6007525,43.2947631],[-80.6006639,43.2947586]]},"properties":{"kind":"transformer","tier":"transformer","placement":"underground","from":"electric-T-223","to":"electric-TX-00169","lengthM":7.2,"voltageKV":13.8,"secondaryVoltageKV":0.6,"ratingKVA":500.0,"phases":3,"phase":"ABC","feeder":"F1-01","feederId":"F1-01","designRole":"transformer"}},{"type":"Feature","id":"electric-E954","geometry":{"type":"LineString","coordinates":[[-80.6004691,43.3045879],[-80.6007258,43.3045862]]},"properties":{"kind":"transformer","tier":"transformer","placement":"underground","from":"electric-T-224","to":"electric-TX-00170","lengthM":20.8,"voltageKV":13.8,"secondaryVoltageKV":0.208,"ratingKVA":75.0,"phases":3,"phase":"ABC","feeder":"F1-01","feederId":"F1-01","designRole":"transformer"}},{"type":"Feature","id":"electric-E956","geometry":{"type":"LineString","coordinates":[[-80.593566,43.2996323],[-80.5936146,43.2994544]]},"properties":{"kind":"transformer","tier":"transformer","placement":"underground","from":"electric-T-225","to":"electric-TX-00171","lengthM":20.2,"voltageKV":13.8,"secondaryVoltageKV":0.6,"ratingKVA":500.0,"phases":3,"phase":"ABC","feeder":"F1-02","feederId":"F1-02","designRole":"transformer"}}]}