{"type":"FeatureCollection","name":"electric_transmission","crs_note":"EPSG:4326","features":[{"type":"Feature","id":"electric-E0","geometry":{"type":"LineString","coordinates":[[-80.6001469,43.292184],[-80.5996129,43.2943959],[-80.5995245,43.2947619],[-80.5995013,43.2949226],[-80.5994758,43.2951022],[-80.5994521,43.2952819],[-80.5994313,43.2954616],[-80.5994146,43.2956412],[-80.5994027,43.2958209],[-80.5993963,43.2960005],[-80.5993955,43.2961802],[-80.5994006,43.2963599],[-80.5994112,43.2965395],[-80.5994268,43.2967192],[-80.5994467,43.2968989],[-80.5994697,43.2970785],[-80.5994949,43.2972582],[-80.599521,43.2974378],[-80.5995464,43.2976175],[-80.5995702,43.2977972],[-80.5995911,43.2979768],[-80.599608,43.2981565],[-80.5996201,43.2983361],[-80.5996266,43.2985158],[-80.5996276,43.2986955],[-80.5996227,43.2988751],[-80.5996123,43.2990548],[-80.5995967,43.2992345],[-80.599577,43.2994141],[-80.599554,43.2995938],[-80.5995519,43.2996091],[-80.5995602,43.2996091],[-80.5996374,43.2996091],[-80.5997145,43.2996092],[-80.5997916,43.2996092],[-80.5998688,43.2996093],[-80.5998955,43.2996093],[-80.5999459,43.2996094],[-80.6000231,43.2996094],[-80.6001002,43.2996095],[-80.6001774,43.2996096],[-80.6002545,43.2996098],[-80.6003317,43.29961],[-80.6004088,43.2996103],[-80.600486,43.2996107],[-80.6005429,43.2996109],[-80.6005431,43.2995902],[-80.6005438,43.299534],[-80.6005446,43.2994779],[-80.6005455,43.2994218],[-80.6005463,43.2993656],[-80.6005473,43.2993095],[-80.6005484,43.2992533],[-80.6005495,43.2991972],[-80.6005508,43.299141],[-80.6005521,43.2990849],[-80.6005535,43.2990287],[-80.600555,43.2989726],[-80.6005566,43.2989165],[-80.6005582,43.2988603],[-80.6005599,43.2988042],[-80.6005616,43.298748],[-80.6005636,43.2986919],[-80.6005654,43.2986357],[-80.6005674,43.2985796],[-80.6005695,43.2985234],[-80.6005717,43.2984673],[-80.6005738,43.2984112],[-80.6005762,43.298355],[-80.6005785,43.2982989],[-80.600581,43.2982427],[-80.6005835,43.2981866],[-80.6005861,43.2981304],[-80.6005887,43.2980743],[-80.6005914,43.2980181],[-80.6005941,43.297962],[-80.6005969,43.2979059],[-80.6005998,43.2978497],[-80.6006027,43.2977936],[-80.6006057,43.2977374],[-80.6006088,43.2976813],[-80.600612,43.2976251],[-80.6006151,43.297569],[-80.6006184,43.2975128],[-80.6006217,43.2974567],[-80.6006251,43.2974006],[-80.6006285,43.2973444],[-80.600632,43.2972883],[-80.6006356,43.2972321],[-80.6006391,43.297176],[-80.6006427,43.2971198],[-80.6006464,43.2970637],[-80.6006502,43.2970075],[-80.6006541,43.2969514],[-80.6006579,43.2968953],[-80.6006618,43.2968391],[-80.6006658,43.296783],[-80.6006697,43.2967268],[-80.6006738,43.2966707],[-80.600678,43.2966145],[-80.6006821,43.2965584],[-80.6006864,43.2965022],[-80.6006906,43.2964461],[-80.6006949,43.29639],[-80.6006992,43.2963338],[-80.6007037,43.2962777],[-80.6007081,43.2962215],[-80.6007126,43.2961654],[-80.6007171,43.2961092],[-80.6007217,43.2960531],[-80.6007263,43.2959969],[-80.600731,43.2959408],[-80.6007357,43.2958847],[-80.6007404,43.2958285],[-80.6007452,43.2957724],[-80.60075,43.2957162],[-80.6007548,43.2956601],[-80.6007597,43.2956039],[-80.6007645,43.2955478],[-80.6007695,43.2954916],[-80.6007745,43.2954355],[-80.600775,43.2954302],[-80.6001469,43.2954002]]},"properties":{"kind":"supply","tier":"transmission","placement":"overhead","from":"electric-supply","to":"electric-station","lengthM":1429.53,"voltageKV":115.0,"conductor":"795 kcmil ACSR (115 kV)","designRole":"supply"}}]}