{"type":"FeatureCollection","name":"facilities","crs_note":"EPSG:4326","features":[{"type":"Feature","id":"TANK-01","geometry":{"type":"Polygon","coordinates":[[[-80.5997068,43.29778],[-80.5997068,43.2981394],[-80.6002005,43.2981394],[-80.6002005,43.29778],[-80.5997068,43.29778]]]},"properties":{"kind":"elevated_tank","label":"Elevated water tank 1"}},{"type":"Feature","id":"SUB-01","geometry":{"type":"Polygon","coordinates":[[[-80.6004881,43.2957316],[-80.6005446,43.2951041],[-80.5998056,43.2950688],[-80.5997491,43.2956963],[-80.6004881,43.2957316]]]},"properties":{"kind":"substation","label":"Substation 1"}},{"type":"Feature","id":"PUMP-01","geometry":{"type":"Polygon","coordinates":[[[-80.6008099,43.304397],[-80.6008145,43.3047743],[-80.6012341,43.3047716],[-80.6012296,43.3043943],[-80.6008099,43.304397]]]},"properties":{"kind":"pump_station","label":"Pumping station"}},{"type":"Feature","id":"GATE-01","geometry":{"type":"Polygon","coordinates":[[[-80.5935026,43.299394],[-80.5938975,43.2993961],[-80.5938999,43.2991626],[-80.5935049,43.2991605],[-80.5935026,43.299394]]]},"properties":{"kind":"city_gate","label":"Gas city gate station"}},{"type":"Feature","id":"DEPOT-01","geometry":{"type":"Polygon","coordinates":[[[-80.6057161,43.3005414],[-80.6068261,43.300575],[-80.606862,43.2999467],[-80.6057521,43.2999131],[-80.6057161,43.3005414]]]},"properties":{"kind":"depot","label":"Operations depot"}},{"type":"Feature","id":"IND-01","geometry":{"type":"Polygon","coordinates":[[[-80.6005938,43.2945757],[-80.6007069,43.2933208],[-80.5994752,43.293262],[-80.5993621,43.2945169],[-80.6005938,43.2945757]]]},"properties":{"kind":"industrial","label":"Industrial customer 1"}},{"type":"Feature","id":"IND-02","geometry":{"type":"Polygon","coordinates":[[[-80.5916079,43.2993787],[-80.5933359,43.2993878],[-80.5933448,43.2984895],[-80.5916168,43.2984804],[-80.5916079,43.2993787]]]},"properties":{"kind":"industrial","label":"Industrial customer 2"}}]}