{"type":"FeatureCollection","name":"gas_equipment","crs_note":"EPSG:4326","features":[{"type":"Feature","id":"GREG-01","geometry":{"type":"Point","coordinates":[-80.5977523,43.2996452]},"properties":{"kind":"district_regulator","nodeId":"gas-DREG-01"}},{"type":"Feature","id":"GV-00001","geometry":{"type":"Point","coordinates":[-80.593698,43.2996017]},"properties":{"kind":"valve","edgeId":"gas-E1","normally":"open"}},{"type":"Feature","id":"GV-00002","geometry":{"type":"Point","coordinates":[-80.5937286,43.2996243]},"properties":{"kind":"valve","edgeId":"gas-E2","normally":"open"}},{"type":"Feature","id":"GV-00003","geometry":{"type":"Point","coordinates":[-80.5953469,43.2996305]},"properties":{"kind":"valve","edgeId":"gas-E6","normally":"open"}},{"type":"Feature","id":"GV-00004","geometry":{"type":"Point","coordinates":[-80.595393,43.2996351]},"properties":{"kind":"valve","edgeId":"gas-E7","normally":"open"}},{"type":"Feature","id":"GV-00005","geometry":{"type":"Point","coordinates":[-80.5953887,43.3000138]},"properties":{"kind":"valve","edgeId":"gas-E7","normally":"open"}},{"type":"Feature","id":"GV-00006","geometry":{"type":"Point","coordinates":[-80.5954179,43.3000354]},"properties":{"kind":"valve","edgeId":"gas-E9","normally":"open"}},{"type":"Feature","id":"GV-00007","geometry":{"type":"Point","coordinates":[-80.5962693,43.2996385]},"properties":{"kind":"valve","edgeId":"gas-E14","normally":"open"}},{"type":"Feature","id":"GV-00008","geometry":{"type":"Point","coordinates":[-80.5963269,43.2996387]},"properties":{"kind":"valve","edgeId":"gas-E17","normally":"open"}},{"type":"Feature","id":"GV-00009","geometry":{"type":"Point","coordinates":[-80.5963625,43.2996388]},"properties":{"kind":"valve","edgeId":"gas-E17","normally":"open"}},{"type":"Feature","id":"GV-00010","geometry":{"type":"Point","coordinates":[-80.5963638,43.2996402]},"properties":{"kind":"valve","edgeId":"gas-E21","normally":"open"}},{"type":"Feature","id":"GV-00011","geometry":{"type":"Point","coordinates":[-80.5963847,43.300023]},"properties":{"kind":"valve","edgeId":"gas-E26","normally":"open"}},{"type":"Feature","id":"GV-00012","geometry":{"type":"Point","coordinates":[-80.5963941,43.300062]},"properties":{"kind":"valve","edgeId":"gas-E31","normally":"open"}},{"type":"Feature","id":"GV-00013","geometry":{"type":"Point","coordinates":[-80.5974409,43.299647]},"properties":{"kind":"valve","edgeId":"gas-E27","normally":"open"}},{"type":"Feature","id":"GV-00014","geometry":{"type":"Point","coordinates":[-80.5975023,43.2996474]},"properties":{"kind":"valve","edgeId":"gas-E33","normally":"open"}},{"type":"Feature","id":"GV-00015","geometry":{"type":"Point","coordinates":[-80.59752,43.2996463]},"properties":{"kind":"valve","edgeId":"gas-E33","normally":"open"}},{"type":"Feature","id":"GV-00016","geometry":{"type":"Point","coordinates":[-80.5975807,43.299639]},"properties":{"kind":"valve","edgeId":"gas-E38","normally":"open"}},{"type":"Feature","id":"gas-supply","geometry":{"type":"Point","coordinates":[-80.5901267,43.2992783]},"properties":{"kind":"external_supply","label":"Regional gas transmission (off-map)","elevationM":92.49}},{"type":"Feature","id":"gas-station","geometry":{"type":"Point","coordinates":[-80.5937012,43.2992783]},"properties":{"kind":"city_gate_regulator","label":"Gas city gate station","facilityId":"GATE-01","inletKPa":3800.0,"outletKPa":414.0,"elevationM":91.21}},{"type":"Feature","id":"gas-DREG-01","geometry":{"type":"Point","coordinates":[-80.5977523,43.2996452]},"properties":{"kind":"district_regulator","label":"District regulator 1","inletKPa":414.0,"outletKPa":1.74,"elevationM":88.665}}]}