{"type":"FeatureCollection","name":"gas_transmission","crs_note":"EPSG:4326","features":[{"type":"Feature","id":"gas-E0","geometry":{"type":"LineString","coordinates":[[-80.5901267,43.2992783],[-80.59281,43.2995791],[-80.5928485,43.2995792],[-80.5929257,43.2995796],[-80.5930028,43.29958],[-80.59308,43.2995804],[-80.5931571,43.2995808],[-80.5932343,43.2995812],[-80.5933114,43.2995817],[-80.5933886,43.2995821],[-80.5934657,43.2995825],[-80.5935429,43.2995829],[-80.5935809,43.2995777],[-80.59362,43.2995834],[-80.5936971,43.2995837],[-80.5936982,43.2995837],[-80.5937012,43.2992783]]},"properties":{"kind":"supply","tier":"transmission","placement":"underground","from":"gas-supply","to":"gas-station","lengthM":326.03,"sizeMm":300,"diameterIn":12.0,"nominalLabel":"12\" steel transmission","material":"steel","depthM":1.2,"pressureKPa":3800.0,"pressureTier":"hp"}}]}