{"type":"FeatureCollection","name":"mru_routes","crs_note":"EPSG:4326","features":[{"type":"Feature","id":"MRU-001","geometry":{"type":"LineString","coordinates":[[-80.6008363,43.2947673],[-80.6027131,43.2971221],[-80.6026814,43.2972754],[-80.6026781,43.2972916],[-80.602709,43.2971415],[-80.6018109,43.296974],[-80.6017967,43.2971271],[-80.6017758,43.2972852],[-80.6017762,43.2972817],[-80.6017965,43.2971288],[-80.5993999,43.2963347],[-80.6006878,43.2964836],[-80.6006768,43.2966302],[-80.6006663,43.2967757],[-80.5994078,43.2964816],[-80.5994194,43.2966343],[-80.5994345,43.2967892],[-80.5994519,43.2969393],[-80.5994699,43.2970798],[-80.5994872,43.2972034],[-80.5994917,43.2972351],[-80.600656,43.2969238],[-80.6006456,43.2970764],[-80.6006359,43.2972269],[-80.6006555,43.2969299],[-80.6006454,43.2970788],[-80.6006362,43.2972214],[-80.6017513,43.2974314]]},"properties":{"technology":"AMI","portionId":"PORT-01","meterCount":28,"readerId":null}},{"type":"Feature","id":"MRU-002","geometry":{"type":"LineString","coordinates":[[-80.6006273,43.2973644],[-80.600618,43.2975203],[-80.6006093,43.2976726],[-80.6017231,43.2975825],[-80.601692,43.2977383],[-80.6016269,43.2980612],[-80.6006016,43.2978158],[-80.600594,43.2979635],[-80.6005868,43.2981135],[-80.6006266,43.2973751],[-80.6006178,43.2975237],[-80.600609,43.2976769],[-80.5995347,43.2975349],[-80.5995148,43.2973953],[-80.5995084,43.2973514],[-80.5995301,43.2975024],[-80.5995511,43.2976527],[-80.5995713,43.2978067],[-80.5995887,43.2979561],[-80.5996032,43.2981053],[-80.6005801,43.2982622],[-80.6005739,43.2984088],[-80.6005679,43.2985673],[-80.5996269,43.298565],[-80.5996229,43.2984146],[-80.5996158,43.298273],[-80.5996144,43.298252],[-80.5996225,43.2984015]]},"properties":{"technology":"AMI","portionId":"PORT-02","meterCount":28,"readerId":null}},{"type":"Feature","id":"MRU-003","geometry":{"type":"LineString","coordinates":[[-80.5996268,43.2985491],[-80.5996276,43.2986934],[-80.5996234,43.2988495],[-80.5996149,43.2990093],[-80.5996229,43.2988675],[-80.599627,43.298719],[-80.6005629,43.2987121],[-80.6005584,43.2988527],[-80.6005542,43.2990017],[-80.6005539,43.2990129],[-80.600558,43.2988675],[-80.600563,43.2987099],[-80.6005804,43.2982562],[-80.6005741,43.2984061],[-80.6005683,43.2985566],[-80.601596,43.2982319],[-80.6015694,43.2984076],[-80.6015499,43.2985796],[-80.6015383,43.2987511],[-80.6015502,43.298576],[-80.6015355,43.2989351],[-80.60262,43.2989439],[-80.6025729,43.2985888],[-80.6025929,43.2987663],[-80.6025611,43.2984117],[-80.6025585,43.298242],[-80.6015688,43.298412],[-80.6015942,43.2982428]]},"properties":{"technology":"MANUAL","portionId":"PORT-03","meterCount":28,"readerId":"WALKER-03"}},{"type":"Feature","id":"MRU-004","geometry":{"type":"LineString","coordinates":[[-80.6018955,43.2978914],[-80.6017498,43.2974406],[-80.6018884,43.2978914],[-80.6021308,43.2978914],[-80.6023657,43.2978914],[-80.6026216,43.2975909],[-80.6026488,43.2974404],[-80.6021259,43.2978914],[-80.6023536,43.2978914],[-80.6028455,43.2977482],[-80.6028283,43.2977482],[-80.6030823,43.2977482],[-80.6033471,43.2977482],[-80.6035877,43.2974314],[-80.6036723,43.2984814],[-80.6036446,43.2983298],[-80.6036204,43.2981787],[-80.6025585,43.2982534],[-80.6025623,43.2984321],[-80.6025752,43.2986111],[-80.6025957,43.2987853],[-80.6026229,43.2989605],[-80.6037605,43.2989183],[-80.6037313,43.2987751],[-80.6037016,43.2986295],[-80.6037545,43.2988884],[-80.6037222,43.2987304]]},"properties":{"technology":"AMI","portionId":"PORT-04","meterCount":27,"readerId":null}},{"type":"Feature","id":"MRU-005","geometry":{"type":"LineString","coordinates":[[-80.6036893,43.2985693],[-80.6036578,43.2984049],[-80.6036299,43.2982394],[-80.6048336,43.2985684],[-80.6048041,43.298402],[-80.6047739,43.2982478],[-80.6048582,43.2987348],[-80.604875,43.2988896],[-80.6047427,43.2980948],[-80.6036083,43.2980817],[-80.6035923,43.2979215],[-80.603582,43.2975779],[-80.6063178,43.2997414],[-80.6048842,43.2993767],[-80.6048887,43.299213],[-80.6048857,43.299053],[-80.603812,43.2992021],[-80.6037849,43.2990456],[-80.6038343,43.2993565],[-80.6048828,43.299776],[-80.6046595,43.299776],[-80.6044715,43.3002426],[-80.6044538,43.3000763],[-80.6044425,43.299934],[-80.604469,43.3002227],[-80.6044889,43.3003785],[-80.6045102,43.3005216]]},"properties":{"technology":"AMI","portionId":"PORT-05","meterCount":27,"readerId":null}},{"type":"Feature","id":"MRU-006","geometry":{"type":"LineString","coordinates":[[-80.6045346,43.3006723],[-80.6045124,43.3005365],[-80.6044904,43.3003886],[-80.6045378,43.3006915],[-80.6045632,43.3008413],[-80.6045605,43.3008254],[-80.604585,43.3009697],[-80.6046087,43.3011128],[-80.6046548,43.3014255],[-80.6046328,43.3012659],[-80.6035476,43.3016164],[-80.6035716,43.3017589],[-80.6035954,43.3019081],[-80.6036614,43.3024803],[-80.6036688,43.3026337],[-80.6036713,43.3027861],[-80.602627,43.3030954],[-80.6026125,43.3029468],[-80.6025948,43.3028008],[-80.6025499,43.3024983],[-80.6025733,43.3026482],[-80.6025774,43.3026748],[-80.6026,43.3028394],[-80.6025503,43.3025009],[-80.6014065,43.3024946],[-80.6014316,43.3026615],[-80.601459,43.3028284]]},"properties":{"technology":"AMI","portionId":"PORT-06","meterCount":27,"readerId":null}},{"type":"Feature","id":"MRU-007","geometry":{"type":"LineString","coordinates":[[-80.6014856,43.3029853],[-80.6015148,43.3031587],[-80.6026192,43.3030099],[-80.600553,43.3045873],[-80.6005414,43.3029651],[-80.6014526,43.3027902],[-80.6014009,43.3024526],[-80.6014261,43.3026256],[-80.6005403,43.3024666],[-80.6005405,43.3026255],[-80.600541,43.302799],[-80.6005405,43.3026279],[-80.6005403,43.3024601],[-80.600541,43.3027881],[-80.6005414,43.3029564],[-80.59954,43.302991],[-80.5995715,43.3032148],[-80.5995471,43.3030529],[-80.5995297,43.3029011],[-80.5995163,43.3027357],[-80.5995217,43.3028084],[-80.5995114,43.3026358],[-80.5995081,43.3024664],[-80.599509,43.3025609],[-80.599509,43.3023888],[-80.5995154,43.3022339],[-80.599528,43.3020738]]},"properties":{"technology":"AMI","portionId":"PORT-07","meterCount":27,"readerId":null}},{"type":"Feature","id":"MRU-008","geometry":{"type":"LineString","coordinates":[[-80.5995233,43.3021212],[-80.5995121,43.302292],[-80.60054,43.302292],[-80.6005399,43.3021303],[-80.5995413,43.3019483],[-80.6005398,43.3019552],[-80.6005398,43.3017906],[-80.6005398,43.3016304],[-80.5995662,43.3017706],[-80.5995952,43.3016007],[-80.5995476,43.3019019],[-80.5995708,43.3017434],[-80.599599,43.3015808],[-80.5996307,43.3014183],[-80.5996654,43.3012532],[-80.5997031,43.3010806],[-80.5993065,43.3007643],[-80.5997014,43.3010884],[-80.5997367,43.3009268],[-80.6005403,43.3007741],[-80.6005401,43.3009525],[-80.60054,43.3011172],[-80.6005399,43.3012786],[-80.5996639,43.3012602],[-80.5996266,43.3014377],[-80.6005399,43.3014547],[-80.6005399,43.3014537]]},"properties":{"technology":"AMI","portionId":"PORT-08","meterCount":27,"readerId":null}},{"type":"Feature","id":"MRU-009","geometry":{"type":"LineString","coordinates":[[-80.6005399,43.3012804],[-80.6005403,43.3007795],[-80.6005401,43.300955],[-80.60054,43.3011246],[-80.6013892,43.3011163],[-80.6014343,43.3008006],[-80.60141,43.3009609],[-80.6013715,43.3012759],[-80.6013576,43.3014503],[-80.601354,43.3019571],[-80.6013488,43.3017972],[-80.6013499,43.3016288],[-80.6005398,43.3016259],[-80.6005398,43.3017886],[-80.6005398,43.301963],[-80.6005399,43.3021323],[-80.6005401,43.3023],[-80.6013803,43.3022847],[-80.6013648,43.3021237],[-80.6013847,43.3023273],[-80.6013673,43.3021596],[-80.6013556,43.301992],[-80.6013494,43.3018182],[-80.6013498,43.30165],[-80.6024393,43.3018264],[-80.6024164,43.3016553],[-80.6024653,43.301996]]},"properties":{"technology":"MANUAL","portionId":"PORT-09","meterCount":27,"readerId":"WALKER-03"}},{"type":"Feature","id":"MRU-010","geometry":{"type":"LineString","coordinates":[[-80.6024942,43.3021695],[-80.6025224,43.3023346],[-80.6025263,43.3023576],[-80.6025007,43.3022078],[-80.602475,43.3020544],[-80.6036507,43.3023406],[-80.6036334,43.3021806],[-80.6036125,43.3020231],[-80.6035915,43.3018832],[-80.6035685,43.3017405],[-80.6035426,43.3015868],[-80.602451,43.3019036],[-80.6024296,43.3017563],[-80.6024103,43.3016048],[-80.6023941,43.301444],[-80.6023839,43.3012941],[-80.6035174,43.3014399],[-80.6035218,43.3014653],[-80.6034974,43.3013184],[-80.6034926,43.3012892],[-80.6034695,43.3011387],[-80.6034739,43.3011677],[-80.6034523,43.3010142],[-80.6034337,43.3008598],[-80.6034319,43.3008407],[-80.60345,43.3009962],[-80.6023782,43.3011425]]},"properties":{"technology":"AMR","portionId":"PORT-10","meterCount":27,"readerId":"VAN-02"}},{"type":"Feature","id":"MRU-011","geometry":{"type":"LineString","coordinates":[[-80.6023812,43.3008361],[-80.6023822,43.300816],[-80.6023773,43.300981],[-80.6023783,43.3011465],[-80.6023772,43.3009864],[-80.6023985,43.3014879],[-80.6023859,43.3013235],[-80.6013562,43.3014828],[-80.6013685,43.301313],[-80.6013859,43.3011448],[-80.6014086,43.3009711],[-80.6014344,43.3008005],[-80.6014625,43.3006292],[-80.6015189,43.3002947],[-80.6014921,43.3004547],[-80.6015455,43.3001267],[-80.6015692,43.2999585],[-80.6024311,43.3003035],[-80.602456,43.3001345],[-80.6024823,43.299972],[-80.6024096,43.3004759],[-80.6023935,43.3006413],[-80.60239,43.3006838],[-80.6024028,43.3005346],[-80.6024196,43.3003898],[-80.6034046,43.3003882],[-80.6034086,43.3005411]]},"properties":{"technology":"AMI","portionId":"PORT-11","meterCount":27,"readerId":null}},{"type":"Feature","id":"MRU-012","geometry":{"type":"LineString","coordinates":[[-80.6034181,43.3006904],[-80.603419,43.3007032],[-80.60341,43.3005628],[-80.6034054,43.3004192],[-80.6034051,43.3002678],[-80.6034099,43.3001109],[-80.6034199,43.2999528],[-80.6034189,43.2999641],[-80.6034098,43.3001126],[-80.6034054,43.3002508],[-80.6024407,43.3002362],[-80.6024641,43.3000836],[-80.6024888,43.2999334],[-80.6027246,43.2994781],[-80.6038358,43.2993681],[-80.6038158,43.2992248],[-80.6037894,43.299069],[-80.6026901,43.2993098],[-80.6026568,43.2991439],[-80.6026536,43.2991273],[-80.6026873,43.2992961],[-80.60158,43.2994625],[-80.6015581,43.2992943],[-80.6015427,43.2991197],[-80.6015569,43.2992841],[-80.6009864,43.2996142],[-80.6005503,43.2991613]]},"properties":{"technology":"AMI","portionId":"PORT-12","meterCount":27,"readerId":null}},{"type":"Feature","id":"MRU-013","geometry":{"type":"LineString","coordinates":[[-80.6015702,43.2999501],[-80.6009615,43.2996139],[-80.6015205,43.300285],[-80.6015464,43.3001206],[-80.6014921,43.3004545],[-80.6014622,43.300631],[-80.6005405,43.3004463],[-80.6005404,43.3006102],[-80.6005406,43.3002864],[-80.6005406,43.3001159],[-80.6005408,43.2999438],[-80.599881,43.3000463],[-80.5998908,43.299898],[-80.5998674,43.3001871],[-80.6005406,43.3001195],[-80.6005406,43.3002799],[-80.6005405,43.3004487],[-80.6005404,43.3006125],[-80.599802,43.3006061],[-80.5998274,43.3004628],[-80.5998495,43.300322],[-80.5998471,43.3003401],[-80.5998256,43.3004736],[-80.5997999,43.3006172],[-80.5993185,43.3007643],[-80.599866,43.3001972],[-80.599881,43.3000457]]},"properties":{"technology":"AMI","portionId":"PORT-13","meterCount":27,"readerId":null}},{"type":"Feature","id":"MRU-014","geometry":{"type":"LineString","coordinates":[[-80.5998904,43.2999044],[-80.5995891,43.2993036],[-80.6005473,43.299309],[-80.6005504,43.2991583],[-80.5996033,43.2991589],[-80.5996148,43.299012],[-80.5995889,43.2993059],[-80.5996034,43.2991573],[-80.5985613,43.2992835],[-80.5985566,43.2991177],[-80.5985559,43.2990991],[-80.5985612,43.2992701],[-80.5987901,43.2997632],[-80.5988279,43.3000437],[-80.5988106,43.2999025],[-80.5988415,43.3001871],[-80.5990786,43.3007643],[-80.5988495,43.3003329],[-80.5988521,43.3004759],[-80.5988501,43.3006149],[-80.5988419,43.3001944],[-80.5988288,43.3000527],[-80.5988115,43.2999092],[-80.5976599,43.3001079],[-80.5976216,43.299931],[-80.5976959,43.3002824],[-80.5977276,43.3004504]]},"properties":{"technology":"AMR","portionId":"PORT-14","meterCount":27,"readerId":"VAN-02"}},{"type":"Feature","id":"MRU-015","geometry":{"type":"LineString","coordinates":[[-80.5977553,43.3006187],[-80.5976951,43.3002783],[-80.5977282,43.300454],[-80.5977548,43.3006151],[-80.5976584,43.3001008],[-80.5976219,43.299932],[-80.5975853,43.2997647],[-80.5974442,43.2992865],[-80.5979538,43.2996055],[-80.5974225,43.2991171],[-80.5974453,43.2992954],[-80.597426,43.299143],[-80.5974051,43.2989908],[-80.5962604,43.2991476],[-80.5962802,43.2992973],[-80.5969493,43.2996014],[-80.5964066,43.2998068],[-80.5960343,43.2995969],[-80.5959948,43.3000281],[-80.59628,43.2992954],[-80.5962591,43.2991375],[-80.5955631,43.3000281],[-80.5957932,43.2995956],[-80.5957835,43.3000281],[-80.5957789,43.3000281],[-80.5955537,43.3000281],[-80.595333,43.3001843]]},"properties":{"technology":"AMR","portionId":"PORT-15","meterCount":27,"readerId":"VAN-01"}},{"type":"Feature","id":"MRU-016","geometry":{"type":"LineString","coordinates":[[-80.5953509,43.3004856],[-80.5953395,43.3003415],[-80.5953659,43.3006246],[-80.5953516,43.3004942],[-80.5953698,43.3006558],[-80.5965569,43.3006324],[-80.5965245,43.3004821],[-80.5964938,43.3003354],[-80.5960057,43.3000281],[-80.5962253,43.3000281],[-80.596466,43.3001921],[-80.5965263,43.3004909],[-80.5964962,43.3003477],[-80.5965565,43.3006303],[-80.5965889,43.3007787],[-80.5966217,43.3009305],[-80.5966509,43.3010712],[-80.5966543,43.3010886],[-80.5966829,43.3012393],[-80.5967281,43.3015345],[-80.5967069,43.301384],[-80.5966801,43.3012249],[-80.596621,43.300927],[-80.5965894,43.3007808],[-80.5953905,43.3008009],[-80.5954146,43.3009458],[-80.5954441,43.3011027]]},"properties":{"technology":"MANUAL","portionId":"PORT-16","meterCount":27,"readerId":"WALKER-01"}},{"type":"Feature","id":"MRU-017","geometry":{"type":"LineString","coordinates":[[-80.5953874,43.3007816],[-80.5954129,43.3009364],[-80.5954396,43.3010806],[-80.5954689,43.3012236],[-80.5954754,43.3012551],[-80.5955069,43.3014003],[-80.5955394,43.3015492],[-80.5956041,43.3018547],[-80.5955737,43.301708],[-80.596764,43.3019992],[-80.5967576,43.3018479],[-80.5967452,43.301688],[-80.5967648,43.3021522],[-80.5967589,43.3023025],[-80.5967592,43.3022951],[-80.5967648,43.3021485],[-80.5977201,43.3021705],[-80.5976866,43.3023424],[-80.5976935,43.3023077],[-80.5977256,43.3021401],[-80.5977536,43.3019745],[-80.5977782,43.3017936],[-80.5977958,43.301619],[-80.5977919,43.3016579],[-80.5977745,43.3018214],[-80.5977497,43.3019974],[-80.5967639,43.3019884]]},"properties":{"technology":"AMI","portionId":"PORT-17","meterCount":27,"readerId":null}},{"type":"Feature","id":"MRU-018","geometry":{"type":"LineString","coordinates":[[-80.5967566,43.3018276],[-80.5967447,43.3016835],[-80.5967293,43.3015438],[-80.5967077,43.3013891],[-80.5977779,43.3007865],[-80.5978053,43.3011309],[-80.597795,43.3009584],[-80.5977774,43.3007816],[-80.5977944,43.3009511],[-80.5978051,43.3011247],[-80.5978086,43.3012919],[-80.5978082,43.3013138],[-80.5978031,43.3014943],[-80.597805,43.3014605],[-80.5987338,43.3015279],[-80.598763,43.3013766],[-80.5987892,43.3012272],[-80.5988305,43.3009182],[-80.5988126,43.3010721],[-80.5990727,43.3007643],[-80.5987917,43.3012106],[-80.5987386,43.3015041],[-80.5987653,43.3013641],[-80.5987097,43.3016449],[-80.5986773,43.3017959],[-80.5986437,43.3019484],[-80.5986716,43.3018215]]},"properties":{"technology":"AMI","portionId":"PORT-18","meterCount":27,"readerId":null}},{"type":"Feature","id":"MRU-019","geometry":{"type":"LineString","coordinates":[[-80.5987031,43.3016757],[-80.5986373,43.3019777],[-80.598605,43.3021281],[-80.5985756,43.3022724],[-80.5985461,43.302429],[-80.5985517,43.3023974],[-80.5985801,43.3022498],[-80.5986117,43.3020969],[-80.5985259,43.302546],[-80.5985027,43.3027024],[-80.5984659,43.3031628],[-80.5984725,43.3030127],[-80.5984849,43.3028566],[-80.5984832,43.3028714],[-80.5985012,43.3027154],[-80.5985222,43.3025711],[-80.5976578,43.3024794],[-80.5976236,43.3026367],[-80.5976502,43.3025154],[-80.5976138,43.3026815],[-80.5967487,43.3024438],[-80.5967343,43.3025848],[-80.5967156,43.302729],[-80.5975762,43.3028541],[-80.5935809,43.2995777],[-80.5962052,43.2985494],[-80.5962001,43.2983963]]},"properties":{"technology":"AMI","portionId":"PORT-19","meterCount":27,"readerId":null}},{"type":"Feature","id":"MRU-020","geometry":{"type":"LineString","coordinates":[[-80.5962049,43.2985434],[-80.5962137,43.2986968],[-80.5962269,43.2988523],[-80.5962419,43.2989942],[-80.5962422,43.2989967],[-80.5962266,43.2988478],[-80.5962147,43.2987086],[-80.5973834,43.2988386],[-80.5973611,43.2986843],[-80.5973402,43.298535],[-80.5973209,43.2983857],[-80.5973038,43.2982384],[-80.5973299,43.2984557],[-80.5973094,43.298289],[-80.5973516,43.2986167],[-80.5973744,43.2987771],[-80.597399,43.2989476],[-80.5985461,43.298935],[-80.5985137,43.2985979],[-80.5985313,43.2987612],[-80.598547,43.2989483],[-80.5985335,43.2987842],[-80.598517,43.2986257],[-80.5984969,43.2984617],[-80.598475,43.2982989],[-80.5984933,43.2984346],[-80.5984691,43.2982573]]},"properties":{"technology":"AMR","portionId":"PORT-20","meterCount":27,"readerId":"VAN-02"}},{"type":"Feature","id":"MRU-021","geometry":{"type":"LineString","coordinates":[[-80.598444,43.2980824],[-80.598421,43.2979211],[-80.5983995,43.2977649],[-80.5984016,43.297781],[-80.5984501,43.2981241],[-80.5984247,43.2979471],[-80.5983635,43.2974624],[-80.5983815,43.2976251],[-80.5983778,43.2975925],[-80.5983601,43.2974294],[-80.5972652,43.2974447],[-80.5972915,43.2981173],[-80.5972774,43.2979417],[-80.5972684,43.2977741],[-80.5972892,43.298091],[-80.5972643,43.2976108],[-80.5973157,43.2967717],[-80.5983351,43.2965973],[-80.5983305,43.2967587],[-80.5983307,43.2969296],[-80.5983358,43.2970952],[-80.5972971,43.2969392],[-80.5972817,43.2971126],[-80.5972712,43.2972753],[-80.5983459,43.2972641],[-80.5983481,43.2972895],[-80.599467,43.297057]]},"properties":{"technology":"AMR","portionId":"PORT-21","meterCount":27,"readerId":"VAN-01"}}]}