{"type":"FeatureCollection","name":"roads","crs_note":"EPSG:4326","features":[{"type":"Feature","id":"R-0","geometry":{"type":"LineString","coordinates":[[-80.60719,43.2997672],[-80.6071205,43.2997652],[-80.6070433,43.2997629],[-80.6069662,43.2997607],[-80.606889,43.2997584],[-80.6068119,43.2997562],[-80.6067347,43.2997539],[-80.6066576,43.2997516],[-80.6065805,43.2997493],[-80.6065033,43.2997469],[-80.6064262,43.2997447],[-80.606349,43.2997424],[-80.6062719,43.29974],[-80.6061947,43.2997377],[-80.6061176,43.2997354],[-80.6060404,43.299733],[-80.6059633,43.2997307],[-80.6058861,43.2997284],[-80.605809,43.299726],[-80.6057575,43.2997245]]},"properties":{"name":"Wheatfield Concession Road","roadClass":"arterial","pavementWidthM":14.0,"lengthM":116.15,"origin":"synthetic"}},{"type":"Feature","id":"R-1","geometry":{"type":"LineString","coordinates":[[-80.6057575,43.2997245],[-80.6057319,43.2997237],[-80.6056547,43.2997213],[-80.6055776,43.299719],[-80.605523,43.2997174]]},"properties":{"name":"Wheatfield Concession Road","roadClass":"arterial","pavementWidthM":14.0,"lengthM":19.02,"origin":"synthetic"}},{"type":"Feature","id":"R-2","geometry":{"type":"LineString","coordinates":[[-80.6055387,43.299776],[-80.605523,43.2997174]]},"properties":{"name":"Ash Trail","roadClass":"local","pavementWidthM":8.0,"lengthM":6.64,"origin":"synthetic"}},{"type":"Feature","id":"R-3","geometry":{"type":"LineString","coordinates":[[-80.6055387,43.299776],[-80.6044346,43.299776]]},"properties":{"name":"Trillium Street","roadClass":"local","pavementWidthM":8.0,"lengthM":89.45,"origin":"synthetic"}},{"type":"Feature","id":"R-4","geometry":{"type":"LineString","coordinates":[[-80.605523,43.2997174],[-80.6055004,43.2997167],[-80.6054233,43.2997144],[-80.6053461,43.2997121],[-80.605269,43.2997098],[-80.6051918,43.2997074],[-80.6051147,43.2997052],[-80.6050375,43.2997028],[-80.6049604,43.2997006],[-80.6048833,43.2996983],[-80.6048539,43.2996974]]},"properties":{"name":"Wheatfield Concession Road","roadClass":"arterial","pavementWidthM":14.0,"lengthM":54.26,"origin":"synthetic"}},{"type":"Feature","id":"R-5","geometry":{"type":"LineString","coordinates":[[-80.6048539,43.2996974],[-80.6048639,43.2996259],[-80.604881,43.2994463],[-80.6048892,43.2992666],[-80.6048877,43.299087],[-80.604877,43.2989073],[-80.6048575,43.2987276],[-80.6048305,43.298548],[-80.604798,43.2983683],[-80.604762,43.2981886],[-80.604725,43.298009],[-80.6046893,43.2978293],[-80.6046576,43.2976497],[-80.6046539,43.2976242]]},"properties":{"name":"Kingfisher Gate","roadClass":"local","pavementWidthM":8.0,"lengthM":232.08,"origin":"synthetic"}},{"type":"Feature","id":"R-6","geometry":{"type":"LineString","coordinates":[[-80.6048539,43.2996974],[-80.6048061,43.299696],[-80.604729,43.2996938],[-80.6046518,43.2996915],[-80.6045747,43.2996893],[-80.6044975,43.2996871],[-80.6044325,43.2996852]]},"properties":{"name":"Wheatfield Concession Road","roadClass":"arterial","pavementWidthM":14.0,"lengthM":34.17,"origin":"synthetic"}},{"type":"Feature","id":"R-7","geometry":{"type":"LineString","coordinates":[[-80.6044816,43.3052381],[-80.604478,43.3052124],[-80.6044572,43.3050327],[-80.6044421,43.304853],[-80.6044335,43.3046734],[-80.6044317,43.3044937],[-80.6044372,43.304314],[-80.6044493,43.3041344],[-80.6044675,43.3039547],[-80.604491,43.3037751],[-80.6045183,43.3035954],[-80.6045481,43.3034157],[-80.6045789,43.3032361],[-80.6046089,43.3030564],[-80.6046368,43.3028768],[-80.6046607,43.3026971],[-80.6046798,43.3025174],[-80.6046929,43.3023378],[-80.6046992,43.3021581],[-80.6046986,43.3019784],[-80.6046911,43.3017988],[-80.6046767,43.3016191],[-80.6046568,43.3014395],[-80.6046319,43.3012598],[-80.6046036,43.3010801],[-80.6045733,43.3009005],[-80.6045426,43.3007208],[-80.6045131,43.3005411],[-80.6044864,43.3003615],[-80.6044638,43.3001818],[-80.6044467,43.3000022],[-80.6044357,43.2998225],[-80.6044346,43.299776]]},"properties":{"name":"Elgin Lane","roadClass":"local","pavementWidthM":8.0,"lengthM":610.29,"origin":"synthetic"}},{"type":"Feature","id":"R-8","geometry":{"type":"LineString","coordinates":[[-80.6044346,43.299776],[-80.6044325,43.2996852]]},"properties":{"name":"Elgin Lane","roadClass":"local","pavementWidthM":8.0,"lengthM":10.1,"origin":"synthetic"}},{"type":"Feature","id":"R-9","geometry":{"type":"LineString","coordinates":[[-80.6044325,43.2996852],[-80.6044204,43.2996849],[-80.6043432,43.2996827],[-80.6042661,43.2996806],[-80.6041889,43.2996784],[-80.6041118,43.2996762],[-80.6040347,43.2996741],[-80.6039575,43.299672],[-80.6038804,43.29967],[-80.6038626,43.2996749]]},"properties":{"name":"Wheatfield Concession Road","roadClass":"arterial","pavementWidthM":14.0,"lengthM":46.3,"origin":"synthetic"}},{"type":"Feature","id":"R-10","geometry":{"type":"LineString","coordinates":[[-80.6038626,43.2996749],[-80.603861,43.2996259],[-80.6038459,43.2994463],[-80.6038227,43.2992666],[-80.6037928,43.299087],[-80.6037584,43.2989073],[-80.6037216,43.2987276],[-80.603685,43.298548],[-80.6036509,43.2983683],[-80.6036216,43.2981886],[-80.6035992,43.298009],[-80.6035851,43.2978293],[-80.6035891,43.2977482]]},"properties":{"name":"Meadow Crescent","roadClass":"local","pavementWidthM":8.0,"lengthM":215.84,"origin":"synthetic"}},{"type":"Feature","id":"R-11","geometry":{"type":"LineString","coordinates":[[-80.6038626,43.2996749],[-80.6038032,43.2996679],[-80.6037261,43.2996658],[-80.6036489,43.2996639],[-80.6035718,43.2996619],[-80.6034946,43.2996599],[-80.6034513,43.2996534]]},"properties":{"name":"Wheatfield Concession Road","roadClass":"arterial","pavementWidthM":14.0,"lengthM":33.47,"origin":"synthetic"}},{"type":"Feature","id":"R-12","geometry":{"type":"LineString","coordinates":[[-80.6036469,43.2969497],[-80.6036209,43.2971107],[-80.6035987,43.2972903],[-80.6035847,43.29747],[-80.6035802,43.2976497],[-80.6035891,43.2977482]]},"properties":{"name":"Meadow Crescent","roadClass":"local","pavementWidthM":8.0,"lengthM":89.15,"origin":"synthetic"}},{"type":"Feature","id":"R-13","geometry":{"type":"LineString","coordinates":[[-80.6035891,43.2977482],[-80.6025972,43.2977482]]},"properties":{"name":"Chestnut Way","roadClass":"local","pavementWidthM":8.0,"lengthM":80.36,"origin":"synthetic"}},{"type":"Feature","id":"R-14","geometry":{"type":"LineString","coordinates":[[-80.6034513,43.2996534],[-80.6034313,43.2998225],[-80.6034155,43.3000022],[-80.6034063,43.3001818],[-80.6034039,43.3003615],[-80.6034086,43.3005411],[-80.6034201,43.3007208],[-80.6034377,43.3009005],[-80.6034607,43.3010801],[-80.6034877,43.3012598],[-80.6035173,43.3014395],[-80.6035481,43.3016191],[-80.6035783,43.3017988],[-80.6036065,43.3019784],[-80.6036309,43.3021581],[-80.6036505,43.3023378],[-80.6036642,43.3025174],[-80.6036713,43.3026971],[-80.6036713,43.3028768],[-80.6036644,43.3030564],[-80.6036508,43.3032361],[-80.6036313,43.3034157],[-80.6036068,43.3035954],[-80.6035788,43.3037751],[-80.6035486,43.3039547],[-80.6035178,43.3041344],[-80.6034882,43.304314],[-80.6034611,43.3044937],[-80.6034381,43.3046734],[-80.6034392,43.3047303]]},"properties":{"name":"Spruce Street","roadClass":"local","pavementWidthM":8.0,"lengthM":567.33,"origin":"synthetic"}},{"type":"Feature","id":"R-15","geometry":{"type":"LineString","coordinates":[[-80.6034513,43.2996534],[-80.6034175,43.2996579],[-80.6033403,43.299656],[-80.6032632,43.2996542],[-80.6031861,43.2996523],[-80.6031089,43.2996505],[-80.6030318,43.2996487],[-80.6029546,43.2996469],[-80.6028775,43.2996452],[-80.6028003,43.2996435],[-80.6027581,43.2996479]]},"properties":{"name":"Wheatfield Concession Road","roadClass":"arterial","pavementWidthM":14.0,"lengthM":56.27,"origin":"synthetic"}},{"type":"Feature","id":"R-16","geometry":{"type":"LineString","coordinates":[[-80.6027581,43.2996479],[-80.6027542,43.2996259],[-80.6027182,43.2994463],[-80.6026812,43.2992666],[-80.6026455,43.299087],[-80.6026134,43.2989073],[-80.6025873,43.2987276],[-80.6025686,43.298548],[-80.6025588,43.2983683],[-80.6025584,43.2981886],[-80.6025675,43.298009],[-80.6025858,43.2978914]]},"properties":{"name":"Barley Crescent","roadClass":"local","pavementWidthM":8.0,"lengthM":196.64,"origin":"synthetic"}},{"type":"Feature","id":"R-17","geometry":{"type":"LineString","coordinates":[[-80.6027581,43.2996479],[-80.6027232,43.2996418],[-80.602646,43.2996401],[-80.6025689,43.2996385],[-80.6025399,43.2996325]]},"properties":{"name":"Wheatfield Concession Road","roadClass":"arterial","pavementWidthM":14.0,"lengthM":17.86,"origin":"synthetic"}},{"type":"Feature","id":"R-18","geometry":{"type":"LineString","coordinates":[[-80.6026525,43.2947619],[-80.6026548,43.2947751],[-80.6026912,43.2949547],[-80.6027281,43.2951344],[-80.6027633,43.295314],[-80.6027943,43.2954937],[-80.602819,43.2956734],[-80.6028359,43.295853],[-80.6028438,43.2960327],[-80.602842,43.2962124],[-80.6028309,43.296392],[-80.6028112,43.2965717],[-80.6027842,43.2967513],[-80.6027514,43.296931],[-80.6027154,43.2971107],[-80.6026784,43.2972903],[-80.6026429,43.29747],[-80.6026112,43.2976497],[-80.6025972,43.2977482]]},"properties":{"name":"Barley Crescent","roadClass":"local","pavementWidthM":8.0,"lengthM":334.64,"origin":"synthetic"}},{"type":"Feature","id":"R-19","geometry":{"type":"LineString","coordinates":[[-80.6025972,43.2977482],[-80.6025855,43.2978293],[-80.6025858,43.2978914]]},"properties":{"name":"Barley Crescent","roadClass":"local","pavementWidthM":8.0,"lengthM":15.99,"origin":"synthetic"}},{"type":"Feature","id":"R-20","geometry":{"type":"LineString","coordinates":[[-80.6025858,43.2978914],[-80.6016607,43.2978914]]},"properties":{"name":"Huron Trail","roadClass":"local","pavementWidthM":8.0,"lengthM":74.95,"origin":"synthetic"}},{"type":"Feature","id":"R-21","geometry":{"type":"LineString","coordinates":[[-80.6025399,43.2996325],[-80.6025383,43.2996428],[-80.6025077,43.2998225],[-80.6024772,43.3000022],[-80.6024484,43.3001818],[-80.6024229,43.3003615],[-80.602402,43.3005411],[-80.6023868,43.3007208],[-80.6023781,43.3009005],[-80.6023763,43.3010801],[-80.6023816,43.3012598],[-80.6023936,43.3014395],[-80.6024118,43.3016191],[-80.6024351,43.3017988],[-80.6024624,43.3019784],[-80.6024922,43.3021581],[-80.602523,43.3023378],[-80.6025531,43.3025174],[-80.6025809,43.3026971],[-80.6026051,43.3028768],[-80.6026242,43.3030564],[-80.6026373,43.3032361],[-80.6026438,43.3034157],[-80.6026433,43.3035954],[-80.6026358,43.3037751],[-80.6026216,43.3039547],[-80.6026017,43.3041344],[-80.6025769,43.304314],[-80.6025486,43.3044937],[-80.6025183,43.3046734],[-80.6025085,43.3047303]]},"properties":{"name":"Talbot Crescent","roadClass":"local","pavementWidthM":8.0,"lengthM":569.76,"origin":"synthetic"}},{"type":"Feature","id":"R-22","geometry":{"type":"LineString","coordinates":[[-80.6025399,43.2996325],[-80.6024917,43.2996369],[-80.6024146,43.2996354],[-80.6023374,43.2996338],[-80.6022603,43.2996324],[-80.6021832,43.299631],[-80.602106,43.2996295],[-80.6020289,43.2996282],[-80.6019517,43.2996269],[-80.6018746,43.2996256],[-80.6017974,43.2996244],[-80.6017203,43.2996232],[-80.6016431,43.2996221],[-80.6016071,43.2996269]]},"properties":{"name":"Wheatfield Concession Road","roadClass":"arterial","pavementWidthM":14.0,"lengthM":75.67,"origin":"synthetic"}},{"type":"Feature","id":"R-23","geometry":{"type":"LineString","coordinates":[[-80.6016607,43.2978914],[-80.6016367,43.298009],[-80.6016029,43.2981886],[-80.6015741,43.2983683],[-80.6015523,43.298548],[-80.6015388,43.2987276],[-80.6015346,43.2989073],[-80.6015401,43.299087],[-80.6015546,43.2992666],[-80.6015773,43.2994463],[-80.6016071,43.2996269]]},"properties":{"name":"Osprey Gate","roadClass":"local","pavementWidthM":8.0,"lengthM":194.04,"origin":"synthetic"}},{"type":"Feature","id":"R-24","geometry":{"type":"LineString","coordinates":[[-80.6016607,43.2978914],[-80.6016733,43.2978293],[-80.6017102,43.2976497],[-80.6017448,43.29747],[-80.6017751,43.2972903],[-80.6017989,43.2971107],[-80.6018147,43.296931],[-80.6018213,43.2967513],[-80.6018184,43.2965717],[-80.6018061,43.296392],[-80.6017853,43.2962124],[-80.6017574,43.2960327],[-80.6017241,43.295853],[-80.6016878,43.2956734],[-80.6016509,43.2954937],[-80.6016157,43.295314],[-80.6015848,43.2951344],[-80.6015599,43.2949547],[-80.601543,43.2947751],[-80.6015425,43.2947619]]},"properties":{"name":"Osprey Gate","roadClass":"local","pavementWidthM":8.0,"lengthM":350.5,"origin":"synthetic"}},{"type":"Feature","id":"R-25","geometry":{"type":"LineString","coordinates":[[-80.6016071,43.2996269],[-80.6016028,43.2996428],[-80.601586,43.2998225],[-80.6015638,43.3000022],[-80.6015374,43.3001818],[-80.601508,43.3003615],[-80.6014774,43.3005411],[-80.601447,43.3007208],[-80.6014185,43.3009005],[-80.6013933,43.3010801],[-80.6013728,43.3012598],[-80.6013581,43.3014395],[-80.60135,43.3016191],[-80.6013488,43.3017988],[-80.6013547,43.3019784],[-80.6013671,43.3021581],[-80.6013858,43.3023378],[-80.6014095,43.3025174],[-80.6014371,43.3026971],[-80.601467,43.3028768],[-80.6014977,43.3030564],[-80.6015277,43.3032361],[-80.6015553,43.3034157],[-80.6015791,43.3035954],[-80.6015977,43.3037751],[-80.6016104,43.3039547],[-80.6016164,43.3041344],[-80.6016152,43.304314],[-80.6016071,43.3044937],[-80.6015924,43.3046734],[-80.601572,43.304853],[-80.601547,43.3050327],[-80.6015185,43.3052124],[-80.6015142,43.3052381]]},"properties":{"name":"Ridge Lane","roadClass":"local","pavementWidthM":8.0,"lengthM":627.13,"origin":"synthetic"}},{"type":"Feature","id":"R-26","geometry":{"type":"LineString","coordinates":[[-80.6016071,43.2996269],[-80.601566,43.299621],[-80.6014888,43.2996199],[-80.6014117,43.2996189],[-80.6013346,43.2996179],[-80.6012574,43.299617],[-80.6011803,43.2996162],[-80.6011031,43.2996153],[-80.601026,43.2996145],[-80.6009488,43.2996138],[-80.6008717,43.2996132],[-80.6007945,43.2996126],[-80.6007174,43.299612],[-80.6006402,43.2996115],[-80.6005631,43.299611],[-80.6005429,43.2996109]]},"properties":{"name":"Wheatfield Concession Road","roadClass":"arterial","pavementWidthM":14.0,"lengthM":86.29,"origin":"synthetic"}},{"type":"Feature","id":"R-27","geometry":{"type":"LineString","coordinates":[[-80.6008363,43.2947673],[-80.6008314,43.2948179],[-80.6008261,43.2948741],[-80.6008208,43.2949302],[-80.6008156,43.2949863],[-80.6008103,43.2950425],[-80.6008052,43.2950986],[-80.6008,43.2951548],[-80.6007948,43.2952109],[-80.6007897,43.2952671],[-80.6007847,43.2953232],[-80.6007796,43.2953794],[-80.6007745,43.2954355],[-80.6007695,43.2954916],[-80.6007645,43.2955478],[-80.6007597,43.2956039],[-80.6007548,43.2956601],[-80.60075,43.2957162],[-80.6007452,43.2957724],[-80.6007404,43.2958285],[-80.6007357,43.2958847],[-80.600731,43.2959408],[-80.6007263,43.2959969],[-80.6007217,43.2960531],[-80.6007171,43.2961092],[-80.6007126,43.2961654],[-80.6007081,43.2962215],[-80.6007037,43.2962777],[-80.6006992,43.2963338],[-80.6006949,43.29639],[-80.6006906,43.2964461],[-80.6006864,43.2965022],[-80.6006821,43.2965584],[-80.600678,43.2966145],[-80.6006738,43.2966707],[-80.6006697,43.2967268],[-80.6006658,43.296783],[-80.6006618,43.2968391],[-80.6006579,43.2968953],[-80.6006541,43.2969514],[-80.6006502,43.2970075],[-80.6006464,43.2970637],[-80.6006427,43.2971198],[-80.6006391,43.297176],[-80.6006356,43.2972321],[-80.600632,43.2972883],[-80.6006285,43.2973444],[-80.6006251,43.2974006],[-80.6006217,43.2974567],[-80.6006184,43.2975128],[-80.6006151,43.297569],[-80.600612,43.2976251],[-80.6006088,43.2976813],[-80.6006057,43.2977374],[-80.6006027,43.2977936],[-80.6005998,43.2978497],[-80.6005969,43.2979059],[-80.6005941,43.297962],[-80.6005914,43.2980181],[-80.6005887,43.2980743],[-80.6005861,43.2981304],[-80.6005835,43.2981866],[-80.600581,43.2982427],[-80.6005785,43.2982989],[-80.6005762,43.298355],[-80.6005738,43.2984112],[-80.6005717,43.2984673],[-80.6005695,43.2985234],[-80.6005674,43.2985796],[-80.6005654,43.2986357],[-80.6005636,43.2986919],[-80.6005616,43.298748],[-80.6005599,43.2988042],[-80.6005582,43.2988603],[-80.6005566,43.2989165],[-80.600555,43.2989726],[-80.6005535,43.2990287],[-80.6005521,43.2990849],[-80.6005508,43.299141],[-80.6005495,43.2991972],[-80.6005484,43.2992533],[-80.6005473,43.2993095],[-80.6005463,43.2993656],[-80.6005455,43.2994218],[-80.6005446,43.2994779],[-80.6005438,43.299534],[-80.6005431,43.2995902],[-80.6005429,43.2996109]]},"properties":{"name":"Cardinal Concession Road","roadClass":"arterial","pavementWidthM":14.0,"lengthM":539.8,"origin":"synthetic"}},{"type":"Feature","id":"R-28","geometry":{"type":"LineString","coordinates":[[-80.6005621,43.3052327],[-80.6005616,43.3052046],[-80.6005608,43.3051485],[-80.6005599,43.3050923],[-80.600559,43.3050362],[-80.6005582,43.3049801],[-80.6005574,43.3049239],[-80.6005566,43.3048678],[-80.6005558,43.3048116],[-80.6005551,43.3047555],[-80.6005543,43.3046993],[-80.6005537,43.3046432],[-80.600553,43.304587],[-80.6005524,43.3045309],[-80.6005517,43.3044748],[-80.6005511,43.3044186],[-80.6005505,43.3043625],[-80.6005499,43.3043063],[-80.6005494,43.3042502],[-80.6005489,43.304194],[-80.6005483,43.3041379],[-80.6005478,43.3040817],[-80.6005474,43.3040256],[-80.6005469,43.3039695],[-80.6005464,43.3039133],[-80.6005461,43.3038572],[-80.6005457,43.303801],[-80.6005453,43.3037449],[-80.600545,43.3036887],[-80.6005446,43.3036326],[-80.6005442,43.3035764],[-80.6005438,43.3035203],[-80.6005436,43.3034642],[-80.6005432,43.303408],[-80.600543,43.3033519],[-80.6005427,43.3032957],[-80.6005425,43.3032396],[-80.6005422,43.3031834],[-80.600542,43.3031273],[-80.6005419,43.3030711],[-80.6005416,43.303015],[-80.6005414,43.3029589],[-80.6005413,43.3029027],[-80.6005411,43.3028466],[-80.600541,43.3027904],[-80.6005408,43.3027343],[-80.6005406,43.3026781],[-80.6005405,43.302622],[-80.6005404,43.3025658],[-80.6005404,43.3025097],[-80.6005403,43.3024536],[-80.6005401,43.3023974],[-80.6005401,43.3023413],[-80.60054,43.3022851],[-80.60054,43.302229],[-80.6005399,43.3021728],[-80.6005399,43.3021167],[-80.6005399,43.3020605],[-80.6005398,43.3020044],[-80.6005398,43.3019483],[-80.6005398,43.3018921],[-80.6005398,43.301836],[-80.6005398,43.3017798],[-80.6005398,43.3017237],[-80.6005398,43.3016675],[-80.6005398,43.3016114],[-80.6005398,43.3015552],[-80.6005399,43.3014991],[-80.6005399,43.301443],[-80.6005399,43.3013868],[-80.6005399,43.3013307],[-80.6005399,43.3012745],[-80.60054,43.3012184],[-80.60054,43.3011622],[-80.60054,43.3011061],[-80.6005401,43.3010499],[-80.6005401,43.3009938],[-80.6005401,43.3009377],[-80.6005403,43.3008815],[-80.6005403,43.3008254],[-80.6005403,43.3007692],[-80.6005404,43.3007131],[-80.6005404,43.3006569],[-80.6005404,43.3006008],[-80.6005404,43.3005446],[-80.6005405,43.3004885],[-80.6005405,43.3004324],[-80.6005405,43.3003762],[-80.6005405,43.3003201],[-80.6005406,43.3002639],[-80.6005406,43.3002078],[-80.6005406,43.3001516],[-80.6005406,43.3000955],[-80.6005406,43.3000393],[-80.6005408,43.2999832],[-80.6005409,43.2999271],[-80.600541,43.2998709],[-80.6005413,43.2998148],[-80.6005416,43.2997586],[-80.600542,43.2997025],[-80.6005425,43.2996463],[-80.6005429,43.2996109]]},"properties":{"name":"Cardinal Concession Road","roadClass":"arterial","pavementWidthM":14.0,"lengthM":625.82,"origin":"synthetic"}},{"type":"Feature","id":"R-29","geometry":{"type":"LineString","coordinates":[[-80.6005429,43.2996109],[-80.600486,43.2996107],[-80.6004088,43.2996103],[-80.6003317,43.29961],[-80.6002545,43.2996098],[-80.6001774,43.2996096],[-80.6001002,43.2996095],[-80.6000231,43.2996094],[-80.5999459,43.2996094],[-80.5998955,43.2996093]]},"properties":{"name":"Wheatfield Concession Road","roadClass":"arterial","pavementWidthM":14.0,"lengthM":52.45,"origin":"synthetic"}},{"type":"Feature","id":"R-30","geometry":{"type":"LineString","coordinates":[[-80.5998955,43.2996093],[-80.5998964,43.2996392],[-80.599895,43.2998189],[-80.5998855,43.2999986],[-80.5998685,43.3001782],[-80.5998447,43.3003579],[-80.5998151,43.3005375],[-80.5997808,43.3007172],[-80.5997786,43.3007643]]},"properties":{"name":"Wentworth Street","roadClass":"local","pavementWidthM":8.0,"lengthM":129.06,"origin":"synthetic"}},{"type":"Feature","id":"R-31","geometry":{"type":"LineString","coordinates":[[-80.5998955,43.2996093],[-80.5998688,43.2996093],[-80.5997916,43.2996092],[-80.5997145,43.2996092],[-80.5996374,43.2996091],[-80.5995602,43.2996091],[-80.5995519,43.2996091]]},"properties":{"name":"Wheatfield Concession Road","roadClass":"arterial","pavementWidthM":14.0,"lengthM":27.83,"origin":"synthetic"}},{"type":"Feature","id":"R-32","geometry":{"type":"LineString","coordinates":[[-80.59984,43.3045166],[-80.5998282,43.3044901],[-80.5997957,43.3043105],[-80.5997593,43.3041308],[-80.5997207,43.3039511],[-80.5996812,43.3037715],[-80.5996425,43.3035918],[-80.5996064,43.3034121],[-80.5995742,43.3032325],[-80.5995471,43.3030528],[-80.5995265,43.3028732],[-80.5995132,43.3026935],[-80.5995075,43.3025138],[-80.5995097,43.3023342],[-80.59952,43.3021545],[-80.5995377,43.3019748],[-80.5995621,43.3017952],[-80.5995923,43.3016155],[-80.599627,43.3014359],[-80.5996648,43.3012562],[-80.599704,43.3010765],[-80.5997433,43.3008969],[-80.5997786,43.3007643]]},"properties":{"name":"Wentworth Street","roadClass":"local","pavementWidthM":8.0,"lengthM":421.12,"origin":"synthetic"}},{"type":"Feature","id":"R-33","geometry":{"type":"LineString","coordinates":[[-80.5997786,43.3007643],[-80.5988432,43.3007643]]},"properties":{"name":"Heather Crescent","roadClass":"local","pavementWidthM":8.0,"lengthM":75.78,"origin":"synthetic"}},{"type":"Feature","id":"R-34","geometry":{"type":"LineString","coordinates":[[-80.5995519,43.2996091],[-80.599554,43.2995938],[-80.599577,43.2994141],[-80.5995967,43.2992345],[-80.5996123,43.2990548],[-80.5996227,43.2988751],[-80.5996276,43.2986955],[-80.5996266,43.2985158],[-80.5996201,43.2983361],[-80.599608,43.2981565],[-80.5995911,43.2979768],[-80.5995702,43.2977972],[-80.5995464,43.2976175],[-80.599521,43.2974378],[-80.5994949,43.2972582],[-80.5994697,43.2970785],[-80.5994467,43.2968989],[-80.5994268,43.2967192],[-80.5994112,43.2965395],[-80.5994006,43.2963599],[-80.5993955,43.2961802],[-80.5993963,43.2960005],[-80.5994027,43.2958209],[-80.5994146,43.2956412],[-80.5994313,43.2954616],[-80.5994521,43.2952819],[-80.5994758,43.2951022],[-80.5995013,43.2949226],[-80.5995245,43.2947619]]},"properties":{"name":"Barley Drive","roadClass":"local","pavementWidthM":8.0,"lengthM":541.03,"origin":"synthetic"}},{"type":"Feature","id":"R-35","geometry":{"type":"LineString","coordinates":[[-80.5995519,43.2996091],[-80.5994831,43.2996091],[-80.5994059,43.299609],[-80.5993288,43.2996089],[-80.5992516,43.2996088],[-80.5991745,43.2996086],[-80.5990973,43.2996085],[-80.5990202,43.2996083],[-80.598943,43.2996082],[-80.5988659,43.2996081],[-80.5987888,43.2996079],[-80.5987634,43.2996078]]},"properties":{"name":"Wheatfield Concession Road","roadClass":"arterial","pavementWidthM":14.0,"lengthM":63.88,"origin":"synthetic"}},{"type":"Feature","id":"R-36","geometry":{"type":"LineString","coordinates":[[-80.5988432,43.3007643],[-80.5988468,43.3007172],[-80.5988527,43.3005375],[-80.5988508,43.3003579],[-80.598841,43.3001782],[-80.5988236,43.2999986],[-80.5987994,43.2998189],[-80.5987695,43.2996392],[-80.5987634,43.2996078]]},"properties":{"name":"Leeds Way","roadClass":"local","pavementWidthM":8.0,"lengthM":129.1,"origin":"synthetic"}},{"type":"Feature","id":"R-37","geometry":{"type":"LineString","coordinates":[[-80.5988432,43.3007643],[-80.5988329,43.3008969],[-80.5988121,43.3010765],[-80.5987848,43.3012562],[-80.5987523,43.3014359],[-80.5987161,43.3016155],[-80.5986774,43.3017952],[-80.5986379,43.3019748],[-80.5985993,43.3021545],[-80.5985631,43.3023342],[-80.5985308,43.3025138],[-80.5985037,43.3026935],[-80.598483,43.3028732],[-80.5984694,43.3030528],[-80.5984636,43.3032325],[-80.5984659,43.3034121],[-80.598476,43.3035918],[-80.5984935,43.3037715],[-80.5985179,43.3039511],[-80.5985481,43.3041308],[-80.5985826,43.3043105],[-80.5986204,43.3044901],[-80.5986262,43.3045166]]},"properties":{"name":"Leeds Way","roadClass":"local","pavementWidthM":8.0,"lengthM":420.44,"origin":"synthetic"}},{"type":"Feature","id":"R-38","geometry":{"type":"LineString","coordinates":[[-80.5987634,43.2996078],[-80.5987116,43.2996077],[-80.5986345,43.2996075],[-80.5985573,43.2996073],[-80.5985565,43.2996073]]},"properties":{"name":"Wheatfield Concession Road","roadClass":"arterial","pavementWidthM":14.0,"lengthM":16.77,"origin":"synthetic"}},{"type":"Feature","id":"R-39","geometry":{"type":"LineString","coordinates":[[-80.5986738,43.3047005],[-80.5986596,43.3046698],[-80.5986262,43.3045166]]},"properties":{"name":"Leeds Way","roadClass":"local","pavementWidthM":8.0,"lengthM":20.87,"origin":"synthetic"}},{"type":"Feature","id":"R-40","geometry":{"type":"LineString","coordinates":[[-80.5986738,43.3047005],[-80.5974674,43.3047005]]},"properties":{"name":"Hickory Lane","roadClass":"local","pavementWidthM":8.0,"lengthM":97.74,"origin":"synthetic"}},{"type":"Feature","id":"R-41","geometry":{"type":"LineString","coordinates":[[-80.5985565,43.2996073],[-80.5985572,43.2995938],[-80.598562,43.2994141],[-80.598561,43.2992345],[-80.5985542,43.2990548],[-80.598542,43.2988751],[-80.5985251,43.2986955],[-80.5985041,43.2985158],[-80.5984803,43.2983361],[-80.5984547,43.2981565],[-80.5984288,43.2979768],[-80.5984036,43.2977972],[-80.5983806,43.2976175],[-80.5983608,43.2974378],[-80.5983454,43.2972582],[-80.5983348,43.2970785],[-80.5983298,43.2968989],[-80.5983307,43.2967192],[-80.5983372,43.2965395],[-80.5983506,43.2964413]]},"properties":{"name":"Brant Drive","roadClass":"local","pavementWidthM":8.0,"lengthM":353.28,"origin":"synthetic"}},{"type":"Feature","id":"R-42","geometry":{"type":"LineString","coordinates":[[-80.5985565,43.2996073],[-80.5984802,43.2996072],[-80.598403,43.2996069],[-80.5983259,43.2996067],[-80.5982487,43.2996064],[-80.5981716,43.2996062],[-80.5980944,43.299606],[-80.5980173,43.2996057],[-80.5979402,43.2996055],[-80.597863,43.2996052],[-80.5977859,43.2996049],[-80.5977087,43.2996046],[-80.5976316,43.2996043],[-80.5975544,43.299604],[-80.5975511,43.299604]]},"properties":{"name":"Wheatfield Concession Road","roadClass":"arterial","pavementWidthM":14.0,"lengthM":81.45,"origin":"synthetic"}},{"type":"Feature","id":"R-43","geometry":{"type":"LineString","coordinates":[[-80.5983506,43.2964413],[-80.5973595,43.2964413]]},"properties":{"name":"Glen Street","roadClass":"local","pavementWidthM":8.0,"lengthM":80.29,"origin":"synthetic"}},{"type":"Feature","id":"R-44","geometry":{"type":"LineString","coordinates":[[-80.5975511,43.299604],[-80.5974773,43.2996037],[-80.5974772,43.2996091]]},"properties":{"name":"Wheatfield Concession Road","roadClass":"arterial","pavementWidthM":14.0,"lengthM":6.58,"origin":"synthetic"}},{"type":"Feature","id":"R-45","geometry":{"type":"LineString","coordinates":[[-80.5975511,43.299604],[-80.5975582,43.2996392],[-80.597597,43.2998189],[-80.5976365,43.2999986],[-80.597675,43.3001782],[-80.5977111,43.3003579],[-80.5977432,43.3005375],[-80.5977701,43.3007172],[-80.5977904,43.3008969],[-80.5978036,43.3010765],[-80.5978091,43.3012562],[-80.5978065,43.3014359],[-80.5977961,43.3016155],[-80.5977781,43.3017952],[-80.5977535,43.3019748],[-80.5977232,43.3021545],[-80.5976883,43.3023342],[-80.5976506,43.3025138],[-80.5976112,43.3026935],[-80.5975721,43.3028732],[-80.5975346,43.3030528],[-80.5975004,43.3032325],[-80.5974709,43.3034121],[-80.5974473,43.3035918],[-80.5974306,43.3037715],[-80.5974214,43.3039511],[-80.5974201,43.3041308],[-80.5974268,43.3043105],[-80.5974412,43.3044901],[-80.5974627,43.3046698],[-80.5974674,43.3047005]]},"properties":{"name":"Huron Avenue","roadClass":"local","pavementWidthM":8.0,"lengthM":570.83,"origin":"synthetic"}},{"type":"Feature","id":"R-46","geometry":{"type":"LineString","coordinates":[[-80.5974772,43.2996091],[-80.5974762,43.2995938],[-80.5974591,43.2994141],[-80.5974381,43.2992345],[-80.5974142,43.2990548],[-80.5973887,43.2988751],[-80.5973626,43.2986955],[-80.5973376,43.2985158],[-80.5973146,43.2983361],[-80.5972948,43.2981565],[-80.5972794,43.2979768],[-80.597269,43.2977972],[-80.5972642,43.2976175],[-80.5972652,43.2974378],[-80.5972719,43.2972582],[-80.597284,43.2970785],[-80.5973009,43.2968989],[-80.5973218,43.2967192],[-80.5973456,43.2965395],[-80.5973595,43.2964413]]},"properties":{"name":"Ironwood Street","roadClass":"local","pavementWidthM":8.0,"lengthM":353.68,"origin":"synthetic"}},{"type":"Feature","id":"R-47","geometry":{"type":"LineString","coordinates":[[-80.5974772,43.2996091],[-80.5974001,43.2996034],[-80.597323,43.299603],[-80.5972458,43.2996027],[-80.5971687,43.2996024],[-80.5970916,43.299602],[-80.5970144,43.2996017],[-80.5969373,43.2996013],[-80.5968601,43.299601],[-80.596783,43.2996006],[-80.5967058,43.2996003],[-80.5966287,43.2995999],[-80.5965515,43.2995994],[-80.5964744,43.2995991],[-80.5963972,43.2995987],[-80.5963872,43.2995986]]},"properties":{"name":"Wheatfield Concession Road","roadClass":"arterial","pavementWidthM":14.0,"lengthM":88.33,"origin":"synthetic"}},{"type":"Feature","id":"R-48","geometry":{"type":"LineString","coordinates":[[-80.5964448,43.3000281],[-80.5964633,43.3001782],[-80.5964982,43.3003579],[-80.5965362,43.3005375],[-80.5965755,43.3007172],[-80.5966147,43.3008969],[-80.596652,43.3010765],[-80.5966861,43.3012562],[-80.5967153,43.3014359],[-80.5967385,43.3016155],[-80.5967549,43.3017952],[-80.5967638,43.3019748],[-80.5967648,43.3021545],[-80.5967577,43.3023342],[-80.596743,43.3025138],[-80.5967211,43.3026935],[-80.5966931,43.3028732],[-80.5966602,43.3030528],[-80.5966235,43.3032325],[-80.5965846,43.3034121],[-80.5965451,43.3035918],[-80.5965067,43.3037715],[-80.5964709,43.3039511],[-80.5964392,43.3041308],[-80.5964129,43.3043105],[-80.5963932,43.3044901],[-80.5963806,43.3046698],[-80.5963759,43.3048494],[-80.5963791,43.3050291],[-80.5963902,43.3052088],[-80.5963933,43.3052381]]},"properties":{"name":"Linden Trail","roadClass":"local","pavementWidthM":8.0,"lengthM":583.68,"origin":"synthetic"}},{"type":"Feature","id":"R-49","geometry":{"type":"LineString","coordinates":[[-80.5964448,43.3000281],[-80.5964327,43.2999986],[-80.5964079,43.2998189],[-80.5963896,43.2996392],[-80.5963872,43.2995986]]},"properties":{"name":"Linden Trail","roadClass":"local","pavementWidthM":8.0,"lengthM":48.11,"origin":"synthetic"}},{"type":"Feature","id":"R-50","geometry":{"type":"LineString","coordinates":[[-80.5964448,43.3000281],[-80.5953331,43.3000281]]},"properties":{"name":"Juniper Trail","roadClass":"local","pavementWidthM":8.0,"lengthM":90.06,"origin":"synthetic"}},{"type":"Feature","id":"R-51","geometry":{"type":"LineString","coordinates":[[-80.5963995,43.2964355],[-80.5963801,43.2965395],[-80.5963571,43.2967192],[-80.5963319,43.2968989],[-80.596306,43.2970785],[-80.5962805,43.2972582],[-80.5962566,43.2974378],[-80.5962357,43.2976175],[-80.5962186,43.2977972],[-80.5962064,43.2979768],[-80.5961996,43.2981565],[-80.5961985,43.2983361],[-80.5962033,43.2985158],[-80.5962136,43.2986955],[-80.5962289,43.2988751],[-80.5962485,43.2990548],[-80.5962715,43.2992345],[-80.5962965,43.2994141],[-80.5963226,43.2995938],[-80.5963239,43.2996038]]},"properties":{"name":"Colborne Crescent","roadClass":"local","pavementWidthM":8.0,"lengthM":353.88,"origin":"synthetic"}},{"type":"Feature","id":"R-52","geometry":{"type":"LineString","coordinates":[[-80.5963872,43.2995986],[-80.5963239,43.2996038]]},"properties":{"name":"Wheatfield Concession Road","roadClass":"arterial","pavementWidthM":14.0,"lengthM":5.16,"origin":"synthetic"}},{"type":"Feature","id":"R-53","geometry":{"type":"LineString","coordinates":[[-80.5963239,43.2996038],[-80.5963201,43.2995984],[-80.5962429,43.2995979],[-80.5961658,43.2995976],[-80.5960887,43.2995971],[-80.5960115,43.2995967],[-80.5959344,43.2995963],[-80.5958572,43.2995958],[-80.5957801,43.2995955],[-80.5957029,43.299595],[-80.5956258,43.2995946],[-80.5955486,43.2995942],[-80.5954715,43.2995938],[-80.5953943,43.2995933],[-80.5953645,43.2995878]]},"properties":{"name":"Wheatfield Concession Road","roadClass":"arterial","pavementWidthM":14.0,"lengthM":78.18,"origin":"synthetic"}},{"type":"Feature","id":"R-54","geometry":{"type":"LineString","coordinates":[[-80.5953645,43.2995878],[-80.5953579,43.2996392],[-80.5953418,43.2998189],[-80.5953332,43.2999986],[-80.5953331,43.3000281]]},"properties":{"name":"Fraser Drive","roadClass":"local","pavementWidthM":8.0,"lengthM":49.1,"origin":"synthetic"}},{"type":"Feature","id":"R-55","geometry":{"type":"LineString","coordinates":[[-80.5953645,43.2995878],[-80.5953172,43.2995929],[-80.5952401,43.2995925],[-80.5951629,43.2995921],[-80.5951634,43.2995975]]},"properties":{"name":"Wheatfield Concession Road","roadClass":"arterial","pavementWidthM":14.0,"lengthM":16.97,"origin":"synthetic"}},{"type":"Feature","id":"R-56","geometry":{"type":"LineString","coordinates":[[-80.5953545,43.3052381],[-80.5953571,43.3052088],[-80.5953798,43.3050291],[-80.5954085,43.3048494],[-80.5954422,43.3046698],[-80.5954794,43.3044901],[-80.5955184,43.3043105],[-80.5955578,43.3041308],[-80.5955959,43.3039511],[-80.5956312,43.3037715],[-80.5956622,43.3035918],[-80.5956876,43.3034121],[-80.5957065,43.3032325],[-80.5957179,43.3030528],[-80.5957216,43.3028732],[-80.5957171,43.3026935],[-80.5957049,43.3025138],[-80.5956854,43.3023342],[-80.5956594,43.3021545],[-80.5956279,43.3019748],[-80.5955923,43.3017952],[-80.5955539,43.3016155],[-80.5955146,43.3014359],[-80.5954756,43.3012562],[-80.5954388,43.3010765],[-80.5954056,43.3008969],[-80.5953773,43.3007172],[-80.5953552,43.3005375],[-80.5953402,43.3003579],[-80.5953328,43.3001782],[-80.5953331,43.3000281]]},"properties":{"name":"Fraser Drive","roadClass":"local","pavementWidthM":8.0,"lengthM":583.86,"origin":"synthetic"}},{"type":"Feature","id":"R-57","geometry":{"type":"LineString","coordinates":[[-80.5951634,43.2995975],[-80.5950858,43.2995916],[-80.5950086,43.2995912],[-80.5949315,43.2995907],[-80.5948543,43.2995903],[-80.5947772,43.2995898],[-80.5947,43.2995895],[-80.5946229,43.299589],[-80.5945457,43.2995886],[-80.5944686,43.2995881],[-80.5944664,43.2995827]]},"properties":{"name":"Wheatfield Concession Road","roadClass":"arterial","pavementWidthM":14.0,"lengthM":56.95,"origin":"synthetic"}},{"type":"Feature","id":"R-58","geometry":{"type":"LineString","coordinates":[[-80.5944664,43.2995827],[-80.5943915,43.2995877],[-80.5943143,43.2995872],[-80.5942372,43.2995868],[-80.59416,43.2995863],[-80.5940829,43.299586],[-80.5940689,43.2995859]]},"properties":{"name":"Wheatfield Concession Road","roadClass":"arterial","pavementWidthM":14.0,"lengthM":32.23,"origin":"synthetic"}},{"type":"Feature","id":"R-59","geometry":{"type":"LineString","coordinates":[[-80.5940689,43.2995859],[-80.5940057,43.2995855],[-80.5939286,43.2995851],[-80.5938514,43.2995846],[-80.5937743,43.2995842],[-80.5936971,43.2995837],[-80.59362,43.2995834],[-80.5935809,43.2995777]]},"properties":{"name":"Wheatfield Concession Road","roadClass":"arterial","pavementWidthM":14.0,"lengthM":39.6,"origin":"synthetic"}},{"type":"Feature","id":"R-60","geometry":{"type":"LineString","coordinates":[[-80.5935809,43.2995777],[-80.5935429,43.2995829],[-80.5934657,43.2995825],[-80.5933886,43.2995821],[-80.5933114,43.2995817],[-80.5932343,43.2995812],[-80.5931571,43.2995808],[-80.59308,43.2995804],[-80.5930028,43.29958],[-80.5929257,43.2995796],[-80.5928485,43.2995792],[-80.59281,43.2995791]]},"properties":{"name":"Wheatfield Concession Road","roadClass":"arterial","pavementWidthM":14.0,"lengthM":62.51,"origin":"synthetic"}}]}