{"type":"FeatureCollection","name":"service_points","crs_note":"EPSG:4326","features":[{"type":"Feature","id":"SVC-P-00001","geometry":{"type":"Point","coordinates":[-80.6048828,43.2998568]},"properties":{"premiseId":"P-00001"}},{"type":"Feature","id":"SVC-P-00002","geometry":{"type":"Point","coordinates":[-80.6046595,43.2998568]},"properties":{"premiseId":"P-00002"}},{"type":"Feature","id":"SVC-P-00003","geometry":{"type":"Point","coordinates":[-80.6047727,43.299374]},"properties":{"premiseId":"P-00003"}},{"type":"Feature","id":"SVC-P-00004","geometry":{"type":"Point","coordinates":[-80.604777,43.2992135]},"properties":{"premiseId":"P-00004"}},{"type":"Feature","id":"SVC-P-00005","geometry":{"type":"Point","coordinates":[-80.6047734,43.2990565]},"properties":{"premiseId":"P-00005"}},{"type":"Feature","id":"SVC-P-00006","geometry":{"type":"Point","coordinates":[-80.6047628,43.298896]},"properties":{"premiseId":"P-00006"}},{"type":"Feature","id":"SVC-P-00007","geometry":{"type":"Point","coordinates":[-80.6047461,43.2987413]},"properties":{"premiseId":"P-00007"}},{"type":"Feature","id":"SVC-P-00008","geometry":{"type":"Point","coordinates":[-80.6047221,43.2985773]},"properties":{"premiseId":"P-00008"}},{"type":"Feature","id":"SVC-P-00009","geometry":{"type":"Point","coordinates":[-80.6046935,43.2984126]},"properties":{"premiseId":"P-00009"}},{"type":"Feature","id":"SVC-P-00010","geometry":{"type":"Point","coordinates":[-80.6046639,43.2982595]},"properties":{"premiseId":"P-00010"}},{"type":"Feature","id":"SVC-P-00011","geometry":{"type":"Point","coordinates":[-80.6046328,43.2981068]},"properties":{"premiseId":"P-00011"}},{"type":"Feature","id":"SVC-P-00012","geometry":{"type":"Point","coordinates":[-80.6045434,43.3014336]},"properties":{"premiseId":"P-00012"}},{"type":"Feature","id":"SVC-P-00013","geometry":{"type":"Point","coordinates":[-80.6045215,43.301274]},"properties":{"premiseId":"P-00013"}},{"type":"Feature","id":"SVC-P-00014","geometry":{"type":"Point","coordinates":[-80.6044982,43.3011221]},"properties":{"premiseId":"P-00014"}},{"type":"Feature","id":"SVC-P-00015","geometry":{"type":"Point","coordinates":[-80.6044747,43.3009796]},"properties":{"premiseId":"P-00015"}},{"type":"Feature","id":"SVC-P-00016","geometry":{"type":"Point","coordinates":[-80.6044502,43.3008354]},"properties":{"premiseId":"P-00016"}},{"type":"Feature","id":"SVC-P-00017","geometry":{"type":"Point","coordinates":[-80.6044244,43.3006819]},"properties":{"premiseId":"P-00017"}},{"type":"Feature","id":"SVC-P-00018","geometry":{"type":"Point","coordinates":[-80.6044001,43.3005303]},"properties":{"premiseId":"P-00018"}},{"type":"Feature","id":"SVC-P-00019","geometry":{"type":"Point","coordinates":[-80.6043791,43.3003871]},"properties":{"premiseId":"P-00019"}},{"type":"Feature","id":"SVC-P-00020","geometry":{"type":"Point","coordinates":[-80.604359,43.30023]},"properties":{"premiseId":"P-00020"}},{"type":"Feature","id":"SVC-P-00021","geometry":{"type":"Point","coordinates":[-80.6043429,43.3000819]},"properties":{"premiseId":"P-00021"}},{"type":"Feature","id":"SVC-P-00022","geometry":{"type":"Point","coordinates":[-80.6043317,43.2999376]},"properties":{"premiseId":"P-00022"}},{"type":"Feature","id":"SVC-P-00023","geometry":{"type":"Point","coordinates":[-80.6046734,43.3008313]},"properties":{"premiseId":"P-00023"}},{"type":"Feature","id":"SVC-P-00024","geometry":{"type":"Point","coordinates":[-80.6046482,43.3006819]},"properties":{"premiseId":"P-00024"}},{"type":"Feature","id":"SVC-P-00025","geometry":{"type":"Point","coordinates":[-80.6046234,43.3005278]},"properties":{"premiseId":"P-00025"}},{"type":"Feature","id":"SVC-P-00026","geometry":{"type":"Point","coordinates":[-80.6046013,43.3003799]},"properties":{"premiseId":"P-00026"}},{"type":"Feature","id":"SVC-P-00027","geometry":{"type":"Point","coordinates":[-80.6045824,43.3002352]},"properties":{"premiseId":"P-00027"}},{"type":"Feature","id":"SVC-P-00028","geometry":{"type":"Point","coordinates":[-80.6037252,43.2993757]},"properties":{"premiseId":"P-00028"}},{"type":"Feature","id":"SVC-P-00029","geometry":{"type":"Point","coordinates":[-80.6037049,43.2992346]},"properties":{"premiseId":"P-00029"}},{"type":"Feature","id":"SVC-P-00030","geometry":{"type":"Point","coordinates":[-80.6036786,43.2990803]},"properties":{"premiseId":"P-00030"}},{"type":"Feature","id":"SVC-P-00031","geometry":{"type":"Point","coordinates":[-80.6036501,43.2989295]},"properties":{"premiseId":"P-00031"}},{"type":"Feature","id":"SVC-P-00032","geometry":{"type":"Point","coordinates":[-80.6036215,43.298787]},"properties":{"premiseId":"P-00032"}},{"type":"Feature","id":"SVC-P-00033","geometry":{"type":"Point","coordinates":[-80.6035917,43.2986414]},"properties":{"premiseId":"P-00033"}},{"type":"Feature","id":"SVC-P-00034","geometry":{"type":"Point","coordinates":[-80.6035624,43.2984925]},"properties":{"premiseId":"P-00034"}},{"type":"Feature","id":"SVC-P-00035","geometry":{"type":"Point","coordinates":[-80.6035348,43.2983393]},"properties":{"premiseId":"P-00035"}},{"type":"Feature","id":"SVC-P-00036","geometry":{"type":"Point","coordinates":[-80.603511,43.298186]},"properties":{"premiseId":"P-00036"}},{"type":"Feature","id":"SVC-P-00037","geometry":{"type":"Point","coordinates":[-80.6039449,43.2993489]},"properties":{"premiseId":"P-00037"}},{"type":"Feature","id":"SVC-P-00038","geometry":{"type":"Point","coordinates":[-80.603922,43.2991924]},"properties":{"premiseId":"P-00038"}},{"type":"Feature","id":"SVC-P-00039","geometry":{"type":"Point","coordinates":[-80.6038945,43.2990345]},"properties":{"premiseId":"P-00039"}},{"type":"Feature","id":"SVC-P-00040","geometry":{"type":"Point","coordinates":[-80.603864,43.2988765]},"properties":{"premiseId":"P-00040"}},{"type":"Feature","id":"SVC-P-00041","geometry":{"type":"Point","coordinates":[-80.6038321,43.2987184]},"properties":{"premiseId":"P-00041"}},{"type":"Feature","id":"SVC-P-00042","geometry":{"type":"Point","coordinates":[-80.6037996,43.2985574]},"properties":{"premiseId":"P-00042"}},{"type":"Feature","id":"SVC-P-00043","geometry":{"type":"Point","coordinates":[-80.6037685,43.2983938]},"properties":{"premiseId":"P-00043"}},{"type":"Feature","id":"SVC-P-00044","geometry":{"type":"Point","coordinates":[-80.6037409,43.2982299]},"properties":{"premiseId":"P-00044"}},{"type":"Feature","id":"SVC-P-00045","geometry":{"type":"Point","coordinates":[-80.6037189,43.2980744]},"properties":{"premiseId":"P-00045"}},{"type":"Feature","id":"SVC-P-00046","geometry":{"type":"Point","coordinates":[-80.6037032,43.2979169]},"properties":{"premiseId":"P-00046"}},{"type":"Feature","id":"SVC-P-00047","geometry":{"type":"Point","coordinates":[-80.6036939,43.2975794]},"properties":{"premiseId":"P-00047"}},{"type":"Feature","id":"SVC-P-00048","geometry":{"type":"Point","coordinates":[-80.6034778,43.2974269]},"properties":{"premiseId":"P-00048"}},{"type":"Feature","id":"SVC-P-00049","geometry":{"type":"Point","coordinates":[-80.6028455,43.2978291]},"properties":{"premiseId":"P-00049"}},{"type":"Feature","id":"SVC-P-00050","geometry":{"type":"Point","coordinates":[-80.6033471,43.2976674]},"properties":{"premiseId":"P-00050"}},{"type":"Feature","id":"SVC-P-00051","geometry":{"type":"Point","coordinates":[-80.6030823,43.2976674]},"properties":{"premiseId":"P-00051"}},{"type":"Feature","id":"SVC-P-00052","geometry":{"type":"Point","coordinates":[-80.6028283,43.2976674]},"properties":{"premiseId":"P-00052"}},{"type":"Feature","id":"SVC-P-00053","geometry":{"type":"Point","coordinates":[-80.6035312,43.299958]},"properties":{"premiseId":"P-00053"}},{"type":"Feature","id":"SVC-P-00054","geometry":{"type":"Point","coordinates":[-80.6035211,43.3001139]},"properties":{"premiseId":"P-00054"}},{"type":"Feature","id":"SVC-P-00055","geometry":{"type":"Point","coordinates":[-80.6035162,43.3002686]},"properties":{"premiseId":"P-00055"}},{"type":"Feature","id":"SVC-P-00056","geometry":{"type":"Point","coordinates":[-80.6035168,43.3004177]},"properties":{"premiseId":"P-00056"}},{"type":"Feature","id":"SVC-P-00057","geometry":{"type":"Point","coordinates":[-80.6035218,43.300559]},"properties":{"premiseId":"P-00057"}},{"type":"Feature","id":"SVC-P-00058","geometry":{"type":"Point","coordinates":[-80.6035309,43.3006995]},"properties":{"premiseId":"P-00058"}},{"type":"Feature","id":"SVC-P-00059","geometry":{"type":"Point","coordinates":[-80.6035451,43.300854]},"properties":{"premiseId":"P-00059"}},{"type":"Feature","id":"SVC-P-00060","geometry":{"type":"Point","coordinates":[-80.6035629,43.3010067]},"properties":{"premiseId":"P-00060"}},{"type":"Feature","id":"SVC-P-00061","geometry":{"type":"Point","coordinates":[-80.6035843,43.3011589]},"properties":{"premiseId":"P-00061"}},{"type":"Feature","id":"SVC-P-00062","geometry":{"type":"Point","coordinates":[-80.6036078,43.3013087]},"properties":{"premiseId":"P-00062"}},{"type":"Feature","id":"SVC-P-00063","geometry":{"type":"Point","coordinates":[-80.6036322,43.3014553]},"properties":{"premiseId":"P-00063"}},{"type":"Feature","id":"SVC-P-00064","geometry":{"type":"Point","coordinates":[-80.6036578,43.3016064]},"properties":{"premiseId":"P-00064"}},{"type":"Feature","id":"SVC-P-00065","geometry":{"type":"Point","coordinates":[-80.6036817,43.301749]},"properties":{"premiseId":"P-00065"}},{"type":"Feature","id":"SVC-P-00066","geometry":{"type":"Point","coordinates":[-80.6037057,43.3018989]},"properties":{"premiseId":"P-00066"}},{"type":"Feature","id":"SVC-P-00067","geometry":{"type":"Point","coordinates":[-80.6033086,43.299959]},"properties":{"premiseId":"P-00067"}},{"type":"Feature","id":"SVC-P-00068","geometry":{"type":"Point","coordinates":[-80.6032989,43.3001096]},"properties":{"premiseId":"P-00068"}},{"type":"Feature","id":"SVC-P-00069","geometry":{"type":"Point","coordinates":[-80.6032943,43.3002501]},"properties":{"premiseId":"P-00069"}},{"type":"Feature","id":"SVC-P-00070","geometry":{"type":"Point","coordinates":[-80.6032945,43.3003897]},"properties":{"premiseId":"P-00070"}},{"type":"Feature","id":"SVC-P-00071","geometry":{"type":"Point","coordinates":[-80.6032991,43.3005445]},"properties":{"premiseId":"P-00071"}},{"type":"Feature","id":"SVC-P-00072","geometry":{"type":"Point","coordinates":[-80.6033078,43.3006941]},"properties":{"premiseId":"P-00072"}},{"type":"Feature","id":"SVC-P-00073","geometry":{"type":"Point","coordinates":[-80.6033214,43.3008465]},"properties":{"premiseId":"P-00073"}},{"type":"Feature","id":"SVC-P-00074","geometry":{"type":"Point","coordinates":[-80.6033393,43.3010037]},"properties":{"premiseId":"P-00074"}},{"type":"Feature","id":"SVC-P-00075","geometry":{"type":"Point","coordinates":[-80.6033592,43.3011475]},"properties":{"premiseId":"P-00075"}},{"type":"Feature","id":"SVC-P-00076","geometry":{"type":"Point","coordinates":[-80.6033827,43.3012988]},"properties":{"premiseId":"P-00076"}},{"type":"Feature","id":"SVC-P-00077","geometry":{"type":"Point","coordinates":[-80.6034074,43.3014498]},"properties":{"premiseId":"P-00077"}},{"type":"Feature","id":"SVC-P-00078","geometry":{"type":"Point","coordinates":[-80.6034323,43.3015968]},"properties":{"premiseId":"P-00078"}},{"type":"Feature","id":"SVC-P-00079","geometry":{"type":"Point","coordinates":[-80.6034581,43.3017503]},"properties":{"premiseId":"P-00079"}},{"type":"Feature","id":"SVC-P-00080","geometry":{"type":"Point","coordinates":[-80.6034812,43.3018924]},"properties":{"premiseId":"P-00080"}},{"type":"Feature","id":"SVC-P-00081","geometry":{"type":"Point","coordinates":[-80.6035017,43.302031]},"properties":{"premiseId":"P-00081"}},{"type":"Feature","id":"SVC-P-00082","geometry":{"type":"Point","coordinates":[-80.6035218,43.302187]},"properties":{"premiseId":"P-00082"}},{"type":"Feature","id":"SVC-P-00083","geometry":{"type":"Point","coordinates":[-80.6035386,43.3023451]},"properties":{"premiseId":"P-00083"}},{"type":"Feature","id":"SVC-P-00084","geometry":{"type":"Point","coordinates":[-80.6035499,43.3024848]},"properties":{"premiseId":"P-00084"}},{"type":"Feature","id":"SVC-P-00085","geometry":{"type":"Point","coordinates":[-80.6035573,43.302636]},"properties":{"premiseId":"P-00085"}},{"type":"Feature","id":"SVC-P-00086","geometry":{"type":"Point","coordinates":[-80.6035602,43.3027861]},"properties":{"premiseId":"P-00086"}},{"type":"Feature","id":"SVC-P-00087","geometry":{"type":"Point","coordinates":[-80.6025776,43.2993081]},"properties":{"premiseId":"P-00087"}},{"type":"Feature","id":"SVC-P-00088","geometry":{"type":"Point","coordinates":[-80.6025441,43.2991388]},"properties":{"premiseId":"P-00088"}},{"type":"Feature","id":"SVC-P-00089","geometry":{"type":"Point","coordinates":[-80.6025107,43.2989542]},"properties":{"premiseId":"P-00089"}},{"type":"Feature","id":"SVC-P-00090","geometry":{"type":"Point","coordinates":[-80.6024834,43.2987747]},"properties":{"premiseId":"P-00090"}},{"type":"Feature","id":"SVC-P-00091","geometry":{"type":"Point","coordinates":[-80.6024634,43.2985948]},"properties":{"premiseId":"P-00091"}},{"type":"Feature","id":"SVC-P-00092","geometry":{"type":"Point","coordinates":[-80.6024512,43.2984149]},"properties":{"premiseId":"P-00092"}},{"type":"Feature","id":"SVC-P-00093","geometry":{"type":"Point","coordinates":[-80.6024483,43.2982421]},"properties":{"premiseId":"P-00093"}},{"type":"Feature","id":"SVC-P-00094","geometry":{"type":"Point","coordinates":[-80.6028344,43.2994665]},"properties":{"premiseId":"P-00094"}},{"type":"Feature","id":"SVC-P-00095","geometry":{"type":"Point","coordinates":[-80.6028001,43.2992978]},"properties":{"premiseId":"P-00095"}},{"type":"Feature","id":"SVC-P-00096","geometry":{"type":"Point","coordinates":[-80.6027671,43.2991323]},"properties":{"premiseId":"P-00096"}},{"type":"Feature","id":"SVC-P-00097","geometry":{"type":"Point","coordinates":[-80.6027338,43.29895]},"properties":{"premiseId":"P-00097"}},{"type":"Feature","id":"SVC-P-00098","geometry":{"type":"Point","coordinates":[-80.6027066,43.2987768]},"properties":{"premiseId":"P-00098"}},{"type":"Feature","id":"SVC-P-00099","geometry":{"type":"Point","coordinates":[-80.6026867,43.298605]},"properties":{"premiseId":"P-00099"}},{"type":"Feature","id":"SVC-P-00100","geometry":{"type":"Point","coordinates":[-80.6026738,43.2984288]},"properties":{"premiseId":"P-00100"}},{"type":"Feature","id":"SVC-P-00101","geometry":{"type":"Point","coordinates":[-80.6026704,43.2982532]},"properties":{"premiseId":"P-00101"}},{"type":"Feature","id":"SVC-P-00102","geometry":{"type":"Point","coordinates":[-80.6028227,43.297134]},"properties":{"premiseId":"P-00102"}},{"type":"Feature","id":"SVC-P-00103","geometry":{"type":"Point","coordinates":[-80.6027916,43.2972875]},"properties":{"premiseId":"P-00103"}},{"type":"Feature","id":"SVC-P-00104","geometry":{"type":"Point","coordinates":[-80.6025991,43.2971295]},"properties":{"premiseId":"P-00104"}},{"type":"Feature","id":"SVC-P-00105","geometry":{"type":"Point","coordinates":[-80.6025685,43.2972801]},"properties":{"premiseId":"P-00105"}},{"type":"Feature","id":"SVC-P-00106","geometry":{"type":"Point","coordinates":[-80.6025392,43.297429]},"properties":{"premiseId":"P-00106"}},{"type":"Feature","id":"SVC-P-00107","geometry":{"type":"Point","coordinates":[-80.6025117,43.2975807]},"properties":{"premiseId":"P-00107"}},{"type":"Feature","id":"SVC-P-00108","geometry":{"type":"Point","coordinates":[-80.6023536,43.2979722]},"properties":{"premiseId":"P-00108"}},{"type":"Feature","id":"SVC-P-00109","geometry":{"type":"Point","coordinates":[-80.6021259,43.2979722]},"properties":{"premiseId":"P-00109"}},{"type":"Feature","id":"SVC-P-00110","geometry":{"type":"Point","coordinates":[-80.6018955,43.2979722]},"properties":{"premiseId":"P-00110"}},{"type":"Feature","id":"SVC-P-00111","geometry":{"type":"Point","coordinates":[-80.6023657,43.2978105]},"properties":{"premiseId":"P-00111"}},{"type":"Feature","id":"SVC-P-00112","geometry":{"type":"Point","coordinates":[-80.6021308,43.2978105]},"properties":{"premiseId":"P-00112"}},{"type":"Feature","id":"SVC-P-00113","geometry":{"type":"Point","coordinates":[-80.6018884,43.2978105]},"properties":{"premiseId":"P-00113"}},{"type":"Feature","id":"SVC-P-00114","geometry":{"type":"Point","coordinates":[-80.6025991,43.2999433]},"properties":{"premiseId":"P-00114"}},{"type":"Feature","id":"SVC-P-00115","geometry":{"type":"Point","coordinates":[-80.6025745,43.300093]},"properties":{"premiseId":"P-00115"}},{"type":"Feature","id":"SVC-P-00116","geometry":{"type":"Point","coordinates":[-80.6025514,43.3002446]},"properties":{"premiseId":"P-00116"}},{"type":"Feature","id":"SVC-P-00117","geometry":{"type":"Point","coordinates":[-80.6025308,43.3003966]},"properties":{"premiseId":"P-00117"}},{"type":"Feature","id":"SVC-P-00118","geometry":{"type":"Point","coordinates":[-80.6025145,43.3005414]},"properties":{"premiseId":"P-00118"}},{"type":"Feature","id":"SVC-P-00119","geometry":{"type":"Point","coordinates":[-80.6025015,43.3006888]},"properties":{"premiseId":"P-00119"}},{"type":"Feature","id":"SVC-P-00120","geometry":{"type":"Point","coordinates":[-80.6024925,43.300839]},"properties":{"premiseId":"P-00120"}},{"type":"Feature","id":"SVC-P-00121","geometry":{"type":"Point","coordinates":[-80.6024883,43.3009869]},"properties":{"premiseId":"P-00121"}},{"type":"Feature","id":"SVC-P-00122","geometry":{"type":"Point","coordinates":[-80.6024897,43.3011407]},"properties":{"premiseId":"P-00122"}},{"type":"Feature","id":"SVC-P-00123","geometry":{"type":"Point","coordinates":[-80.6024955,43.3012902]},"properties":{"premiseId":"P-00123"}},{"type":"Feature","id":"SVC-P-00124","geometry":{"type":"Point","coordinates":[-80.6025062,43.301438]},"properties":{"premiseId":"P-00124"}},{"type":"Feature","id":"SVC-P-00125","geometry":{"type":"Point","coordinates":[-80.602522,43.3015988]},"properties":{"premiseId":"P-00125"}},{"type":"Feature","id":"SVC-P-00126","geometry":{"type":"Point","coordinates":[-80.6025405,43.3017487]},"properties":{"premiseId":"P-00126"}},{"type":"Feature","id":"SVC-P-00127","geometry":{"type":"Point","coordinates":[-80.6025614,43.3018947]},"properties":{"premiseId":"P-00127"}},{"type":"Feature","id":"SVC-P-00128","geometry":{"type":"Point","coordinates":[-80.6025853,43.3020447]},"properties":{"premiseId":"P-00128"}},{"type":"Feature","id":"SVC-P-00129","geometry":{"type":"Point","coordinates":[-80.6026111,43.3021978]},"properties":{"premiseId":"P-00129"}},{"type":"Feature","id":"SVC-P-00130","geometry":{"type":"Point","coordinates":[-80.6026365,43.3023478]},"properties":{"premiseId":"P-00130"}},{"type":"Feature","id":"SVC-P-00131","geometry":{"type":"Point","coordinates":[-80.6026598,43.3024885]},"properties":{"premiseId":"P-00131"}},{"type":"Feature","id":"SVC-P-00132","geometry":{"type":"Point","coordinates":[-80.6026834,43.3026392]},"properties":{"premiseId":"P-00132"}},{"type":"Feature","id":"SVC-P-00133","geometry":{"type":"Point","coordinates":[-80.6027054,43.3027929]},"properties":{"premiseId":"P-00133"}},{"type":"Feature","id":"SVC-P-00134","geometry":{"type":"Point","coordinates":[-80.6027232,43.3029405]},"properties":{"premiseId":"P-00134"}},{"type":"Feature","id":"SVC-P-00135","geometry":{"type":"Point","coordinates":[-80.6027374,43.3030911]},"properties":{"premiseId":"P-00135"}},{"type":"Feature","id":"SVC-P-00136","geometry":{"type":"Point","coordinates":[-80.6023723,43.2999621]},"properties":{"premiseId":"P-00136"}},{"type":"Feature","id":"SVC-P-00137","geometry":{"type":"Point","coordinates":[-80.6023459,43.3001251]},"properties":{"premiseId":"P-00137"}},{"type":"Feature","id":"SVC-P-00138","geometry":{"type":"Point","coordinates":[-80.602321,43.3002952]},"properties":{"premiseId":"P-00138"}},{"type":"Feature","id":"SVC-P-00139","geometry":{"type":"Point","coordinates":[-80.6022992,43.3004691]},"properties":{"premiseId":"P-00139"}},{"type":"Feature","id":"SVC-P-00140","geometry":{"type":"Point","coordinates":[-80.6022827,43.3006363]},"properties":{"premiseId":"P-00140"}},{"type":"Feature","id":"SVC-P-00141","geometry":{"type":"Point","coordinates":[-80.6022713,43.3008131]},"properties":{"premiseId":"P-00141"}},{"type":"Feature","id":"SVC-P-00142","geometry":{"type":"Point","coordinates":[-80.6022662,43.3009804]},"properties":{"premiseId":"P-00142"}},{"type":"Feature","id":"SVC-P-00143","geometry":{"type":"Point","coordinates":[-80.6022678,43.3011482]},"properties":{"premiseId":"P-00143"}},{"type":"Feature","id":"SVC-P-00144","geometry":{"type":"Point","coordinates":[-80.6022753,43.3013274]},"properties":{"premiseId":"P-00144"}},{"type":"Feature","id":"SVC-P-00145","geometry":{"type":"Point","coordinates":[-80.6022883,43.3014938]},"properties":{"premiseId":"P-00145"}},{"type":"Feature","id":"SVC-P-00146","geometry":{"type":"Point","coordinates":[-80.6023066,43.3016628]},"properties":{"premiseId":"P-00146"}},{"type":"Feature","id":"SVC-P-00147","geometry":{"type":"Point","coordinates":[-80.6023295,43.3018352]},"properties":{"premiseId":"P-00147"}},{"type":"Feature","id":"SVC-P-00148","geometry":{"type":"Point","coordinates":[-80.6023555,43.3020056]},"properties":{"premiseId":"P-00148"}},{"type":"Feature","id":"SVC-P-00149","geometry":{"type":"Point","coordinates":[-80.6023841,43.3021795]},"properties":{"premiseId":"P-00149"}},{"type":"Feature","id":"SVC-P-00150","geometry":{"type":"Point","coordinates":[-80.6024121,43.3023446]},"properties":{"premiseId":"P-00150"}},{"type":"Feature","id":"SVC-P-00151","geometry":{"type":"Point","coordinates":[-80.6024396,43.3025108]},"properties":{"premiseId":"P-00151"}},{"type":"Feature","id":"SVC-P-00152","geometry":{"type":"Point","coordinates":[-80.6024664,43.3026839]},"properties":{"premiseId":"P-00152"}},{"type":"Feature","id":"SVC-P-00153","geometry":{"type":"Point","coordinates":[-80.6024889,43.3028474]},"properties":{"premiseId":"P-00153"}},{"type":"Feature","id":"SVC-P-00154","geometry":{"type":"Point","coordinates":[-80.6025077,43.3030161]},"properties":{"premiseId":"P-00154"}},{"type":"Feature","id":"SVC-P-00155","geometry":{"type":"Point","coordinates":[-80.6017051,43.2982522]},"properties":{"premiseId":"P-00155"}},{"type":"Feature","id":"SVC-P-00156","geometry":{"type":"Point","coordinates":[-80.6016802,43.2984192]},"properties":{"premiseId":"P-00156"}},{"type":"Feature","id":"SVC-P-00157","geometry":{"type":"Point","coordinates":[-80.6016624,43.2985805]},"properties":{"premiseId":"P-00157"}},{"type":"Feature","id":"SVC-P-00158","geometry":{"type":"Point","coordinates":[-80.6016511,43.2987525]},"properties":{"premiseId":"P-00158"}},{"type":"Feature","id":"SVC-P-00159","geometry":{"type":"Point","coordinates":[-80.6016483,43.2989333]},"properties":{"premiseId":"P-00159"}},{"type":"Feature","id":"SVC-P-00160","geometry":{"type":"Point","coordinates":[-80.6016551,43.2991148]},"properties":{"premiseId":"P-00160"}},{"type":"Feature","id":"SVC-P-00161","geometry":{"type":"Point","coordinates":[-80.60167,43.2992869]},"properties":{"premiseId":"P-00161"}},{"type":"Feature","id":"SVC-P-00162","geometry":{"type":"Point","coordinates":[-80.6016916,43.2994527]},"properties":{"premiseId":"P-00162"}},{"type":"Feature","id":"SVC-P-00163","geometry":{"type":"Point","coordinates":[-80.6015171,43.2980502]},"properties":{"premiseId":"P-00163"}},{"type":"Feature","id":"SVC-P-00164","geometry":{"type":"Point","coordinates":[-80.6014861,43.2982226]},"properties":{"premiseId":"P-00164"}},{"type":"Feature","id":"SVC-P-00165","geometry":{"type":"Point","coordinates":[-80.6014598,43.2984006]},"properties":{"premiseId":"P-00165"}},{"type":"Feature","id":"SVC-P-00166","geometry":{"type":"Point","coordinates":[-80.6014401,43.2985752]},"properties":{"premiseId":"P-00166"}},{"type":"Feature","id":"SVC-P-00167","geometry":{"type":"Point","coordinates":[-80.6014476,43.2992915]},"properties":{"premiseId":"P-00167"}},{"type":"Feature","id":"SVC-P-00168","geometry":{"type":"Point","coordinates":[-80.6015821,43.2977263]},"properties":{"premiseId":"P-00168"}},{"type":"Feature","id":"SVC-P-00169","geometry":{"type":"Point","coordinates":[-80.601613,43.2975712]},"properties":{"premiseId":"P-00169"}},{"type":"Feature","id":"SVC-P-00170","geometry":{"type":"Point","coordinates":[-80.6016407,43.2974216]},"properties":{"premiseId":"P-00170"}},{"type":"Feature","id":"SVC-P-00171","geometry":{"type":"Point","coordinates":[-80.6016644,43.2972739]},"properties":{"premiseId":"P-00171"}},{"type":"Feature","id":"SVC-P-00172","geometry":{"type":"Point","coordinates":[-80.6016847,43.2971209]},"properties":{"premiseId":"P-00172"}},{"type":"Feature","id":"SVC-P-00173","geometry":{"type":"Point","coordinates":[-80.6018595,43.2974504]},"properties":{"premiseId":"P-00173"}},{"type":"Feature","id":"SVC-P-00174","geometry":{"type":"Point","coordinates":[-80.6018851,43.2972929]},"properties":{"premiseId":"P-00174"}},{"type":"Feature","id":"SVC-P-00175","geometry":{"type":"Point","coordinates":[-80.6019059,43.2971348]},"properties":{"premiseId":"P-00175"}},{"type":"Feature","id":"SVC-P-00176","geometry":{"type":"Point","coordinates":[-80.601921,43.2969791]},"properties":{"premiseId":"P-00176"}},{"type":"Feature","id":"SVC-P-00177","geometry":{"type":"Point","coordinates":[-80.6016794,43.2999658]},"properties":{"premiseId":"P-00177"}},{"type":"Feature","id":"SVC-P-00178","geometry":{"type":"Point","coordinates":[-80.6016556,43.3001353]},"properties":{"premiseId":"P-00178"}},{"type":"Feature","id":"SVC-P-00179","geometry":{"type":"Point","coordinates":[-80.6016292,43.3003043]},"properties":{"premiseId":"P-00179"}},{"type":"Feature","id":"SVC-P-00180","geometry":{"type":"Point","coordinates":[-80.6016023,43.3004646]},"properties":{"premiseId":"P-00180"}},{"type":"Feature","id":"SVC-P-00181","geometry":{"type":"Point","coordinates":[-80.6015728,43.3006391]},"properties":{"premiseId":"P-00181"}},{"type":"Feature","id":"SVC-P-00182","geometry":{"type":"Point","coordinates":[-80.6015447,43.3008098]},"properties":{"premiseId":"P-00182"}},{"type":"Feature","id":"SVC-P-00183","geometry":{"type":"Point","coordinates":[-80.6015193,43.3009794]},"properties":{"premiseId":"P-00183"}},{"type":"Feature","id":"SVC-P-00184","geometry":{"type":"Point","coordinates":[-80.6014969,43.3011515]},"properties":{"premiseId":"P-00184"}},{"type":"Feature","id":"SVC-P-00185","geometry":{"type":"Point","coordinates":[-80.6014799,43.3013179]},"properties":{"premiseId":"P-00185"}},{"type":"Feature","id":"SVC-P-00186","geometry":{"type":"Point","coordinates":[-80.6014679,43.3014855]},"properties":{"premiseId":"P-00186"}},{"type":"Feature","id":"SVC-P-00187","geometry":{"type":"Point","coordinates":[-80.6014619,43.3016504]},"properties":{"premiseId":"P-00187"}},{"type":"Feature","id":"SVC-P-00188","geometry":{"type":"Point","coordinates":[-80.6014617,43.3018163]},"properties":{"premiseId":"P-00188"}},{"type":"Feature","id":"SVC-P-00189","geometry":{"type":"Point","coordinates":[-80.601468,43.3019879]},"properties":{"premiseId":"P-00189"}},{"type":"Feature","id":"SVC-P-00190","geometry":{"type":"Point","coordinates":[-80.6014794,43.3021535]},"properties":{"premiseId":"P-00190"}},{"type":"Feature","id":"SVC-P-00191","geometry":{"type":"Point","coordinates":[-80.6014966,43.3023212]},"properties":{"premiseId":"P-00191"}},{"type":"Feature","id":"SVC-P-00192","geometry":{"type":"Point","coordinates":[-80.6015176,43.3024868]},"properties":{"premiseId":"P-00192"}},{"type":"Feature","id":"SVC-P-00193","geometry":{"type":"Point","coordinates":[-80.6015424,43.3026525]},"properties":{"premiseId":"P-00193"}},{"type":"Feature","id":"SVC-P-00194","geometry":{"type":"Point","coordinates":[-80.6015693,43.3028187]},"properties":{"premiseId":"P-00194"}},{"type":"Feature","id":"SVC-P-00195","geometry":{"type":"Point","coordinates":[-80.6015958,43.3029753]},"properties":{"premiseId":"P-00195"}},{"type":"Feature","id":"SVC-P-00196","geometry":{"type":"Point","coordinates":[-80.601625,43.303149]},"properties":{"premiseId":"P-00196"}},{"type":"Feature","id":"SVC-P-00197","geometry":{"type":"Point","coordinates":[-80.6014592,43.2999428]},"properties":{"premiseId":"P-00197"}},{"type":"Feature","id":"SVC-P-00198","geometry":{"type":"Point","coordinates":[-80.6014357,43.300112]},"properties":{"premiseId":"P-00198"}},{"type":"Feature","id":"SVC-P-00199","geometry":{"type":"Point","coordinates":[-80.6014102,43.3002754]},"properties":{"premiseId":"P-00199"}},{"type":"Feature","id":"SVC-P-00200","geometry":{"type":"Point","coordinates":[-80.6013819,43.3004445]},"properties":{"premiseId":"P-00200"}},{"type":"Feature","id":"SVC-P-00201","geometry":{"type":"Point","coordinates":[-80.6013519,43.3006211]},"properties":{"premiseId":"P-00201"}},{"type":"Feature","id":"SVC-P-00202","geometry":{"type":"Point","coordinates":[-80.601324,43.3007913]},"properties":{"premiseId":"P-00202"}},{"type":"Feature","id":"SVC-P-00203","geometry":{"type":"Point","coordinates":[-80.6012997,43.3009527]},"properties":{"premiseId":"P-00203"}},{"type":"Feature","id":"SVC-P-00204","geometry":{"type":"Point","coordinates":[-80.601279,43.3011096]},"properties":{"premiseId":"P-00204"}},{"type":"Feature","id":"SVC-P-00205","geometry":{"type":"Point","coordinates":[-80.6012617,43.3012712]},"properties":{"premiseId":"P-00205"}},{"type":"Feature","id":"SVC-P-00206","geometry":{"type":"Point","coordinates":[-80.6012481,43.3014477]},"properties":{"premiseId":"P-00206"}},{"type":"Feature","id":"SVC-P-00207","geometry":{"type":"Point","coordinates":[-80.6012403,43.3016284]},"properties":{"premiseId":"P-00207"}},{"type":"Feature","id":"SVC-P-00208","geometry":{"type":"Point","coordinates":[-80.6012392,43.3017968]},"properties":{"premiseId":"P-00208"}},{"type":"Feature","id":"SVC-P-00209","geometry":{"type":"Point","coordinates":[-80.601244,43.3019591]},"properties":{"premiseId":"P-00209"}},{"type":"Feature","id":"SVC-P-00210","geometry":{"type":"Point","coordinates":[-80.6012547,43.3021277]},"properties":{"premiseId":"P-00210"}},{"type":"Feature","id":"SVC-P-00211","geometry":{"type":"Point","coordinates":[-80.6012698,43.3022908]},"properties":{"premiseId":"P-00211"}},{"type":"Feature","id":"SVC-P-00212","geometry":{"type":"Point","coordinates":[-80.6012907,43.3024603]},"properties":{"premiseId":"P-00212"}},{"type":"Feature","id":"SVC-P-00213","geometry":{"type":"Point","coordinates":[-80.6013158,43.3026346]},"properties":{"premiseId":"P-00213"}},{"type":"Feature","id":"SVC-P-00214","geometry":{"type":"Point","coordinates":[-80.6013423,43.3027999]},"properties":{"premiseId":"P-00214"}},{"type":"Feature","id":"SVC-P-00215","geometry":{"type":"Point","coordinates":[-80.6000018,43.2999011]},"properties":{"premiseId":"P-00215"}},{"type":"Feature","id":"SVC-P-00216","geometry":{"type":"Point","coordinates":[-80.5999912,43.3000518]},"properties":{"premiseId":"P-00216"}},{"type":"Feature","id":"SVC-P-00217","geometry":{"type":"Point","coordinates":[-80.5999768,43.3001948]},"properties":{"premiseId":"P-00217"}},{"type":"Feature","id":"SVC-P-00218","geometry":{"type":"Point","coordinates":[-80.5999596,43.3003298]},"properties":{"premiseId":"P-00218"}},{"type":"Feature","id":"SVC-P-00219","geometry":{"type":"Point","coordinates":[-80.5999377,43.3004725]},"properties":{"premiseId":"P-00219"}},{"type":"Feature","id":"SVC-P-00220","geometry":{"type":"Point","coordinates":[-80.599912,43.3006173]},"properties":{"premiseId":"P-00220"}},{"type":"Feature","id":"SVC-P-00221","geometry":{"type":"Point","coordinates":[-80.5996899,43.300606]},"properties":{"premiseId":"P-00221"}},{"type":"Feature","id":"SVC-P-00222","geometry":{"type":"Point","coordinates":[-80.5994621,43.3032235]},"properties":{"premiseId":"P-00222"}},{"type":"Feature","id":"SVC-P-00223","geometry":{"type":"Point","coordinates":[-80.599438,43.3030616]},"properties":{"premiseId":"P-00223"}},{"type":"Feature","id":"SVC-P-00224","geometry":{"type":"Point","coordinates":[-80.5994201,43.3029077]},"properties":{"premiseId":"P-00224"}},{"type":"Feature","id":"SVC-P-00225","geometry":{"type":"Point","coordinates":[-80.5994063,43.30274]},"properties":{"premiseId":"P-00225"}},{"type":"Feature","id":"SVC-P-00226","geometry":{"type":"Point","coordinates":[-80.5993989,43.3025627]},"properties":{"premiseId":"P-00226"}},{"type":"Feature","id":"SVC-P-00227","geometry":{"type":"Point","coordinates":[-80.5993986,43.3023881]},"properties":{"premiseId":"P-00227"}},{"type":"Feature","id":"SVC-P-00228","geometry":{"type":"Point","coordinates":[-80.5994045,43.3022305]},"properties":{"premiseId":"P-00228"}},{"type":"Feature","id":"SVC-P-00229","geometry":{"type":"Point","coordinates":[-80.5994173,43.302068]},"properties":{"premiseId":"P-00229"}},{"type":"Feature","id":"SVC-P-00230","geometry":{"type":"Point","coordinates":[-80.5994373,43.301894]},"properties":{"premiseId":"P-00230"}},{"type":"Feature","id":"SVC-P-00231","geometry":{"type":"Point","coordinates":[-80.5994609,43.3017336]},"properties":{"premiseId":"P-00231"}},{"type":"Feature","id":"SVC-P-00232","geometry":{"type":"Point","coordinates":[-80.5994896,43.3015697]},"properties":{"premiseId":"P-00232"}},{"type":"Feature","id":"SVC-P-00233","geometry":{"type":"Point","coordinates":[-80.5995213,43.3014061]},"properties":{"premiseId":"P-00233"}},{"type":"Feature","id":"SVC-P-00234","geometry":{"type":"Point","coordinates":[-80.5995561,43.3012406]},"properties":{"premiseId":"P-00234"}},{"type":"Feature","id":"SVC-P-00235","geometry":{"type":"Point","coordinates":[-80.5995934,43.3010679]},"properties":{"premiseId":"P-00235"}},{"type":"Feature","id":"SVC-P-00236","geometry":{"type":"Point","coordinates":[-80.5996512,43.3029842]},"properties":{"premiseId":"P-00236"}},{"type":"Feature","id":"SVC-P-00237","geometry":{"type":"Point","coordinates":[-80.5996332,43.302804]},"properties":{"premiseId":"P-00237"}},{"type":"Feature","id":"SVC-P-00238","geometry":{"type":"Point","coordinates":[-80.5996228,43.3026339]},"properties":{"premiseId":"P-00238"}},{"type":"Feature","id":"SVC-P-00239","geometry":{"type":"Point","coordinates":[-80.5996201,43.3024671]},"properties":{"premiseId":"P-00239"}},{"type":"Feature","id":"SVC-P-00240","geometry":{"type":"Point","coordinates":[-80.599624,43.3022954]},"properties":{"premiseId":"P-00240"}},{"type":"Feature","id":"SVC-P-00241","geometry":{"type":"Point","coordinates":[-80.5996352,43.3021271]},"properties":{"premiseId":"P-00241"}},{"type":"Feature","id":"SVC-P-00242","geometry":{"type":"Point","coordinates":[-80.599653,43.3019563]},"properties":{"premiseId":"P-00242"}},{"type":"Feature","id":"SVC-P-00243","geometry":{"type":"Point","coordinates":[-80.5996776,43.3017805]},"properties":{"premiseId":"P-00243"}},{"type":"Feature","id":"SVC-P-00244","geometry":{"type":"Point","coordinates":[-80.5997059,43.3016121]},"properties":{"premiseId":"P-00244"}},{"type":"Feature","id":"SVC-P-00245","geometry":{"type":"Point","coordinates":[-80.5997374,43.301449]},"properties":{"premiseId":"P-00245"}},{"type":"Feature","id":"SVC-P-00246","geometry":{"type":"Point","coordinates":[-80.5997741,43.3012724]},"properties":{"premiseId":"P-00246"}},{"type":"Feature","id":"SVC-P-00247","geometry":{"type":"Point","coordinates":[-80.5998111,43.3011011]},"properties":{"premiseId":"P-00247"}},{"type":"Feature","id":"SVC-P-00248","geometry":{"type":"Point","coordinates":[-80.5998476,43.3009396]},"properties":{"premiseId":"P-00248"}},{"type":"Feature","id":"SVC-P-00249","geometry":{"type":"Point","coordinates":[-80.5993065,43.3008451]},"properties":{"premiseId":"P-00249"}},{"type":"Feature","id":"SVC-P-00250","geometry":{"type":"Point","coordinates":[-80.5990727,43.3008451]},"properties":{"premiseId":"P-00250"}},{"type":"Feature","id":"SVC-P-00251","geometry":{"type":"Point","coordinates":[-80.5993185,43.3006834]},"properties":{"premiseId":"P-00251"}},{"type":"Feature","id":"SVC-P-00252","geometry":{"type":"Point","coordinates":[-80.5990786,43.3006834]},"properties":{"premiseId":"P-00252"}},{"type":"Feature","id":"SVC-P-00253","geometry":{"type":"Point","coordinates":[-80.5995115,43.2988479]},"properties":{"premiseId":"P-00253"}},{"type":"Feature","id":"SVC-P-00254","geometry":{"type":"Point","coordinates":[-80.5995153,43.2986937]},"properties":{"premiseId":"P-00254"}},{"type":"Feature","id":"SVC-P-00255","geometry":{"type":"Point","coordinates":[-80.5995151,43.2985494]},"properties":{"premiseId":"P-00255"}},{"type":"Feature","id":"SVC-P-00256","geometry":{"type":"Point","coordinates":[-80.5995112,43.2984037]},"properties":{"premiseId":"P-00256"}},{"type":"Feature","id":"SVC-P-00257","geometry":{"type":"Point","coordinates":[-80.5995034,43.2982559]},"properties":{"premiseId":"P-00257"}},{"type":"Feature","id":"SVC-P-00258","geometry":{"type":"Point","coordinates":[-80.599492,43.2981108]},"properties":{"premiseId":"P-00258"}},{"type":"Feature","id":"SVC-P-00259","geometry":{"type":"Point","coordinates":[-80.5994774,43.2979629]},"properties":{"premiseId":"P-00259"}},{"type":"Feature","id":"SVC-P-00260","geometry":{"type":"Point","coordinates":[-80.5994601,43.2978135]},"properties":{"premiseId":"P-00260"}},{"type":"Feature","id":"SVC-P-00261","geometry":{"type":"Point","coordinates":[-80.5994403,43.2976605]},"properties":{"premiseId":"P-00261"}},{"type":"Feature","id":"SVC-P-00262","geometry":{"type":"Point","coordinates":[-80.5994196,43.2975107]},"properties":{"premiseId":"P-00262"}},{"type":"Feature","id":"SVC-P-00263","geometry":{"type":"Point","coordinates":[-80.5993979,43.2973599]},"properties":{"premiseId":"P-00263"}},{"type":"Feature","id":"SVC-P-00264","geometry":{"type":"Point","coordinates":[-80.5993767,43.2972116]},"properties":{"premiseId":"P-00264"}},{"type":"Feature","id":"SVC-P-00265","geometry":{"type":"Point","coordinates":[-80.5993567,43.2970645]},"properties":{"premiseId":"P-00265"}},{"type":"Feature","id":"SVC-P-00266","geometry":{"type":"Point","coordinates":[-80.5997253,43.2990154]},"properties":{"premiseId":"P-00266"}},{"type":"Feature","id":"SVC-P-00267","geometry":{"type":"Point","coordinates":[-80.599733,43.2988691]},"properties":{"premiseId":"P-00267"}},{"type":"Feature","id":"SVC-P-00268","geometry":{"type":"Point","coordinates":[-80.5997371,43.2987206]},"properties":{"premiseId":"P-00268"}},{"type":"Feature","id":"SVC-P-00269","geometry":{"type":"Point","coordinates":[-80.5997375,43.2985647]},"properties":{"premiseId":"P-00269"}},{"type":"Feature","id":"SVC-P-00270","geometry":{"type":"Point","coordinates":[-80.599734,43.2984124]},"properties":{"premiseId":"P-00270"}},{"type":"Feature","id":"SVC-P-00271","geometry":{"type":"Point","coordinates":[-80.5997267,43.298269]},"properties":{"premiseId":"P-00271"}},{"type":"Feature","id":"SVC-P-00272","geometry":{"type":"Point","coordinates":[-80.5996452,43.2975267]},"properties":{"premiseId":"P-00272"}},{"type":"Feature","id":"SVC-P-00273","geometry":{"type":"Point","coordinates":[-80.5996252,43.2973868]},"properties":{"premiseId":"P-00273"}},{"type":"Feature","id":"SVC-P-00274","geometry":{"type":"Point","coordinates":[-80.5996023,43.2972269]},"properties":{"premiseId":"P-00274"}},{"type":"Feature","id":"SVC-P-00275","geometry":{"type":"Point","coordinates":[-80.5995808,43.2970715]},"properties":{"premiseId":"P-00275"}},{"type":"Feature","id":"SVC-P-00276","geometry":{"type":"Point","coordinates":[-80.5995627,43.2969318]},"properties":{"premiseId":"P-00276"}},{"type":"Feature","id":"SVC-P-00277","geometry":{"type":"Point","coordinates":[-80.5995454,43.2967828]},"properties":{"premiseId":"P-00277"}},{"type":"Feature","id":"SVC-P-00278","geometry":{"type":"Point","coordinates":[-80.5995303,43.2966292]},"properties":{"premiseId":"P-00278"}},{"type":"Feature","id":"SVC-P-00279","geometry":{"type":"Point","coordinates":[-80.5995191,43.2964781]},"properties":{"premiseId":"P-00279"}},{"type":"Feature","id":"SVC-P-00280","geometry":{"type":"Point","coordinates":[-80.5995116,43.2963331]},"properties":{"premiseId":"P-00280"}},{"type":"Feature","id":"SVC-P-00281","geometry":{"type":"Point","coordinates":[-80.5987391,43.300613]},"properties":{"premiseId":"P-00281"}},{"type":"Feature","id":"SVC-P-00282","geometry":{"type":"Point","coordinates":[-80.5987408,43.3004765]},"properties":{"premiseId":"P-00282"}},{"type":"Feature","id":"SVC-P-00283","geometry":{"type":"Point","coordinates":[-80.5987374,43.3003361]},"properties":{"premiseId":"P-00283"}},{"type":"Feature","id":"SVC-P-00284","geometry":{"type":"Point","coordinates":[-80.5987297,43.3001976]},"properties":{"premiseId":"P-00284"}},{"type":"Feature","id":"SVC-P-00285","geometry":{"type":"Point","coordinates":[-80.5987177,43.3000584]},"properties":{"premiseId":"P-00285"}},{"type":"Feature","id":"SVC-P-00286","geometry":{"type":"Point","coordinates":[-80.598701,43.2999171]},"properties":{"premiseId":"P-00286"}},{"type":"Feature","id":"SVC-P-00287","geometry":{"type":"Point","coordinates":[-80.5986795,43.2997729]},"properties":{"premiseId":"P-00287"}},{"type":"Feature","id":"SVC-P-00288","geometry":{"type":"Point","coordinates":[-80.5989511,43.3001839]},"properties":{"premiseId":"P-00288"}},{"type":"Feature","id":"SVC-P-00289","geometry":{"type":"Point","coordinates":[-80.5989382,43.300038]},"properties":{"premiseId":"P-00289"}},{"type":"Feature","id":"SVC-P-00290","geometry":{"type":"Point","coordinates":[-80.5989212,43.2998946]},"properties":{"premiseId":"P-00290"}},{"type":"Feature","id":"SVC-P-00291","geometry":{"type":"Point","coordinates":[-80.5989016,43.3012194]},"properties":{"premiseId":"P-00291"}},{"type":"Feature","id":"SVC-P-00292","geometry":{"type":"Point","coordinates":[-80.5988754,43.3013747]},"properties":{"premiseId":"P-00292"}},{"type":"Feature","id":"SVC-P-00293","geometry":{"type":"Point","coordinates":[-80.5988485,43.3015159]},"properties":{"premiseId":"P-00293"}},{"type":"Feature","id":"SVC-P-00294","geometry":{"type":"Point","coordinates":[-80.5988192,43.3016574]},"properties":{"premiseId":"P-00294"}},{"type":"Feature","id":"SVC-P-00295","geometry":{"type":"Point","coordinates":[-80.5987868,43.3018086]},"properties":{"premiseId":"P-00295"}},{"type":"Feature","id":"SVC-P-00296","geometry":{"type":"Point","coordinates":[-80.5987535,43.3019612]},"properties":{"premiseId":"P-00296"}},{"type":"Feature","id":"SVC-P-00297","geometry":{"type":"Point","coordinates":[-80.5987215,43.3021094]},"properties":{"premiseId":"P-00297"}},{"type":"Feature","id":"SVC-P-00298","geometry":{"type":"Point","coordinates":[-80.59869,43.3022615]},"properties":{"premiseId":"P-00298"}},{"type":"Feature","id":"SVC-P-00299","geometry":{"type":"Point","coordinates":[-80.5986619,43.3024079]},"properties":{"premiseId":"P-00299"}},{"type":"Feature","id":"SVC-P-00300","geometry":{"type":"Point","coordinates":[-80.5986371,43.3025549]},"properties":{"premiseId":"P-00300"}},{"type":"Feature","id":"SVC-P-00301","geometry":{"type":"Point","coordinates":[-80.5986146,43.3027093]},"properties":{"premiseId":"P-00301"}},{"type":"Feature","id":"SVC-P-00302","geometry":{"type":"Point","coordinates":[-80.5985969,43.3028634]},"properties":{"premiseId":"P-00302"}},{"type":"Feature","id":"SVC-P-00303","geometry":{"type":"Point","coordinates":[-80.5985842,43.3030171]},"properties":{"premiseId":"P-00303"}},{"type":"Feature","id":"SVC-P-00304","geometry":{"type":"Point","coordinates":[-80.598577,43.3031647]},"properties":{"premiseId":"P-00304"}},{"type":"Feature","id":"SVC-P-00305","geometry":{"type":"Point","coordinates":[-80.5987188,43.3009114]},"properties":{"premiseId":"P-00305"}},{"type":"Feature","id":"SVC-P-00306","geometry":{"type":"Point","coordinates":[-80.5987005,43.3010652]},"properties":{"premiseId":"P-00306"}},{"type":"Feature","id":"SVC-P-00307","geometry":{"type":"Point","coordinates":[-80.5986782,43.3012182]},"properties":{"premiseId":"P-00307"}},{"type":"Feature","id":"SVC-P-00308","geometry":{"type":"Point","coordinates":[-80.5986527,43.301366]},"properties":{"premiseId":"P-00308"}},{"type":"Feature","id":"SVC-P-00309","geometry":{"type":"Point","coordinates":[-80.5986238,43.3015161]},"properties":{"premiseId":"P-00309"}},{"type":"Feature","id":"SVC-P-00310","geometry":{"type":"Point","coordinates":[-80.5985933,43.3016632]},"properties":{"premiseId":"P-00310"}},{"type":"Feature","id":"SVC-P-00311","geometry":{"type":"Point","coordinates":[-80.5985618,43.3018088]},"properties":{"premiseId":"P-00311"}},{"type":"Feature","id":"SVC-P-00312","geometry":{"type":"Point","coordinates":[-80.5985277,43.3019652]},"properties":{"premiseId":"P-00312"}},{"type":"Feature","id":"SVC-P-00313","geometry":{"type":"Point","coordinates":[-80.5984955,43.3021156]},"properties":{"premiseId":"P-00313"}},{"type":"Feature","id":"SVC-P-00314","geometry":{"type":"Point","coordinates":[-80.5984658,43.3022607]},"properties":{"premiseId":"P-00314"}},{"type":"Feature","id":"SVC-P-00315","geometry":{"type":"Point","coordinates":[-80.5984359,43.3024185]},"properties":{"premiseId":"P-00315"}},{"type":"Feature","id":"SVC-P-00316","geometry":{"type":"Point","coordinates":[-80.5984119,43.3025623]},"properties":{"premiseId":"P-00316"}},{"type":"Feature","id":"SVC-P-00317","geometry":{"type":"Point","coordinates":[-80.5983915,43.3027087]},"properties":{"premiseId":"P-00317"}},{"type":"Feature","id":"SVC-P-00318","geometry":{"type":"Point","coordinates":[-80.598374,43.3028648]},"properties":{"premiseId":"P-00318"}},{"type":"Feature","id":"SVC-P-00319","geometry":{"type":"Point","coordinates":[-80.5984492,43.2992704]},"properties":{"premiseId":"P-00319"}},{"type":"Feature","id":"SVC-P-00320","geometry":{"type":"Point","coordinates":[-80.5984444,43.2991013]},"properties":{"premiseId":"P-00320"}},{"type":"Feature","id":"SVC-P-00321","geometry":{"type":"Point","coordinates":[-80.5984348,43.298939]},"properties":{"premiseId":"P-00321"}},{"type":"Feature","id":"SVC-P-00322","geometry":{"type":"Point","coordinates":[-80.5984202,43.2987668]},"properties":{"premiseId":"P-00322"}},{"type":"Feature","id":"SVC-P-00323","geometry":{"type":"Point","coordinates":[-80.598403,43.2986048]},"properties":{"premiseId":"P-00323"}},{"type":"Feature","id":"SVC-P-00324","geometry":{"type":"Point","coordinates":[-80.5983827,43.2984424]},"properties":{"premiseId":"P-00324"}},{"type":"Feature","id":"SVC-P-00325","geometry":{"type":"Point","coordinates":[-80.5983585,43.2982656]},"properties":{"premiseId":"P-00325"}},{"type":"Feature","id":"SVC-P-00326","geometry":{"type":"Point","coordinates":[-80.5983336,43.2980908]},"properties":{"premiseId":"P-00326"}},{"type":"Feature","id":"SVC-P-00327","geometry":{"type":"Point","coordinates":[-80.5983105,43.2979293]},"properties":{"premiseId":"P-00327"}},{"type":"Feature","id":"SVC-P-00328","geometry":{"type":"Point","coordinates":[-80.5982892,43.2977724]},"properties":{"premiseId":"P-00328"}},{"type":"Feature","id":"SVC-P-00329","geometry":{"type":"Point","coordinates":[-80.5982677,43.2975989]},"properties":{"premiseId":"P-00329"}},{"type":"Feature","id":"SVC-P-00330","geometry":{"type":"Point","coordinates":[-80.59825,43.2974344]},"properties":{"premiseId":"P-00330"}},{"type":"Feature","id":"SVC-P-00331","geometry":{"type":"Point","coordinates":[-80.5982362,43.2972691]},"properties":{"premiseId":"P-00331"}},{"type":"Feature","id":"SVC-P-00332","geometry":{"type":"Point","coordinates":[-80.5982257,43.2970987]},"properties":{"premiseId":"P-00332"}},{"type":"Feature","id":"SVC-P-00333","geometry":{"type":"Point","coordinates":[-80.5982206,43.2969312]},"properties":{"premiseId":"P-00333"}},{"type":"Feature","id":"SVC-P-00334","geometry":{"type":"Point","coordinates":[-80.5982201,43.2967584]},"properties":{"premiseId":"P-00334"}},{"type":"Feature","id":"SVC-P-00335","geometry":{"type":"Point","coordinates":[-80.5982251,43.2965952]},"properties":{"premiseId":"P-00335"}},{"type":"Feature","id":"SVC-P-00336","geometry":{"type":"Point","coordinates":[-80.5986718,43.2992832]},"properties":{"premiseId":"P-00336"}},{"type":"Feature","id":"SVC-P-00337","geometry":{"type":"Point","coordinates":[-80.5986674,43.2991154]},"properties":{"premiseId":"P-00337"}},{"type":"Feature","id":"SVC-P-00338","geometry":{"type":"Point","coordinates":[-80.5986577,43.2989443]},"properties":{"premiseId":"P-00338"}},{"type":"Feature","id":"SVC-P-00339","geometry":{"type":"Point","coordinates":[-80.5986443,43.2987787]},"properties":{"premiseId":"P-00339"}},{"type":"Feature","id":"SVC-P-00340","geometry":{"type":"Point","coordinates":[-80.5986275,43.2986189]},"properties":{"premiseId":"P-00340"}},{"type":"Feature","id":"SVC-P-00341","geometry":{"type":"Point","coordinates":[-80.5986073,43.2984539]},"properties":{"premiseId":"P-00341"}},{"type":"Feature","id":"SVC-P-00342","geometry":{"type":"Point","coordinates":[-80.5985853,43.2982906]},"properties":{"premiseId":"P-00342"}},{"type":"Feature","id":"SVC-P-00343","geometry":{"type":"Point","coordinates":[-80.5985605,43.2981157]},"properties":{"premiseId":"P-00343"}},{"type":"Feature","id":"SVC-P-00344","geometry":{"type":"Point","coordinates":[-80.5985353,43.2979389]},"properties":{"premiseId":"P-00344"}},{"type":"Feature","id":"SVC-P-00345","geometry":{"type":"Point","coordinates":[-80.5985125,43.2977734]},"properties":{"premiseId":"P-00345"}},{"type":"Feature","id":"SVC-P-00346","geometry":{"type":"Point","coordinates":[-80.5984928,43.2976176]},"properties":{"premiseId":"P-00346"}},{"type":"Feature","id":"SVC-P-00347","geometry":{"type":"Point","coordinates":[-80.598475,43.2974559]},"properties":{"premiseId":"P-00347"}},{"type":"Feature","id":"SVC-P-00348","geometry":{"type":"Point","coordinates":[-80.5984597,43.2972844]},"properties":{"premiseId":"P-00348"}},{"type":"Feature","id":"SVC-P-00349","geometry":{"type":"Point","coordinates":[-80.5977313,43.2999182]},"properties":{"premiseId":"P-00349"}},{"type":"Feature","id":"SVC-P-00350","geometry":{"type":"Point","coordinates":[-80.5977696,43.3000954]},"properties":{"premiseId":"P-00350"}},{"type":"Feature","id":"SVC-P-00351","geometry":{"type":"Point","coordinates":[-80.5978057,43.3002707]},"properties":{"premiseId":"P-00351"}},{"type":"Feature","id":"SVC-P-00352","geometry":{"type":"Point","coordinates":[-80.5978377,43.30044]},"properties":{"premiseId":"P-00352"}},{"type":"Feature","id":"SVC-P-00353","geometry":{"type":"Point","coordinates":[-80.5978656,43.30061]},"properties":{"premiseId":"P-00353"}},{"type":"Feature","id":"SVC-P-00354","geometry":{"type":"Point","coordinates":[-80.5978879,43.300775]},"properties":{"premiseId":"P-00354"}},{"type":"Feature","id":"SVC-P-00355","geometry":{"type":"Point","coordinates":[-80.5979045,43.3009468]},"properties":{"premiseId":"P-00355"}},{"type":"Feature","id":"SVC-P-00356","geometry":{"type":"Point","coordinates":[-80.5979155,43.3011229]},"properties":{"premiseId":"P-00356"}},{"type":"Feature","id":"SVC-P-00357","geometry":{"type":"Point","coordinates":[-80.5979185,43.3012928]},"properties":{"premiseId":"P-00357"}},{"type":"Feature","id":"SVC-P-00358","geometry":{"type":"Point","coordinates":[-80.5979148,43.3014639]},"properties":{"premiseId":"P-00358"}},{"type":"Feature","id":"SVC-P-00359","geometry":{"type":"Point","coordinates":[-80.597905,43.3016248]},"properties":{"premiseId":"P-00359"}},{"type":"Feature","id":"SVC-P-00360","geometry":{"type":"Point","coordinates":[-80.5978874,43.3017994]},"properties":{"premiseId":"P-00360"}},{"type":"Feature","id":"SVC-P-00361","geometry":{"type":"Point","coordinates":[-80.5978627,43.3019824]},"properties":{"premiseId":"P-00361"}},{"type":"Feature","id":"SVC-P-00362","geometry":{"type":"Point","coordinates":[-80.5978351,43.3021499]},"properties":{"premiseId":"P-00362"}},{"type":"Feature","id":"SVC-P-00363","geometry":{"type":"Point","coordinates":[-80.597803,43.3023189]},"properties":{"premiseId":"P-00363"}},{"type":"Feature","id":"SVC-P-00364","geometry":{"type":"Point","coordinates":[-80.5977674,43.3024916]},"properties":{"premiseId":"P-00364"}},{"type":"Feature","id":"SVC-P-00365","geometry":{"type":"Point","coordinates":[-80.5977334,43.3026494]},"properties":{"premiseId":"P-00365"}},{"type":"Feature","id":"SVC-P-00366","geometry":{"type":"Point","coordinates":[-80.5974756,43.2997773]},"properties":{"premiseId":"P-00366"}},{"type":"Feature","id":"SVC-P-00367","geometry":{"type":"Point","coordinates":[-80.5975121,43.2999448]},"properties":{"premiseId":"P-00367"}},{"type":"Feature","id":"SVC-P-00368","geometry":{"type":"Point","coordinates":[-80.5975486,43.3001132]},"properties":{"premiseId":"P-00368"}},{"type":"Feature","id":"SVC-P-00369","geometry":{"type":"Point","coordinates":[-80.597585,43.30029]},"properties":{"premiseId":"P-00369"}},{"type":"Feature","id":"SVC-P-00370","geometry":{"type":"Point","coordinates":[-80.5976181,43.3004644]},"properties":{"premiseId":"P-00370"}},{"type":"Feature","id":"SVC-P-00371","geometry":{"type":"Point","coordinates":[-80.5976443,43.3006239]},"properties":{"premiseId":"P-00371"}},{"type":"Feature","id":"SVC-P-00372","geometry":{"type":"Point","coordinates":[-80.5976668,43.3007932]},"properties":{"premiseId":"P-00372"}},{"type":"Feature","id":"SVC-P-00373","geometry":{"type":"Point","coordinates":[-80.5976836,43.3009627]},"properties":{"premiseId":"P-00373"}},{"type":"Feature","id":"SVC-P-00374","geometry":{"type":"Point","coordinates":[-80.5976934,43.3011327]},"properties":{"premiseId":"P-00374"}},{"type":"Feature","id":"SVC-P-00375","geometry":{"type":"Point","coordinates":[-80.5976964,43.3013129]},"properties":{"premiseId":"P-00375"}},{"type":"Feature","id":"SVC-P-00376","geometry":{"type":"Point","coordinates":[-80.5976914,43.3014909]},"properties":{"premiseId":"P-00376"}},{"type":"Feature","id":"SVC-P-00377","geometry":{"type":"Point","coordinates":[-80.5976804,43.301652]},"properties":{"premiseId":"P-00377"}},{"type":"Feature","id":"SVC-P-00378","geometry":{"type":"Point","coordinates":[-80.5976628,43.3018133]},"properties":{"premiseId":"P-00378"}},{"type":"Feature","id":"SVC-P-00379","geometry":{"type":"Point","coordinates":[-80.5976384,43.3019874]},"properties":{"premiseId":"P-00379"}},{"type":"Feature","id":"SVC-P-00380","geometry":{"type":"Point","coordinates":[-80.5976092,43.3021591]},"properties":{"premiseId":"P-00380"}},{"type":"Feature","id":"SVC-P-00381","geometry":{"type":"Point","coordinates":[-80.5975762,43.3023301]},"properties":{"premiseId":"P-00381"}},{"type":"Feature","id":"SVC-P-00382","geometry":{"type":"Point","coordinates":[-80.5975402,43.3025027]},"properties":{"premiseId":"P-00382"}},{"type":"Feature","id":"SVC-P-00383","geometry":{"type":"Point","coordinates":[-80.5975042,43.3026688]},"properties":{"premiseId":"P-00383"}},{"type":"Feature","id":"SVC-P-00384","geometry":{"type":"Point","coordinates":[-80.5974668,43.3028414]},"properties":{"premiseId":"P-00384"}},{"type":"Feature","id":"SVC-P-00385","geometry":{"type":"Point","coordinates":[-80.5973345,43.2993023]},"properties":{"premiseId":"P-00385"}},{"type":"Feature","id":"SVC-P-00386","geometry":{"type":"Point","coordinates":[-80.5973154,43.2991508]},"properties":{"premiseId":"P-00386"}},{"type":"Feature","id":"SVC-P-00387","geometry":{"type":"Point","coordinates":[-80.5972946,43.2989991]},"properties":{"premiseId":"P-00387"}},{"type":"Feature","id":"SVC-P-00388","geometry":{"type":"Point","coordinates":[-80.5972728,43.2988471]},"properties":{"premiseId":"P-00388"}},{"type":"Feature","id":"SVC-P-00389","geometry":{"type":"Point","coordinates":[-80.5972507,43.2986925]},"properties":{"premiseId":"P-00389"}},{"type":"Feature","id":"SVC-P-00390","geometry":{"type":"Point","coordinates":[-80.59723,43.2985431]},"properties":{"premiseId":"P-00390"}},{"type":"Feature","id":"SVC-P-00391","geometry":{"type":"Point","coordinates":[-80.5972105,43.2983932]},"properties":{"premiseId":"P-00391"}},{"type":"Feature","id":"SVC-P-00392","geometry":{"type":"Point","coordinates":[-80.5971931,43.2982448]},"properties":{"premiseId":"P-00392"}},{"type":"Feature","id":"SVC-P-00393","geometry":{"type":"Point","coordinates":[-80.5971785,43.298096]},"properties":{"premiseId":"P-00393"}},{"type":"Feature","id":"SVC-P-00394","geometry":{"type":"Point","coordinates":[-80.5975546,43.2992796]},"properties":{"premiseId":"P-00394"}},{"type":"Feature","id":"SVC-P-00395","geometry":{"type":"Point","coordinates":[-80.597533,43.2991093]},"properties":{"premiseId":"P-00395"}},{"type":"Feature","id":"SVC-P-00396","geometry":{"type":"Point","coordinates":[-80.5975094,43.2989393]},"properties":{"premiseId":"P-00396"}},{"type":"Feature","id":"SVC-P-00397","geometry":{"type":"Point","coordinates":[-80.5974849,43.2987686]},"properties":{"premiseId":"P-00397"}},{"type":"Feature","id":"SVC-P-00398","geometry":{"type":"Point","coordinates":[-80.5974621,43.2986086]},"properties":{"premiseId":"P-00398"}},{"type":"Feature","id":"SVC-P-00399","geometry":{"type":"Point","coordinates":[-80.5974406,43.2984482]},"properties":{"premiseId":"P-00399"}},{"type":"Feature","id":"SVC-P-00400","geometry":{"type":"Point","coordinates":[-80.5974204,43.2982825]},"properties":{"premiseId":"P-00400"}},{"type":"Feature","id":"SVC-P-00401","geometry":{"type":"Point","coordinates":[-80.597403,43.2981122]},"properties":{"premiseId":"P-00401"}},{"type":"Feature","id":"SVC-P-00402","geometry":{"type":"Point","coordinates":[-80.5973891,43.2979383]},"properties":{"premiseId":"P-00402"}},{"type":"Feature","id":"SVC-P-00403","geometry":{"type":"Point","coordinates":[-80.5973804,43.2977725]},"properties":{"premiseId":"P-00403"}},{"type":"Feature","id":"SVC-P-00404","geometry":{"type":"Point","coordinates":[-80.5973766,43.2976111]},"properties":{"premiseId":"P-00404"}},{"type":"Feature","id":"SVC-P-00405","geometry":{"type":"Point","coordinates":[-80.5973775,43.297445]},"properties":{"premiseId":"P-00405"}},{"type":"Feature","id":"SVC-P-00406","geometry":{"type":"Point","coordinates":[-80.5973833,43.2972775]},"properties":{"premiseId":"P-00406"}},{"type":"Feature","id":"SVC-P-00407","geometry":{"type":"Point","coordinates":[-80.5973933,43.2971166]},"properties":{"premiseId":"P-00407"}},{"type":"Feature","id":"SVC-P-00408","geometry":{"type":"Point","coordinates":[-80.5974085,43.2969447]},"properties":{"premiseId":"P-00408"}},{"type":"Feature","id":"SVC-P-00409","geometry":{"type":"Point","coordinates":[-80.5974265,43.2967786]},"properties":{"premiseId":"P-00409"}},{"type":"Feature","id":"SVC-P-00410","geometry":{"type":"Point","coordinates":[-80.5965783,43.3001805]},"properties":{"premiseId":"P-00410"}},{"type":"Feature","id":"SVC-P-00411","geometry":{"type":"Point","coordinates":[-80.5966068,43.3003363]},"properties":{"premiseId":"P-00411"}},{"type":"Feature","id":"SVC-P-00412","geometry":{"type":"Point","coordinates":[-80.5966362,43.3004785]},"properties":{"premiseId":"P-00412"}},{"type":"Feature","id":"SVC-P-00413","geometry":{"type":"Point","coordinates":[-80.5966662,43.3006176]},"properties":{"premiseId":"P-00413"}},{"type":"Feature","id":"SVC-P-00414","geometry":{"type":"Point","coordinates":[-80.5966986,43.300766]},"properties":{"premiseId":"P-00414"}},{"type":"Feature","id":"SVC-P-00415","geometry":{"type":"Point","coordinates":[-80.5967313,43.3009184]},"properties":{"premiseId":"P-00415"}},{"type":"Feature","id":"SVC-P-00416","geometry":{"type":"Point","coordinates":[-80.5967637,43.3010776]},"properties":{"premiseId":"P-00416"}},{"type":"Feature","id":"SVC-P-00417","geometry":{"type":"Point","coordinates":[-80.5967922,43.3012283]},"properties":{"premiseId":"P-00417"}},{"type":"Feature","id":"SVC-P-00418","geometry":{"type":"Point","coordinates":[-80.5968175,43.3013797]},"properties":{"premiseId":"P-00418"}},{"type":"Feature","id":"SVC-P-00419","geometry":{"type":"Point","coordinates":[-80.5968398,43.3015362]},"properties":{"premiseId":"P-00419"}},{"type":"Feature","id":"SVC-P-00420","geometry":{"type":"Point","coordinates":[-80.5968556,43.3016781]},"properties":{"premiseId":"P-00420"}},{"type":"Feature","id":"SVC-P-00421","geometry":{"type":"Point","coordinates":[-80.5968666,43.3018247]},"properties":{"premiseId":"P-00421"}},{"type":"Feature","id":"SVC-P-00422","geometry":{"type":"Point","coordinates":[-80.5968735,43.3019881]},"properties":{"premiseId":"P-00422"}},{"type":"Feature","id":"SVC-P-00423","geometry":{"type":"Point","coordinates":[-80.5968743,43.3021482]},"properties":{"premiseId":"P-00423"}},{"type":"Feature","id":"SVC-P-00424","geometry":{"type":"Point","coordinates":[-80.5968696,43.3022975]},"properties":{"premiseId":"P-00424"}},{"type":"Feature","id":"SVC-P-00425","geometry":{"type":"Point","coordinates":[-80.5968595,43.3024486]},"properties":{"premiseId":"P-00425"}},{"type":"Feature","id":"SVC-P-00426","geometry":{"type":"Point","coordinates":[-80.596845,43.3025919]},"properties":{"premiseId":"P-00426"}},{"type":"Feature","id":"SVC-P-00427","geometry":{"type":"Point","coordinates":[-80.5968252,43.3027381]},"properties":{"premiseId":"P-00427"}},{"type":"Feature","id":"SVC-P-00428","geometry":{"type":"Point","coordinates":[-80.5963842,43.3003467]},"properties":{"premiseId":"P-00428"}},{"type":"Feature","id":"SVC-P-00429","geometry":{"type":"Point","coordinates":[-80.5964148,43.3004944]},"properties":{"premiseId":"P-00429"}},{"type":"Feature","id":"SVC-P-00430","geometry":{"type":"Point","coordinates":[-80.5964472,43.3006451]},"properties":{"premiseId":"P-00430"}},{"type":"Feature","id":"SVC-P-00431","geometry":{"type":"Point","coordinates":[-80.5964797,43.3007935]},"properties":{"premiseId":"P-00431"}},{"type":"Feature","id":"SVC-P-00432","geometry":{"type":"Point","coordinates":[-80.5965109,43.3009391]},"properties":{"premiseId":"P-00432"}},{"type":"Feature","id":"SVC-P-00433","geometry":{"type":"Point","coordinates":[-80.5965404,43.3010833]},"properties":{"premiseId":"P-00433"}},{"type":"Feature","id":"SVC-P-00434","geometry":{"type":"Point","coordinates":[-80.5965695,43.301236]},"properties":{"premiseId":"P-00434"}},{"type":"Feature","id":"SVC-P-00435","geometry":{"type":"Point","coordinates":[-80.5965961,43.3013935]},"properties":{"premiseId":"P-00435"}},{"type":"Feature","id":"SVC-P-00436","geometry":{"type":"Point","coordinates":[-80.5966175,43.3015421]},"properties":{"premiseId":"P-00436"}},{"type":"Feature","id":"SVC-P-00437","geometry":{"type":"Point","coordinates":[-80.5966341,43.3016933]},"properties":{"premiseId":"P-00437"}},{"type":"Feature","id":"SVC-P-00438","geometry":{"type":"Point","coordinates":[-80.596646,43.3018508]},"properties":{"premiseId":"P-00438"}},{"type":"Feature","id":"SVC-P-00439","geometry":{"type":"Point","coordinates":[-80.5966518,43.3019996]},"properties":{"premiseId":"P-00439"}},{"type":"Feature","id":"SVC-P-00440","geometry":{"type":"Point","coordinates":[-80.5966519,43.3021525]},"properties":{"premiseId":"P-00440"}},{"type":"Feature","id":"SVC-P-00441","geometry":{"type":"Point","coordinates":[-80.5966471,43.3023001]},"properties":{"premiseId":"P-00441"}},{"type":"Feature","id":"SVC-P-00442","geometry":{"type":"Point","coordinates":[-80.5965195,43.2998007]},"properties":{"premiseId":"P-00442"}},{"type":"Feature","id":"SVC-P-00443","geometry":{"type":"Point","coordinates":[-80.5962253,43.300109]},"properties":{"premiseId":"P-00443"}},{"type":"Feature","id":"SVC-P-00444","geometry":{"type":"Point","coordinates":[-80.5960057,43.300109]},"properties":{"premiseId":"P-00444"}},{"type":"Feature","id":"SVC-P-00445","geometry":{"type":"Point","coordinates":[-80.5957789,43.300109]},"properties":{"premiseId":"P-00445"}},{"type":"Feature","id":"SVC-P-00446","geometry":{"type":"Point","coordinates":[-80.5955537,43.300109]},"properties":{"premiseId":"P-00446"}},{"type":"Feature","id":"SVC-P-00447","geometry":{"type":"Point","coordinates":[-80.5959948,43.2999473]},"properties":{"premiseId":"P-00447"}},{"type":"Feature","id":"SVC-P-00448","geometry":{"type":"Point","coordinates":[-80.5957835,43.2999473]},"properties":{"premiseId":"P-00448"}},{"type":"Feature","id":"SVC-P-00449","geometry":{"type":"Point","coordinates":[-80.5955631,43.2999473]},"properties":{"premiseId":"P-00449"}},{"type":"Feature","id":"SVC-P-00450","geometry":{"type":"Point","coordinates":[-80.5963114,43.2983948]},"properties":{"premiseId":"P-00450"}},{"type":"Feature","id":"SVC-P-00451","geometry":{"type":"Point","coordinates":[-80.596317,43.298546]},"properties":{"premiseId":"P-00451"}},{"type":"Feature","id":"SVC-P-00452","geometry":{"type":"Point","coordinates":[-80.5963265,43.2987036]},"properties":{"premiseId":"P-00452"}},{"type":"Feature","id":"SVC-P-00453","geometry":{"type":"Point","coordinates":[-80.5963379,43.2988428]},"properties":{"premiseId":"P-00453"}},{"type":"Feature","id":"SVC-P-00454","geometry":{"type":"Point","coordinates":[-80.5963531,43.2989902]},"properties":{"premiseId":"P-00454"}},{"type":"Feature","id":"SVC-P-00455","geometry":{"type":"Point","coordinates":[-80.596371,43.2991401]},"properties":{"premiseId":"P-00455"}},{"type":"Feature","id":"SVC-P-00456","geometry":{"type":"Point","coordinates":[-80.5963909,43.2992891]},"properties":{"premiseId":"P-00456"}},{"type":"Feature","id":"SVC-P-00457","geometry":{"type":"Point","coordinates":[-80.5960946,43.2985467]},"properties":{"premiseId":"P-00457"}},{"type":"Feature","id":"SVC-P-00458","geometry":{"type":"Point","coordinates":[-80.5961039,43.2987017]},"properties":{"premiseId":"P-00458"}},{"type":"Feature","id":"SVC-P-00459","geometry":{"type":"Point","coordinates":[-80.5961166,43.2988572]},"properties":{"premiseId":"P-00459"}},{"type":"Feature","id":"SVC-P-00460","geometry":{"type":"Point","coordinates":[-80.5961312,43.2990006]},"properties":{"premiseId":"P-00460"}},{"type":"Feature","id":"SVC-P-00461","geometry":{"type":"Point","coordinates":[-80.5961485,43.299145]},"properties":{"premiseId":"P-00461"}},{"type":"Feature","id":"SVC-P-00462","geometry":{"type":"Point","coordinates":[-80.5961696,43.2993035]},"properties":{"premiseId":"P-00462"}},{"type":"Feature","id":"SVC-P-00463","geometry":{"type":"Point","coordinates":[-80.5953592,43.3012355]},"properties":{"premiseId":"P-00463"}},{"type":"Feature","id":"SVC-P-00464","geometry":{"type":"Point","coordinates":[-80.5953304,43.3010925]},"properties":{"premiseId":"P-00464"}},{"type":"Feature","id":"SVC-P-00465","geometry":{"type":"Point","coordinates":[-80.5953032,43.3009471]},"properties":{"premiseId":"P-00465"}},{"type":"Feature","id":"SVC-P-00466","geometry":{"type":"Point","coordinates":[-80.5952774,43.3007907]},"properties":{"premiseId":"P-00466"}},{"type":"Feature","id":"SVC-P-00467","geometry":{"type":"Point","coordinates":[-80.5952553,43.3006318]},"properties":{"premiseId":"P-00467"}},{"type":"Feature","id":"SVC-P-00468","geometry":{"type":"Point","coordinates":[-80.5952403,43.3004905]},"properties":{"premiseId":"P-00468"}},{"type":"Feature","id":"SVC-P-00469","geometry":{"type":"Point","coordinates":[-80.5952298,43.3003439]},"properties":{"premiseId":"P-00469"}},{"type":"Feature","id":"SVC-P-00470","geometry":{"type":"Point","coordinates":[-80.5952235,43.3001867]},"properties":{"premiseId":"P-00470"}},{"type":"Feature","id":"SVC-P-00471","geometry":{"type":"Point","coordinates":[-80.595714,43.3018431]},"properties":{"premiseId":"P-00471"}},{"type":"Feature","id":"SVC-P-00472","geometry":{"type":"Point","coordinates":[-80.5956835,43.3016955]},"properties":{"premiseId":"P-00472"}},{"type":"Feature","id":"SVC-P-00473","geometry":{"type":"Point","coordinates":[-80.5956491,43.3015365]},"properties":{"premiseId":"P-00473"}},{"type":"Feature","id":"SVC-P-00474","geometry":{"type":"Point","coordinates":[-80.5956166,43.3013877]},"properties":{"premiseId":"P-00474"}},{"type":"Feature","id":"SVC-P-00475","geometry":{"type":"Point","coordinates":[-80.5955857,43.3012432]},"properties":{"premiseId":"P-00475"}},{"type":"Feature","id":"SVC-P-00476","geometry":{"type":"Point","coordinates":[-80.5955545,43.3010907]},"properties":{"premiseId":"P-00476"}},{"type":"Feature","id":"SVC-P-00477","geometry":{"type":"Point","coordinates":[-80.5955251,43.300935]},"properties":{"premiseId":"P-00477"}},{"type":"Feature","id":"SVC-P-00478","geometry":{"type":"Point","coordinates":[-80.5955008,43.3007917]},"properties":{"premiseId":"P-00478"}},{"type":"Feature","id":"SVC-P-00479","geometry":{"type":"Point","coordinates":[-80.5954807,43.3006486]},"properties":{"premiseId":"P-00479"}},{"type":"Feature","id":"SVC-P-00480","geometry":{"type":"Point","coordinates":[-80.5954633,43.3004892]},"properties":{"premiseId":"P-00480"}},{"type":"Feature","id":"SVC-P-00481","geometry":{"type":"Point","coordinates":[-80.6009591,43.2997487]},"properties":{"premiseId":"P-00481"}},{"type":"Feature","id":"SVC-P-00482","geometry":{"type":"Point","coordinates":[-80.6009888,43.2994795]},"properties":{"premiseId":"P-00482"}},{"type":"Feature","id":"SVC-P-00483","geometry":{"type":"Point","coordinates":[-80.6008405,43.2969366]},"properties":{"premiseId":"P-00483"}},{"type":"Feature","id":"SVC-P-00484","geometry":{"type":"Point","coordinates":[-80.6008305,43.2970853]},"properties":{"premiseId":"P-00484"}},{"type":"Feature","id":"SVC-P-00485","geometry":{"type":"Point","coordinates":[-80.6008212,43.2972276]},"properties":{"premiseId":"P-00485"}},{"type":"Feature","id":"SVC-P-00486","geometry":{"type":"Point","coordinates":[-80.6008123,43.2973704]},"properties":{"premiseId":"P-00486"}},{"type":"Feature","id":"SVC-P-00487","geometry":{"type":"Point","coordinates":[-80.600803,43.2975261]},"properties":{"premiseId":"P-00487"}},{"type":"Feature","id":"SVC-P-00488","geometry":{"type":"Point","coordinates":[-80.6007943,43.2976782]},"properties":{"premiseId":"P-00488"}},{"type":"Feature","id":"SVC-P-00489","geometry":{"type":"Point","coordinates":[-80.6007866,43.2978209]},"properties":{"premiseId":"P-00489"}},{"type":"Feature","id":"SVC-P-00490","geometry":{"type":"Point","coordinates":[-80.6007791,43.2979682]},"properties":{"premiseId":"P-00490"}},{"type":"Feature","id":"SVC-P-00491","geometry":{"type":"Point","coordinates":[-80.6007719,43.2981181]},"properties":{"premiseId":"P-00491"}},{"type":"Feature","id":"SVC-P-00492","geometry":{"type":"Point","coordinates":[-80.6007655,43.2982605]},"properties":{"premiseId":"P-00492"}},{"type":"Feature","id":"SVC-P-00493","geometry":{"type":"Point","coordinates":[-80.6007593,43.2984102]},"properties":{"premiseId":"P-00493"}},{"type":"Feature","id":"SVC-P-00494","geometry":{"type":"Point","coordinates":[-80.6007535,43.2985603]},"properties":{"premiseId":"P-00494"}},{"type":"Feature","id":"SVC-P-00495","geometry":{"type":"Point","coordinates":[-80.6007481,43.2987134]},"properties":{"premiseId":"P-00495"}},{"type":"Feature","id":"SVC-P-00496","geometry":{"type":"Point","coordinates":[-80.6007431,43.2988703]},"properties":{"premiseId":"P-00496"}},{"type":"Feature","id":"SVC-P-00497","geometry":{"type":"Point","coordinates":[-80.6007391,43.2990155]},"properties":{"premiseId":"P-00497"}},{"type":"Feature","id":"SVC-P-00498","geometry":{"type":"Point","coordinates":[-80.6007356,43.2991635]},"properties":{"premiseId":"P-00498"}},{"type":"Feature","id":"SVC-P-00499","geometry":{"type":"Point","coordinates":[-80.6005029,43.2964763]},"properties":{"premiseId":"P-00499"}},{"type":"Feature","id":"SVC-P-00500","geometry":{"type":"Point","coordinates":[-80.6004919,43.2966228]},"properties":{"premiseId":"P-00500"}},{"type":"Feature","id":"SVC-P-00501","geometry":{"type":"Point","coordinates":[-80.6004814,43.2967689]},"properties":{"premiseId":"P-00501"}},{"type":"Feature","id":"SVC-P-00502","geometry":{"type":"Point","coordinates":[-80.6004711,43.2969171]},"properties":{"premiseId":"P-00502"}},{"type":"Feature","id":"SVC-P-00503","geometry":{"type":"Point","coordinates":[-80.6004607,43.29707]},"properties":{"premiseId":"P-00503"}},{"type":"Feature","id":"SVC-P-00504","geometry":{"type":"Point","coordinates":[-80.600451,43.2972206]},"properties":{"premiseId":"P-00504"}},{"type":"Feature","id":"SVC-P-00505","geometry":{"type":"Point","coordinates":[-80.6004417,43.2973691]},"properties":{"premiseId":"P-00505"}},{"type":"Feature","id":"SVC-P-00506","geometry":{"type":"Point","coordinates":[-80.6004328,43.2975179]},"properties":{"premiseId":"P-00506"}},{"type":"Feature","id":"SVC-P-00507","geometry":{"type":"Point","coordinates":[-80.6004241,43.2976713]},"properties":{"premiseId":"P-00507"}},{"type":"Feature","id":"SVC-P-00508","geometry":{"type":"Point","coordinates":[-80.6003951,43.2982579]},"properties":{"premiseId":"P-00508"}},{"type":"Feature","id":"SVC-P-00509","geometry":{"type":"Point","coordinates":[-80.600389,43.2984047]},"properties":{"premiseId":"P-00509"}},{"type":"Feature","id":"SVC-P-00510","geometry":{"type":"Point","coordinates":[-80.6003829,43.2985637]},"properties":{"premiseId":"P-00510"}},{"type":"Feature","id":"SVC-P-00511","geometry":{"type":"Point","coordinates":[-80.6003778,43.2987086]},"properties":{"premiseId":"P-00511"}},{"type":"Feature","id":"SVC-P-00512","geometry":{"type":"Point","coordinates":[-80.6003734,43.2988496]},"properties":{"premiseId":"P-00512"}},{"type":"Feature","id":"SVC-P-00513","geometry":{"type":"Point","coordinates":[-80.6003692,43.2989991]},"properties":{"premiseId":"P-00513"}},{"type":"Feature","id":"SVC-P-00514","geometry":{"type":"Point","coordinates":[-80.6003654,43.2991562]},"properties":{"premiseId":"P-00514"}},{"type":"Feature","id":"SVC-P-00515","geometry":{"type":"Point","coordinates":[-80.6003623,43.2993071]},"properties":{"premiseId":"P-00515"}},{"type":"Feature","id":"SVC-P-00516","geometry":{"type":"Point","coordinates":[-80.6003563,43.3029566]},"properties":{"premiseId":"P-00516"}},{"type":"Feature","id":"SVC-P-00517","geometry":{"type":"Point","coordinates":[-80.6003558,43.3027885]},"properties":{"premiseId":"P-00517"}},{"type":"Feature","id":"SVC-P-00518","geometry":{"type":"Point","coordinates":[-80.6003554,43.3026281]},"properties":{"premiseId":"P-00518"}},{"type":"Feature","id":"SVC-P-00519","geometry":{"type":"Point","coordinates":[-80.6003551,43.3024604]},"properties":{"premiseId":"P-00519"}},{"type":"Feature","id":"SVC-P-00520","geometry":{"type":"Point","coordinates":[-80.6003549,43.3022922]},"properties":{"premiseId":"P-00520"}},{"type":"Feature","id":"SVC-P-00521","geometry":{"type":"Point","coordinates":[-80.6003548,43.3021303]},"properties":{"premiseId":"P-00521"}},{"type":"Feature","id":"SVC-P-00522","geometry":{"type":"Point","coordinates":[-80.6003547,43.3019552]},"properties":{"premiseId":"P-00522"}},{"type":"Feature","id":"SVC-P-00523","geometry":{"type":"Point","coordinates":[-80.6003546,43.3017906]},"properties":{"premiseId":"P-00523"}},{"type":"Feature","id":"SVC-P-00524","geometry":{"type":"Point","coordinates":[-80.6003546,43.3016304]},"properties":{"premiseId":"P-00524"}},{"type":"Feature","id":"SVC-P-00525","geometry":{"type":"Point","coordinates":[-80.6003547,43.3014547]},"properties":{"premiseId":"P-00525"}},{"type":"Feature","id":"SVC-P-00526","geometry":{"type":"Point","coordinates":[-80.6003548,43.3012786]},"properties":{"premiseId":"P-00526"}},{"type":"Feature","id":"SVC-P-00527","geometry":{"type":"Point","coordinates":[-80.6003549,43.3011172]},"properties":{"premiseId":"P-00527"}},{"type":"Feature","id":"SVC-P-00528","geometry":{"type":"Point","coordinates":[-80.6003551,43.3009525]},"properties":{"premiseId":"P-00528"}},{"type":"Feature","id":"SVC-P-00529","geometry":{"type":"Point","coordinates":[-80.6003552,43.3007741]},"properties":{"premiseId":"P-00529"}},{"type":"Feature","id":"SVC-P-00530","geometry":{"type":"Point","coordinates":[-80.6003552,43.3006125]},"properties":{"premiseId":"P-00530"}},{"type":"Feature","id":"SVC-P-00531","geometry":{"type":"Point","coordinates":[-80.6003553,43.3004487]},"properties":{"premiseId":"P-00531"}},{"type":"Feature","id":"SVC-P-00532","geometry":{"type":"Point","coordinates":[-80.6003554,43.3002797]},"properties":{"premiseId":"P-00532"}},{"type":"Feature","id":"SVC-P-00533","geometry":{"type":"Point","coordinates":[-80.6003555,43.3001195]},"properties":{"premiseId":"P-00533"}},{"type":"Feature","id":"SVC-P-00534","geometry":{"type":"Point","coordinates":[-80.6003557,43.2999436]},"properties":{"premiseId":"P-00534"}},{"type":"Feature","id":"SVC-P-00535","geometry":{"type":"Point","coordinates":[-80.6007266,43.3029647]},"properties":{"premiseId":"P-00535"}},{"type":"Feature","id":"SVC-P-00536","geometry":{"type":"Point","coordinates":[-80.6007261,43.3027987]},"properties":{"premiseId":"P-00536"}},{"type":"Feature","id":"SVC-P-00537","geometry":{"type":"Point","coordinates":[-80.6007257,43.3026253]},"properties":{"premiseId":"P-00537"}},{"type":"Feature","id":"SVC-P-00538","geometry":{"type":"Point","coordinates":[-80.6007254,43.3024663]},"properties":{"premiseId":"P-00538"}},{"type":"Feature","id":"SVC-P-00539","geometry":{"type":"Point","coordinates":[-80.6007252,43.3022998]},"properties":{"premiseId":"P-00539"}},{"type":"Feature","id":"SVC-P-00540","geometry":{"type":"Point","coordinates":[-80.6007251,43.3021323]},"properties":{"premiseId":"P-00540"}},{"type":"Feature","id":"SVC-P-00541","geometry":{"type":"Point","coordinates":[-80.600725,43.301963]},"properties":{"premiseId":"P-00541"}},{"type":"Feature","id":"SVC-P-00542","geometry":{"type":"Point","coordinates":[-80.6007249,43.3017886]},"properties":{"premiseId":"P-00542"}},{"type":"Feature","id":"SVC-P-00543","geometry":{"type":"Point","coordinates":[-80.6007249,43.3016259]},"properties":{"premiseId":"P-00543"}},{"type":"Feature","id":"SVC-P-00544","geometry":{"type":"Point","coordinates":[-80.600725,43.3014537]},"properties":{"premiseId":"P-00544"}},{"type":"Feature","id":"SVC-P-00545","geometry":{"type":"Point","coordinates":[-80.6007251,43.3012804]},"properties":{"premiseId":"P-00545"}},{"type":"Feature","id":"SVC-P-00546","geometry":{"type":"Point","coordinates":[-80.6007252,43.3011246]},"properties":{"premiseId":"P-00546"}},{"type":"Feature","id":"SVC-P-00547","geometry":{"type":"Point","coordinates":[-80.6007254,43.300955]},"properties":{"premiseId":"P-00547"}},{"type":"Feature","id":"SVC-P-00548","geometry":{"type":"Point","coordinates":[-80.6007255,43.3007795]},"properties":{"premiseId":"P-00548"}},{"type":"Feature","id":"SVC-P-00549","geometry":{"type":"Point","coordinates":[-80.6007256,43.3006102]},"properties":{"premiseId":"P-00549"}},{"type":"Feature","id":"SVC-P-00550","geometry":{"type":"Point","coordinates":[-80.6007256,43.3004463]},"properties":{"premiseId":"P-00550"}},{"type":"Feature","id":"SVC-P-00551","geometry":{"type":"Point","coordinates":[-80.6007257,43.3002866]},"properties":{"premiseId":"P-00551"}},{"type":"Feature","id":"SVC-P-00552","geometry":{"type":"Point","coordinates":[-80.6007258,43.3001159]},"properties":{"premiseId":"P-00552"}},{"type":"Feature","id":"SVC-P-00553","geometry":{"type":"Point","coordinates":[-80.5997794,43.2999013]},"properties":{"premiseId":"P-00553"}},{"type":"Feature","id":"SVC-P-00554","geometry":{"type":"Point","coordinates":[-80.5997697,43.3000401]},"properties":{"premiseId":"P-00554"}},{"type":"Feature","id":"SVC-P-00555","geometry":{"type":"Point","coordinates":[-80.5997543,43.3001893]},"properties":{"premiseId":"P-00555"}},{"type":"Feature","id":"SVC-P-00556","geometry":{"type":"Point","coordinates":[-80.5997357,43.3003323]},"properties":{"premiseId":"P-00556"}},{"type":"Feature","id":"SVC-P-00557","geometry":{"type":"Point","coordinates":[-80.5997153,43.300464]},"properties":{"premiseId":"P-00557"}},{"type":"Feature","id":"SVC-P-00558","geometry":{"type":"Point","coordinates":[-80.5994781,43.2992995]},"properties":{"premiseId":"P-00558"}},{"type":"Feature","id":"SVC-P-00559","geometry":{"type":"Point","coordinates":[-80.5994926,43.2991522]},"properties":{"premiseId":"P-00559"}},{"type":"Feature","id":"SVC-P-00560","geometry":{"type":"Point","coordinates":[-80.5995034,43.2990059]},"properties":{"premiseId":"P-00560"}},{"type":"Feature","id":"SVC-P-00561","geometry":{"type":"Point","coordinates":[-80.5996998,43.29931]},"properties":{"premiseId":"P-00561"}},{"type":"Feature","id":"SVC-P-00562","geometry":{"type":"Point","coordinates":[-80.5997142,43.2991639]},"properties":{"premiseId":"P-00562"}},{"type":"Feature","id":"SVC-P-00563","geometry":{"type":"Point","coordinates":[-80.5979547,43.2994708]},"properties":{"premiseId":"P-00563"}},{"type":"Feature","id":"SVC-P-00564","geometry":{"type":"Point","coordinates":[-80.5969505,43.2994666]},"properties":{"premiseId":"P-00564"}},{"type":"Feature","id":"SVC-P-00565","geometry":{"type":"Point","coordinates":[-80.5960332,43.2997316]},"properties":{"premiseId":"P-00565"}},{"type":"Feature","id":"SVC-P-00566","geometry":{"type":"Point","coordinates":[-80.595792,43.2997303]},"properties":{"premiseId":"P-00566"}},{"type":"Feature","id":"SVC-P-00567","geometry":{"type":"Point","coordinates":[-80.6007011,43.3045864]},"properties":{"premiseId":"P-00567"}},{"type":"Feature","id":"SVC-P-00568","geometry":{"type":"Point","coordinates":[-80.6063116,43.2998491]},"properties":{"premiseId":"P-00568"}},{"type":"Feature","id":"SVC-P-00569","geometry":{"type":"Point","coordinates":[-80.6006885,43.2947599]},"properties":{"premiseId":"P-00569"}},{"type":"Feature","id":"SVC-P-00570","geometry":{"type":"Point","coordinates":[-80.5936097,43.299472]},"properties":{"premiseId":"P-00570"}}]}