{"type":"FeatureCollection","name":"water_equipment","crs_note":"EPSG:4326","features":[{"type":"Feature","id":"HYD-00001","geometry":{"type":"Point","coordinates":[-80.6009603,43.3045847]},"properties":{"kind":"hydrant","edgeId":"water-E1","chainageM":5.0}},{"type":"Feature","id":"HYD-00002","geometry":{"type":"Point","coordinates":[-80.6004891,43.3036445]},"properties":{"kind":"hydrant","edgeId":"water-E2","chainageM":105.0}},{"type":"Feature","id":"HYD-00003","geometry":{"type":"Point","coordinates":[-80.6004855,43.3028217]},"properties":{"kind":"hydrant","edgeId":"water-E5","chainageM":15.0}},{"type":"Feature","id":"HYD-00004","geometry":{"type":"Point","coordinates":[-80.6004842,43.3019956]},"properties":{"kind":"hydrant","edgeId":"water-E15","chainageM":15.0}},{"type":"Feature","id":"HYD-00005","geometry":{"type":"Point","coordinates":[-80.6004844,43.3012337]},"properties":{"kind":"hydrant","edgeId":"water-E25","chainageM":5.0}},{"type":"Feature","id":"HYD-00006","geometry":{"type":"Point","coordinates":[-80.600485,43.3004755]},"properties":{"kind":"hydrant","edgeId":"water-E33","chainageM":15.0}},{"type":"Feature","id":"HYD-00007","geometry":{"type":"Point","coordinates":[-80.6004863,43.2997192]},"properties":{"kind":"hydrant","edgeId":"water-E40","chainageM":25.0}},{"type":"Feature","id":"HYD-00008","geometry":{"type":"Point","coordinates":[-80.5993668,43.2995685]},"properties":{"kind":"hydrant","edgeId":"water-E48","chainageM":15.0}},{"type":"Feature","id":"HYD-00009","geometry":{"type":"Point","coordinates":[-80.6015425,43.2995802]},"properties":{"kind":"hydrant","edgeId":"water-E51","chainageM":45.0}},{"type":"Feature","id":"HYD-00010","geometry":{"type":"Point","coordinates":[-80.5982479,43.299566]},"properties":{"kind":"hydrant","edgeId":"water-E62","chainageM":25.0}},{"type":"Feature","id":"HYD-00011","geometry":{"type":"Point","coordinates":[-80.6033252,43.2996152]},"properties":{"kind":"hydrant","edgeId":"water-E76","chainageM":45.0}},{"type":"Feature","id":"HYD-00012","geometry":{"type":"Point","coordinates":[-80.6004999,43.298956]},"properties":{"kind":"hydrant","edgeId":"water-E81","chainageM":5.0}},{"type":"Feature","id":"HYD-00013","geometry":{"type":"Point","coordinates":[-80.5971596,43.2995619]},"properties":{"kind":"hydrant","edgeId":"water-E97","chainageM":25.0}},{"type":"Feature","id":"HYD-00014","geometry":{"type":"Point","coordinates":[-80.605041,43.2996625]},"properties":{"kind":"hydrant","edgeId":"water-E134","chainageM":15.0}},{"type":"Feature","id":"HYD-00015","geometry":{"type":"Point","coordinates":[-80.6014849,43.2987055]},"properties":{"kind":"hydrant","edgeId":"water-E142","chainageM":5.0}},{"type":"Feature","id":"HYD-00016","geometry":{"type":"Point","coordinates":[-80.5985905,43.2987985]},"properties":{"kind":"hydrant","edgeId":"water-E145","chainageM":15.0}},{"type":"Feature","id":"HYD-00017","geometry":{"type":"Point","coordinates":[-80.5960825,43.2995567]},"properties":{"kind":"hydrant","edgeId":"water-E148","chainageM":25.0}},{"type":"Feature","id":"HYD-00018","geometry":{"type":"Point","coordinates":[-80.5987888,43.3002409]},"properties":{"kind":"hydrant","edgeId":"water-E151","chainageM":5.0}},{"type":"Feature","id":"HYD-00019","geometry":{"type":"Point","coordinates":[-80.5965296,43.3002309]},"properties":{"kind":"hydrant","edgeId":"water-E189","chainageM":5.0}},{"type":"Feature","id":"HYD-00020","geometry":{"type":"Point","coordinates":[-80.5952776,43.3000263]},"properties":{"kind":"hydrant","edgeId":"water-E207","chainageM":55.0}},{"type":"Feature","id":"HYD-00021","geometry":{"type":"Point","coordinates":[-80.5974321,43.2987897]},"properties":{"kind":"hydrant","edgeId":"water-E225","chainageM":5.0}},{"type":"Feature","id":"HYD-00022","geometry":{"type":"Point","coordinates":[-80.5996818,43.298504]},"properties":{"kind":"hydrant","edgeId":"water-E234","chainageM":5.0}},{"type":"Feature","id":"HYD-00023","geometry":{"type":"Point","coordinates":[-80.602331,43.3007261]},"properties":{"kind":"hydrant","edgeId":"water-E264","chainageM":5.0}},{"type":"Feature","id":"HYD-00024","geometry":{"type":"Point","coordinates":[-80.5936374,43.299543]},"properties":{"kind":"hydrant","edgeId":"water-E272","chainageM":35.0}},{"type":"Feature","id":"HYD-00025","geometry":{"type":"Point","coordinates":[-80.6048509,43.2983522]},"properties":{"kind":"hydrant","edgeId":"water-E279","chainageM":5.0}},{"type":"Feature","id":"HYD-00026","geometry":{"type":"Point","coordinates":[-80.6015982,43.2979223]},"properties":{"kind":"hydrant","edgeId":"water-E285","chainageM":15.0}},{"type":"Feature","id":"HYD-00027","geometry":{"type":"Point","coordinates":[-80.6005334,43.2980673]},"properties":{"kind":"hydrant","edgeId":"water-E287","chainageM":5.0}},{"type":"Feature","id":"HYD-00028","geometry":{"type":"Point","coordinates":[-80.5961673,43.2988055]},"properties":{"kind":"hydrant","edgeId":"water-E310","chainageM":5.0}},{"type":"Feature","id":"HYD-00029","geometry":{"type":"Point","coordinates":[-80.5995459,43.3015655]},"properties":{"kind":"hydrant","edgeId":"water-E370","chainageM":15.0}},{"type":"Feature","id":"HYD-00030","geometry":{"type":"Point","coordinates":[-80.6046259,43.3008808]},"properties":{"kind":"hydrant","edgeId":"water-E371","chainageM":5.0}},{"type":"Feature","id":"HYD-00031","geometry":{"type":"Point","coordinates":[-80.599609,43.2976692]},"properties":{"kind":"hydrant","edgeId":"water-E387","chainageM":15.0}},{"type":"Feature","id":"HYD-00032","geometry":{"type":"Point","coordinates":[-80.5977534,43.3012665]},"properties":{"kind":"hydrant","edgeId":"water-E403","chainageM":15.0}},{"type":"Feature","id":"HYD-00033","geometry":{"type":"Point","coordinates":[-80.6017387,43.2971437]},"properties":{"kind":"hydrant","edgeId":"water-E413","chainageM":15.0}},{"type":"Feature","id":"HYD-00034","geometry":{"type":"Point","coordinates":[-80.6005746,43.2973177]},"properties":{"kind":"hydrant","edgeId":"water-E432","chainageM":5.0}},{"type":"Feature","id":"HYD-00035","geometry":{"type":"Point","coordinates":[-80.5973206,43.2974762]},"properties":{"kind":"hydrant","edgeId":"water-E464","chainageM":15.0}},{"type":"Feature","id":"HYD-00036","geometry":{"type":"Point","coordinates":[-80.59543,43.3013055]},"properties":{"kind":"hydrant","edgeId":"water-E479","chainageM":5.0}},{"type":"Feature","id":"HYD-00037","geometry":{"type":"Point","coordinates":[-80.6036424,43.297444]},"properties":{"kind":"hydrant","edgeId":"water-E485","chainageM":15.0}},{"type":"Feature","id":"HYD-00038","geometry":{"type":"Point","coordinates":[-80.5994542,43.3023352]},"properties":{"kind":"hydrant","edgeId":"water-E521","chainageM":5.0}},{"type":"Feature","id":"HYD-00039","geometry":{"type":"Point","coordinates":[-80.6024175,43.3020454]},"properties":{"kind":"hydrant","edgeId":"water-E523","chainageM":5.0}},{"type":"Feature","id":"HYD-00040","geometry":{"type":"Point","coordinates":[-80.5995015,43.2968909]},"properties":{"kind":"hydrant","edgeId":"water-E530","chainageM":5.0}},{"type":"Feature","id":"HYD-00041","geometry":{"type":"Point","coordinates":[-80.6006314,43.2964934]},"properties":{"kind":"hydrant","edgeId":"water-E535","chainageM":15.0}},{"type":"Feature","id":"HYD-00042","geometry":{"type":"Point","coordinates":[-80.6007419,43.2951813]},"properties":{"kind":"hydrant","edgeId":"water-E545","chainageM":145.0}},{"type":"Feature","id":"HYD-00043","geometry":{"type":"Point","coordinates":[-80.5975857,43.3025534]},"properties":{"kind":"hydrant","edgeId":"water-E584","chainageM":5.0}},{"type":"Feature","id":"HYD-00044","geometry":{"type":"Point","coordinates":[-80.5994986,43.303102]},"properties":{"kind":"hydrant","edgeId":"water-E593","chainageM":5.0}},{"type":"Feature","id":"HYD-00045","geometry":{"type":"Point","coordinates":[-80.6014531,43.303124]},"properties":{"kind":"hydrant","edgeId":"water-E595","chainageM":15.0}},{"type":"Feature","id":"WV-00001","geometry":{"type":"Point","coordinates":[-80.6005345,43.3045874]},"properties":{"kind":"valve","edgeId":"water-E1","normally":"open"}},{"type":"Feature","id":"WV-00002","geometry":{"type":"Point","coordinates":[-80.6004974,43.3045875]},"properties":{"kind":"valve","edgeId":"water-E2","normally":"open"}},{"type":"Feature","id":"WV-00003","geometry":{"type":"Point","coordinates":[-80.6004871,43.2996283]},"properties":{"kind":"valve","edgeId":"water-E40","normally":"open"}},{"type":"Feature","id":"WV-00004","geometry":{"type":"Point","coordinates":[-80.6004868,43.2995904]},"properties":{"kind":"valve","edgeId":"water-E41","normally":"open"}},{"type":"Feature","id":"WV-00005","geometry":{"type":"Point","coordinates":[-80.6005173,43.2995949]},"properties":{"kind":"valve","edgeId":"water-E42","normally":"open"}},{"type":"Feature","id":"WV-00006","geometry":{"type":"Point","coordinates":[-80.5999208,43.2995689]},"properties":{"kind":"valve","edgeId":"water-E41","normally":"open"}},{"type":"Feature","id":"WV-00007","geometry":{"type":"Point","coordinates":[-80.5998822,43.2995689]},"properties":{"kind":"valve","edgeId":"water-E44","normally":"open"}},{"type":"Feature","id":"WV-00008","geometry":{"type":"Point","coordinates":[-80.599589,43.2995687]},"properties":{"kind":"valve","edgeId":"water-E44","normally":"open"}},{"type":"Feature","id":"WV-00009","geometry":{"type":"Point","coordinates":[-80.5995175,43.2995687]},"properties":{"kind":"valve","edgeId":"water-E48","normally":"open"}},{"type":"Feature","id":"WV-00010","geometry":{"type":"Point","coordinates":[-80.5987763,43.2995674]},"properties":{"kind":"valve","edgeId":"water-E48","normally":"open"}},{"type":"Feature","id":"WV-00011","geometry":{"type":"Point","coordinates":[-80.5987377,43.2995673]},"properties":{"kind":"valve","edgeId":"water-E53","normally":"open"}},{"type":"Feature","id":"WV-00012","geometry":{"type":"Point","coordinates":[-80.6015949,43.299584]},"properties":{"kind":"valve","edgeId":"water-E51","normally":"open"}},{"type":"Feature","id":"WV-00013","geometry":{"type":"Point","coordinates":[-80.6016283,43.2995844]},"properties":{"kind":"valve","edgeId":"water-E57","normally":"open"}},{"type":"Feature","id":"WV-00014","geometry":{"type":"Point","coordinates":[-80.6015997,43.2995638]},"properties":{"kind":"valve","edgeId":"water-E58","normally":"open"}},{"type":"Feature","id":"WV-00015","geometry":{"type":"Point","coordinates":[-80.5985569,43.2995669]},"properties":{"kind":"valve","edgeId":"water-E53","normally":"open"}},{"type":"Feature","id":"WV-00016","geometry":{"type":"Point","coordinates":[-80.5985846,43.299581]},"properties":{"kind":"valve","edgeId":"water-E61","normally":"open"}},{"type":"Feature","id":"WV-00017","geometry":{"type":"Point","coordinates":[-80.602511,43.2995944]},"properties":{"kind":"valve","edgeId":"water-E57","normally":"open"}},{"type":"Feature","id":"WV-00018","geometry":{"type":"Point","coordinates":[-80.6025552,43.2995953]},"properties":{"kind":"valve","edgeId":"water-E66","normally":"open"}},{"type":"Feature","id":"WV-00019","geometry":{"type":"Point","coordinates":[-80.6027508,43.299605]},"properties":{"kind":"valve","edgeId":"water-E66","normally":"open"}},{"type":"Feature","id":"WV-00020","geometry":{"type":"Point","coordinates":[-80.6027841,43.2996058]},"properties":{"kind":"valve","edgeId":"water-E76","normally":"open"}},{"type":"Feature","id":"WV-00021","geometry":{"type":"Point","coordinates":[-80.5975528,43.2995636]},"properties":{"kind":"valve","edgeId":"water-E72","normally":"open"}},{"type":"Feature","id":"WV-00022","geometry":{"type":"Point","coordinates":[-80.5975141,43.2995634]},"properties":{"kind":"valve","edgeId":"water-E83","normally":"open"}},{"type":"Feature","id":"WV-00023","geometry":{"type":"Point","coordinates":[-80.6034274,43.2996155]},"properties":{"kind":"valve","edgeId":"water-E76","normally":"open"}},{"type":"Feature","id":"WV-00024","geometry":{"type":"Point","coordinates":[-80.6034713,43.2996166]},"properties":{"kind":"valve","edgeId":"water-E88","normally":"open"}},{"type":"Feature","id":"WV-00025","geometry":{"type":"Point","coordinates":[-80.5974221,43.2995857]},"properties":{"kind":"valve","edgeId":"water-E83","normally":"open"}},{"type":"Feature","id":"WV-00026","geometry":{"type":"Point","coordinates":[-80.5974578,43.2996028]},"properties":{"kind":"valve","edgeId":"water-E96","normally":"open"}},{"type":"Feature","id":"WV-00027","geometry":{"type":"Point","coordinates":[-80.6038401,43.2996313]},"properties":{"kind":"valve","edgeId":"water-E88","normally":"open"}},{"type":"Feature","id":"WV-00028","geometry":{"type":"Point","coordinates":[-80.6038713,43.2996321]},"properties":{"kind":"valve","edgeId":"water-E102","normally":"open"}},{"type":"Feature","id":"WV-00029","geometry":{"type":"Point","coordinates":[-80.6044287,43.2996447]},"properties":{"kind":"valve","edgeId":"water-E102","normally":"open"}},{"type":"Feature","id":"WV-00030","geometry":{"type":"Point","coordinates":[-80.6044672,43.2996458]},"properties":{"kind":"valve","edgeId":"water-E117","normally":"open"}},{"type":"Feature","id":"WV-00031","geometry":{"type":"Point","coordinates":[-80.5963928,43.2995583]},"properties":{"kind":"valve","edgeId":"water-E112","normally":"open"}},{"type":"Feature","id":"WV-00032","geometry":{"type":"Point","coordinates":[-80.5963529,43.2995609]},"properties":{"kind":"valve","edgeId":"water-E128","normally":"open"}},{"type":"Feature","id":"WV-00033","geometry":{"type":"Point","coordinates":[-80.6048322,43.2996563]},"properties":{"kind":"valve","edgeId":"water-E117","normally":"open"}},{"type":"Feature","id":"WV-00034","geometry":{"type":"Point","coordinates":[-80.6048708,43.2996574]},"properties":{"kind":"valve","edgeId":"water-E134","normally":"open"}},{"type":"Feature","id":"WV-00035","geometry":{"type":"Point","coordinates":[-80.6044792,43.2997495]},"properties":{"kind":"valve","edgeId":"water-E118","normally":"open"}},{"type":"Feature","id":"WV-00036","geometry":{"type":"Point","coordinates":[-80.6045254,43.299767]},"properties":{"kind":"valve","edgeId":"water-E136","normally":"open"}},{"type":"Feature","id":"WV-00037","geometry":{"type":"Point","coordinates":[-80.5963529,43.2995609]},"properties":{"kind":"valve","edgeId":"water-E128","normally":"open"}},{"type":"Feature","id":"WV-00038","geometry":{"type":"Point","coordinates":[-80.5962925,43.2995807]},"properties":{"kind":"valve","edgeId":"water-E147","normally":"open"}},{"type":"Feature","id":"WV-00039","geometry":{"type":"Point","coordinates":[-80.5964927,43.3000036]},"properties":{"kind":"valve","edgeId":"water-E149","normally":"open"}},{"type":"Feature","id":"WV-00040","geometry":{"type":"Point","coordinates":[-80.5965015,43.3000434]},"properties":{"kind":"valve","edgeId":"water-E169","normally":"open"}},{"type":"Feature","id":"WV-00041","geometry":{"type":"Point","coordinates":[-80.5953899,43.2995508]},"properties":{"kind":"valve","edgeId":"water-E188","normally":"open"}},{"type":"Feature","id":"WV-00042","geometry":{"type":"Point","coordinates":[-80.5953585,43.2995714]},"properties":{"kind":"valve","edgeId":"water-E207","normally":"open"}},{"type":"Feature","id":"WV-00043","geometry":{"type":"Point","coordinates":[-80.5952776,43.3000129]},"properties":{"kind":"valve","edgeId":"water-E207","normally":"open"}},{"type":"Feature","id":"WV-00044","geometry":{"type":"Point","coordinates":[-80.5953139,43.3000227]},"properties":{"kind":"valve","edgeId":"water-E227","normally":"open"}},{"type":"Feature","id":"WV-00045","geometry":{"type":"Point","coordinates":[-80.5987895,43.3007388]},"properties":{"kind":"valve","edgeId":"water-E212","normally":"open"}},{"type":"Feature","id":"WV-00046","geometry":{"type":"Point","coordinates":[-80.5987856,43.300789]},"properties":{"kind":"valve","edgeId":"water-E233","normally":"open"}},{"type":"Feature","id":"WV-00047","geometry":{"type":"Point","coordinates":[-80.5997242,43.3007383]},"properties":{"kind":"valve","edgeId":"water-E214","normally":"open"}},{"type":"Feature","id":"WV-00048","geometry":{"type":"Point","coordinates":[-80.5997159,43.3007893]},"properties":{"kind":"valve","edgeId":"water-E235","normally":"open"}},{"type":"Feature","id":"WV-00049","geometry":{"type":"Point","coordinates":[-80.6016003,43.2979121]},"properties":{"kind":"valve","edgeId":"water-E285","normally":"open"}},{"type":"Feature","id":"WV-00050","geometry":{"type":"Point","coordinates":[-80.6016422,43.297881]},"properties":{"kind":"valve","edgeId":"water-E304","normally":"open"}},{"type":"Feature","id":"WV-00051","geometry":{"type":"Point","coordinates":[-80.6026368,43.2979227]},"properties":{"kind":"valve","edgeId":"water-E356","normally":"open"}},{"type":"Feature","id":"WV-00052","geometry":{"type":"Point","coordinates":[-80.602641,43.297869]},"properties":{"kind":"valve","edgeId":"water-E374","normally":"open"}},{"type":"Feature","id":"WV-00053","geometry":{"type":"Point","coordinates":[-80.6026486,43.2977792]},"properties":{"kind":"valve","edgeId":"water-E374","normally":"open"}},{"type":"Feature","id":"WV-00054","geometry":{"type":"Point","coordinates":[-80.6026874,43.2977435]},"properties":{"kind":"valve","edgeId":"water-E392","normally":"open"}},{"type":"Feature","id":"WV-00055","geometry":{"type":"Point","coordinates":[-80.6036433,43.2977766]},"properties":{"kind":"valve","edgeId":"water-E457","normally":"open"}},{"type":"Feature","id":"WV-00056","geometry":{"type":"Point","coordinates":[-80.6036422,43.2977227]},"properties":{"kind":"valve","edgeId":"water-E471","normally":"open"}},{"type":"Feature","id":"water-supply","geometry":{"type":"Point","coordinates":[-80.601022,43.3058523]},"properties":{"kind":"external_supply","label":"Treated water supply (off-map)","elevationM":82.452}},{"type":"Feature","id":"water-station","geometry":{"type":"Point","coordinates":[-80.601022,43.3045843]},"properties":{"kind":"pump_station","label":"Pumping station","facilityId":"PUMP-01","pumps":3,"elevationM":83.947}},{"type":"Feature","id":"water-tank-1","geometry":{"type":"Point","coordinates":[-80.5999536,43.2979597]},"properties":{"kind":"elevated_tank","label":"Elevated water tank 1","facilityId":"TANK-01","zone":0,"overflowElevationM":133.53,"capacityM3":3785.0,"elevationM":90.783}}]}