{"type":"FeatureCollection","name":"water_transmission","crs_note":"EPSG:4326","features":[{"type":"Feature","id":"water-E0","geometry":{"type":"LineString","coordinates":[[-80.601022,43.3058523],[-80.6005621,43.3052327],[-80.6005616,43.3052046],[-80.6005608,43.3051485],[-80.6005599,43.3050923],[-80.600559,43.3050362],[-80.6005582,43.3049801],[-80.6005574,43.3049239],[-80.6005566,43.3048678],[-80.6005558,43.3048116],[-80.6005551,43.3047555],[-80.6005543,43.3046993],[-80.6005537,43.3046432],[-80.600553,43.3045873],[-80.601022,43.3045843]]},"properties":{"kind":"supply","tier":"transmission","placement":"underground","from":"water-supply","to":"water-station","lengthM":188.24,"sizeMm":400,"diameterIn":15.7,"nominalLabel":"16\" ductile iron","material":"ductile iron","depthM":1.8,"zone":0}}]}