{"type":"FeatureCollection","name":"electric_transmission","crs_note":"EPSG:4326","features":[{"type":"Feature","id":"electric-E0","geometry":{"type":"LineString","coordinates":[[-78.945258,43.8744653],[-78.9448865,43.8736028],[-78.9448824,43.8735867],[-78.944771,43.873327],[-78.9445906,43.8729063],[-78.9444397,43.872575],[-78.9443553,43.8723744],[-78.9442137,43.8720497],[-78.9441375,43.871874],[-78.9445768,43.8713514]]},"properties":{"kind":"supply","tier":"transmission","placement":"overhead","from":"electric-supply","to":"electric-station","lengthM":370.19,"voltageKV":115.0,"conductor":"795 kcmil ACSR (115 kV)","designRole":"supply"}}]}