{"type":"FeatureCollection","name":"electric_secondary","crs_note":"EPSG:4326","features":[{"type":"Feature","id":"electric-E201","geometry":{"type":"LineString","coordinates":[[-78.9447334,43.868468],[-78.9447111,43.8684665]]},"properties":{"kind":"transformer","tier":"transformer","placement":"underground","from":"electric-T-93","to":"electric-TX-00001","lengthM":1.8,"voltageKV":13.8,"secondaryVoltageKV":0.24,"ratingKVA":25.0,"phases":1,"phase":"C","feeder":"F1-01"}},{"type":"Feature","id":"electric-E203","geometry":{"type":"LineString","coordinates":[[-78.9441095,43.867609],[-78.9441079,43.8676251]]},"properties":{"kind":"transformer","tier":"transformer","placement":"underground","from":"electric-T-94","to":"electric-TX-00002","lengthM":1.8,"voltageKV":13.8,"secondaryVoltageKV":0.24,"ratingKVA":50.0,"phases":1,"phase":"A","feeder":"F1-01"}},{"type":"Feature","id":"electric-E212","geometry":{"type":"LineString","coordinates":[[-78.9436749,43.8682299],[-78.9435048,43.8682651]]},"properties":{"kind":"transformer","tier":"transformer","placement":"underground","from":"electric-T-95","to":"electric-TX-00003","lengthM":14.2,"voltageKV":13.8,"secondaryVoltageKV":0.24,"ratingKVA":50.0,"phases":1,"phase":"A","feeder":"F1-01"}},{"type":"Feature","id":"electric-E223","geometry":{"type":"LineString","coordinates":[[-78.9440731,43.8690107],[-78.9440895,43.8689997]]},"properties":{"kind":"transformer","tier":"transformer","placement":"underground","from":"electric-T-96","to":"electric-TX-00004","lengthM":1.8,"voltageKV":13.8,"secondaryVoltageKV":0.24,"ratingKVA":25.0,"phases":1,"phase":"A","feeder":"F1-01"}},{"type":"Feature","id":"electric-E233","geometry":{"type":"LineString","coordinates":[[-78.9444887,43.8693321],[-78.9443592,43.8694191]]},"properties":{"kind":"transformer","tier":"transformer","placement":"underground","from":"electric-T-97","to":"electric-TX-00005","lengthM":14.2,"voltageKV":13.8,"secondaryVoltageKV":0.24,"ratingKVA":25.0,"phases":1,"phase":"A","feeder":"F1-01"}},{"type":"Feature","id":"electric-E235","geometry":{"type":"LineString","coordinates":[[-78.9432068,43.8706675],[-78.9431471,43.8705285]]},"properties":{"kind":"transformer","tier":"transformer","placement":"underground","from":"electric-T-98","to":"electric-TX-00006","lengthM":16.2,"voltageKV":13.8,"secondaryVoltageKV":0.24,"ratingKVA":25.0,"phases":1,"phase":"ABC","feeder":"F1-01"}},{"type":"Feature","id":"electric-E238","geometry":{"type":"LineString","coordinates":[[-78.942394,43.8711128],[-78.9423725,43.8711176]]},"properties":{"kind":"transformer","tier":"transformer","placement":"underground","from":"electric-T-99","to":"electric-TX-00007","lengthM":1.8,"voltageKV":13.8,"secondaryVoltageKV":0.24,"ratingKVA":25.0,"phases":1,"phase":"C","feeder":"F1-01"}},{"type":"Feature","id":"electric-E244","geometry":{"type":"LineString","coordinates":[[-78.9418985,43.8720727],[-78.9418448,43.8719511]]},"properties":{"kind":"transformer","tier":"transformer","placement":"underground","from":"electric-T-100","to":"electric-TX-00008","lengthM":14.2,"voltageKV":13.8,"secondaryVoltageKV":0.24,"ratingKVA":25.0,"phases":1,"phase":"C","feeder":"F1-01"}},{"type":"Feature","id":"electric-E247","geometry":{"type":"LineString","coordinates":[[-78.9417067,43.8681268],[-78.9417136,43.8681422]]},"properties":{"kind":"transformer","tier":"transformer","placement":"underground","from":"electric-T-101","to":"electric-TX-00009","lengthM":1.8,"voltageKV":13.8,"secondaryVoltageKV":0.24,"ratingKVA":50.0,"phases":1,"phase":"B","feeder":"F1-01"}},{"type":"Feature","id":"electric-E256","geometry":{"type":"LineString","coordinates":[[-78.942078,43.8703879],[-78.9420567,43.8703928]]},"properties":{"kind":"transformer","tier":"transformer","placement":"underground","from":"electric-T-102","to":"electric-TX-00010","lengthM":1.8,"voltageKV":13.8,"secondaryVoltageKV":0.24,"ratingKVA":50.0,"phases":1,"phase":"C","feeder":"F1-01"}},{"type":"Feature","id":"electric-E267","geometry":{"type":"LineString","coordinates":[[-78.9417609,43.8696744],[-78.9417396,43.8696793]]},"properties":{"kind":"transformer","tier":"transformer","placement":"underground","from":"electric-T-103","to":"electric-TX-00011","lengthM":1.8,"voltageKV":13.8,"secondaryVoltageKV":0.24,"ratingKVA":50.0,"phases":1,"phase":"C","feeder":"F1-01"}},{"type":"Feature","id":"electric-E278","geometry":{"type":"LineString","coordinates":[[-78.9417614,43.8709897],[-78.9417753,43.8710223]]},"properties":{"kind":"transformer","tier":"transformer","placement":"underground","from":"electric-T-104","to":"electric-TX-00012","lengthM":3.8,"voltageKV":13.8,"secondaryVoltageKV":0.24,"ratingKVA":25.0,"phases":1,"phase":"ABC","feeder":"F1-01"}},{"type":"Feature","id":"electric-E281","geometry":{"type":"LineString","coordinates":[[-78.9413727,43.8687934],[-78.9413513,43.8687982]]},"properties":{"kind":"transformer","tier":"transformer","placement":"underground","from":"electric-T-105","to":"electric-TX-00013","lengthM":1.8,"voltageKV":13.8,"secondaryVoltageKV":0.24,"ratingKVA":50.0,"phases":1,"phase":"C","feeder":"F1-01"}},{"type":"Feature","id":"electric-E292","geometry":{"type":"LineString","coordinates":[[-78.9408254,43.8694617],[-78.9408319,43.8694771]]},"properties":{"kind":"transformer","tier":"transformer","placement":"underground","from":"electric-T-106","to":"electric-TX-00014","lengthM":1.8,"voltageKV":13.8,"secondaryVoltageKV":0.24,"ratingKVA":25.0,"phases":1,"phase":"C","feeder":"F1-01"}},{"type":"Feature","id":"electric-E297","geometry":{"type":"LineString","coordinates":[[-78.9412419,43.8715258],[-78.9412205,43.8715305]]},"properties":{"kind":"transformer","tier":"transformer","placement":"underground","from":"electric-T-107","to":"electric-TX-00015","lengthM":1.8,"voltageKV":13.8,"secondaryVoltageKV":0.24,"ratingKVA":50.0,"phases":1,"phase":"A","feeder":"F1-01"}},{"type":"Feature","id":"electric-E307","geometry":{"type":"LineString","coordinates":[[-78.9407691,43.872325],[-78.940717,43.8722031]]},"properties":{"kind":"transformer","tier":"transformer","placement":"underground","from":"electric-T-108","to":"electric-TX-00016","lengthM":14.2,"voltageKV":13.8,"secondaryVoltageKV":0.24,"ratingKVA":25.0,"phases":1,"phase":"A","feeder":"F1-01"}},{"type":"Feature","id":"electric-E311","geometry":{"type":"LineString","coordinates":[[-78.9408562,43.8676159],[-78.9408348,43.8676208]]},"properties":{"kind":"transformer","tier":"transformer","placement":"underground","from":"electric-T-109","to":"electric-TX-00017","lengthM":1.8,"voltageKV":13.8,"secondaryVoltageKV":0.24,"ratingKVA":50.0,"phases":1,"phase":"B","feeder":"F1-01"}},{"type":"Feature","id":"electric-E322","geometry":{"type":"LineString","coordinates":[[-78.9406647,43.8671741],[-78.9406433,43.867179]]},"properties":{"kind":"transformer","tier":"transformer","placement":"underground","from":"electric-T-110","to":"electric-TX-00018","lengthM":1.8,"voltageKV":13.8,"secondaryVoltageKV":0.24,"ratingKVA":25.0,"phases":1,"phase":"B","feeder":"F1-01"}},{"type":"Feature","id":"electric-E325","geometry":{"type":"LineString","coordinates":[[-78.9403738,43.8684368],[-78.9403807,43.8684522]]},"properties":{"kind":"transformer","tier":"transformer","placement":"underground","from":"electric-T-111","to":"electric-TX-00019","lengthM":1.8,"voltageKV":13.8,"secondaryVoltageKV":0.24,"ratingKVA":25.0,"phases":1,"phase":"B","feeder":"F1-01"}},{"type":"Feature","id":"electric-E330","geometry":{"type":"LineString","coordinates":[[-78.9408539,43.8706061],[-78.9408324,43.8706108]]},"properties":{"kind":"transformer","tier":"transformer","placement":"underground","from":"electric-T-112","to":"electric-TX-00020","lengthM":1.8,"voltageKV":13.8,"secondaryVoltageKV":0.24,"ratingKVA":50.0,"phases":1,"phase":"A","feeder":"F1-01"}},{"type":"Feature","id":"electric-E341","geometry":{"type":"LineString","coordinates":[[-78.9406202,43.8700474],[-78.9405988,43.8700521]]},"properties":{"kind":"transformer","tier":"transformer","placement":"underground","from":"electric-T-113","to":"electric-TX-00021","lengthM":1.8,"voltageKV":13.8,"secondaryVoltageKV":0.24,"ratingKVA":25.0,"phases":1,"phase":"A","feeder":"F1-01"}},{"type":"Feature","id":"electric-E346","geometry":{"type":"LineString","coordinates":[[-78.940531,43.8712637],[-78.9405451,43.8712963]]},"properties":{"kind":"transformer","tier":"transformer","placement":"underground","from":"electric-T-114","to":"electric-TX-00022","lengthM":3.8,"voltageKV":13.8,"secondaryVoltageKV":0.24,"ratingKVA":25.0,"phases":1,"phase":"ABC","feeder":"F1-01"}},{"type":"Feature","id":"electric-E349","geometry":{"type":"LineString","coordinates":[[-78.9404517,43.8696531],[-78.9404303,43.869658]]},"properties":{"kind":"transformer","tier":"transformer","placement":"underground","from":"electric-T-115","to":"electric-TX-00023","lengthM":1.8,"voltageKV":13.8,"secondaryVoltageKV":0.24,"ratingKVA":25.0,"phases":1,"phase":"A","feeder":"F1-01"}},{"type":"Feature","id":"electric-E351","geometry":{"type":"LineString","coordinates":[[-78.9397877,43.8700264],[-78.9397943,43.8700419]]},"properties":{"kind":"transformer","tier":"transformer","placement":"underground","from":"electric-T-116","to":"electric-TX-00024","lengthM":1.8,"voltageKV":13.8,"secondaryVoltageKV":0.24,"ratingKVA":25.0,"phases":1,"phase":"A","feeder":"F1-01"}},{"type":"Feature","id":"electric-E358","geometry":{"type":"LineString","coordinates":[[-78.9401893,43.8690603],[-78.9401679,43.8690652]]},"properties":{"kind":"transformer","tier":"transformer","placement":"underground","from":"electric-T-117","to":"electric-TX-00025","lengthM":1.8,"voltageKV":13.8,"secondaryVoltageKV":0.24,"ratingKVA":25.0,"phases":1,"phase":"A","feeder":"F1-01"}},{"type":"Feature","id":"electric-E366","geometry":{"type":"LineString","coordinates":[[-78.9399995,43.868631],[-78.9401538,43.8685955]]},"properties":{"kind":"transformer","tier":"transformer","placement":"overhead","from":"electric-T-118","to":"electric-TX-00026","lengthM":13.0,"voltageKV":13.8,"secondaryVoltageKV":0.24,"ratingKVA":25.0,"phases":1,"phase":"B","feeder":"F1-01"}},{"type":"Feature","id":"electric-E368","geometry":{"type":"LineString","coordinates":[[-78.9400087,43.8717968],[-78.9399873,43.8718016]]},"properties":{"kind":"transformer","tier":"transformer","placement":"underground","from":"electric-T-119","to":"electric-TX-00027","lengthM":1.8,"voltageKV":13.8,"secondaryVoltageKV":0.24,"ratingKVA":50.0,"phases":1,"phase":"C","feeder":"F1-01"}},{"type":"Feature","id":"electric-E379","geometry":{"type":"LineString","coordinates":[[-78.9392475,43.8685792],[-78.9392475,43.8685792]]},"properties":{"kind":"transformer","tier":"transformer","placement":"overhead","from":"electric-T-120","to":"electric-TX-00028","lengthM":0.0,"voltageKV":13.8,"secondaryVoltageKV":0.24,"ratingKVA":25.0,"phases":1,"phase":"B","feeder":"F1-01"}},{"type":"Feature","id":"electric-E386","geometry":{"type":"LineString","coordinates":[[-78.939883,43.8679717],[-78.939883,43.8679717]]},"properties":{"kind":"transformer","tier":"transformer","placement":"overhead","from":"electric-T-121","to":"electric-TX-00029","lengthM":0.0,"voltageKV":13.8,"secondaryVoltageKV":0.24,"ratingKVA":25.0,"phases":1,"phase":"B","feeder":"F1-01"}},{"type":"Feature","id":"electric-E388","geometry":{"type":"LineString","coordinates":[[-78.9398456,43.8678853],[-78.9398599,43.8678821]]},"properties":{"kind":"transformer","tier":"transformer","placement":"underground","from":"electric-T-122","to":"electric-TX-00030","lengthM":1.2,"voltageKV":13.8,"secondaryVoltageKV":0.24,"ratingKVA":25.0,"phases":1,"phase":"B","feeder":"F1-01"}},{"type":"Feature","id":"electric-E391","geometry":{"type":"LineString","coordinates":[[-78.9397092,43.8675707],[-78.9397092,43.8675707]]},"properties":{"kind":"transformer","tier":"transformer","placement":"overhead","from":"electric-T-123","to":"electric-TX-00031","lengthM":0.0,"voltageKV":13.8,"secondaryVoltageKV":0.24,"ratingKVA":25.0,"phases":1,"phase":"B","feeder":"F1-01"}},{"type":"Feature","id":"electric-E398","geometry":{"type":"LineString","coordinates":[[-78.9395055,43.8671012],[-78.9395055,43.8671012]]},"properties":{"kind":"transformer","tier":"transformer","placement":"overhead","from":"electric-T-124","to":"electric-TX-00032","lengthM":0.0,"voltageKV":13.8,"secondaryVoltageKV":0.24,"ratingKVA":25.0,"phases":1,"phase":"B","feeder":"F1-01"}},{"type":"Feature","id":"electric-E405","geometry":{"type":"LineString","coordinates":[[-78.9384866,43.866874],[-78.9384866,43.866874]]},"properties":{"kind":"transformer","tier":"transformer","placement":"overhead","from":"electric-T-125","to":"electric-TX-00033","lengthM":0.0,"voltageKV":13.8,"secondaryVoltageKV":0.24,"ratingKVA":25.0,"phases":1,"phase":"B","feeder":"F1-01"}},{"type":"Feature","id":"electric-E410","geometry":{"type":"LineString","coordinates":[[-78.9382145,43.867572],[-78.9382145,43.867572]]},"properties":{"kind":"transformer","tier":"transformer","placement":"overhead","from":"electric-T-126","to":"electric-TX-00034","lengthM":0.0,"voltageKV":13.8,"secondaryVoltageKV":0.24,"ratingKVA":25.0,"phases":1,"phase":"B","feeder":"F1-01"}},{"type":"Feature","id":"electric-E417","geometry":{"type":"LineString","coordinates":[[-78.9384134,43.8680516],[-78.9384134,43.8680516]]},"properties":{"kind":"transformer","tier":"transformer","placement":"overhead","from":"electric-T-127","to":"electric-TX-00035","lengthM":0.0,"voltageKV":13.8,"secondaryVoltageKV":0.24,"ratingKVA":25.0,"phases":1,"phase":"B","feeder":"F1-01"}},{"type":"Feature","id":"electric-E424","geometry":{"type":"LineString","coordinates":[[-78.9385761,43.8684437],[-78.9385761,43.8684437]]},"properties":{"kind":"transformer","tier":"transformer","placement":"overhead","from":"electric-T-128","to":"electric-TX-00036","lengthM":0.0,"voltageKV":13.8,"secondaryVoltageKV":0.24,"ratingKVA":25.0,"phases":1,"phase":"B","feeder":"F1-01"}},{"type":"Feature","id":"electric-E428","geometry":{"type":"LineString","coordinates":[[-78.9396177,43.8708839],[-78.9395963,43.8708886]]},"properties":{"kind":"transformer","tier":"transformer","placement":"underground","from":"electric-T-129","to":"electric-TX-00037","lengthM":1.8,"voltageKV":13.8,"secondaryVoltageKV":0.24,"ratingKVA":50.0,"phases":1,"phase":"B","feeder":"F1-01"}},{"type":"Feature","id":"electric-E439","geometry":{"type":"LineString","coordinates":[[-78.9393792,43.8703195],[-78.9393578,43.8703242]]},"properties":{"kind":"transformer","tier":"transformer","placement":"underground","from":"electric-T-130","to":"electric-TX-00038","lengthM":1.8,"voltageKV":13.8,"secondaryVoltageKV":0.24,"ratingKVA":25.0,"phases":1,"phase":"B","feeder":"F1-01"}},{"type":"Feature","id":"electric-E442","geometry":{"type":"LineString","coordinates":[[-78.9391878,43.8715642],[-78.9392017,43.8715969]]},"properties":{"kind":"transformer","tier":"transformer","placement":"underground","from":"electric-T-131","to":"electric-TX-00039","lengthM":3.8,"voltageKV":13.8,"secondaryVoltageKV":0.24,"ratingKVA":25.0,"phases":1,"phase":"ABC","feeder":"F1-01"}},{"type":"Feature","id":"electric-E447","geometry":{"type":"LineString","coordinates":[[-78.9391777,43.8698443],[-78.9391562,43.8698491]]},"properties":{"kind":"transformer","tier":"transformer","placement":"underground","from":"electric-T-132","to":"electric-TX-00040","lengthM":1.8,"voltageKV":13.8,"secondaryVoltageKV":0.24,"ratingKVA":25.0,"phases":1,"phase":"B","feeder":"F1-01"}},{"type":"Feature","id":"electric-E450","geometry":{"type":"LineString","coordinates":[[-78.9390718,43.8695958],[-78.9392267,43.8695615]]},"properties":{"kind":"transformer","tier":"transformer","placement":"overhead","from":"electric-T-133","to":"electric-TX-00041","lengthM":13.0,"voltageKV":13.8,"secondaryVoltageKV":0.24,"ratingKVA":25.0,"phases":1,"phase":"B","feeder":"F1-01"}},{"type":"Feature","id":"electric-E452","geometry":{"type":"LineString","coordinates":[[-78.9390663,43.8695829],[-78.9392355,43.8695455]]},"properties":{"kind":"transformer","tier":"transformer","placement":"underground","from":"electric-T-134","to":"electric-TX-00042","lengthM":14.2,"voltageKV":13.8,"secondaryVoltageKV":0.24,"ratingKVA":25.0,"phases":1,"phase":"B","feeder":"F1-01"}},{"type":"Feature","id":"electric-E454","geometry":{"type":"LineString","coordinates":[[-78.939082,43.8692218],[-78.939082,43.8692218]]},"properties":{"kind":"transformer","tier":"transformer","placement":"overhead","from":"electric-T-135","to":"electric-TX-00043","lengthM":0.0,"voltageKV":13.8,"secondaryVoltageKV":0.24,"ratingKVA":25.0,"phases":1,"phase":"B","feeder":"F1-01"}},{"type":"Feature","id":"electric-E461","geometry":{"type":"LineString","coordinates":[[-78.9386358,43.8702795],[-78.9386424,43.870295]]},"properties":{"kind":"transformer","tier":"transformer","placement":"underground","from":"electric-T-136","to":"electric-TX-00044","lengthM":1.8,"voltageKV":13.8,"secondaryVoltageKV":0.24,"ratingKVA":25.0,"phases":1,"phase":"A","feeder":"F1-01"}},{"type":"Feature","id":"electric-E466","geometry":{"type":"LineString","coordinates":[[-78.938,43.8688586],[-78.938,43.8688586]]},"properties":{"kind":"transformer","tier":"transformer","placement":"overhead","from":"electric-T-137","to":"electric-TX-00045","lengthM":0.0,"voltageKV":13.8,"secondaryVoltageKV":0.24,"ratingKVA":25.0,"phases":1,"phase":"A","feeder":"F1-01"}},{"type":"Feature","id":"electric-E470","geometry":{"type":"LineString","coordinates":[[-78.9381656,43.8718055],[-78.9381793,43.8718382]]},"properties":{"kind":"transformer","tier":"transformer","placement":"underground","from":"electric-T-138","to":"electric-TX-00046","lengthM":3.8,"voltageKV":13.8,"secondaryVoltageKV":0.24,"ratingKVA":25.0,"phases":1,"phase":"ABC","feeder":"F1-01"}},{"type":"Feature","id":"electric-E475","geometry":{"type":"LineString","coordinates":[[-78.9376145,43.8725186],[-78.9377837,43.8724811]]},"properties":{"kind":"transformer","tier":"transformer","placement":"underground","from":"electric-T-139","to":"electric-TX-00047","lengthM":14.2,"voltageKV":13.8,"secondaryVoltageKV":0.24,"ratingKVA":50.0,"phases":1,"phase":"C","feeder":"F1-01"}},{"type":"Feature","id":"electric-E486","geometry":{"type":"LineString","coordinates":[[-78.937426,43.8720742],[-78.9374045,43.8720787]]},"properties":{"kind":"transformer","tier":"transformer","placement":"underground","from":"electric-T-140","to":"electric-TX-00048","lengthM":1.8,"voltageKV":13.8,"secondaryVoltageKV":0.24,"ratingKVA":25.0,"phases":1,"phase":"C","feeder":"F1-01"}},{"type":"Feature","id":"electric-E489","geometry":{"type":"LineString","coordinates":[[-78.9375269,43.8708659],[-78.9375336,43.8708813]]},"properties":{"kind":"transformer","tier":"transformer","placement":"underground","from":"electric-T-141","to":"electric-TX-00049","lengthM":1.8,"voltageKV":13.8,"secondaryVoltageKV":0.24,"ratingKVA":25.0,"phases":1,"phase":"C","feeder":"F1-01"}},{"type":"Feature","id":"electric-E498","geometry":{"type":"LineString","coordinates":[[-78.9375769,43.8697829],[-78.9375769,43.8697829]]},"properties":{"kind":"transformer","tier":"transformer","placement":"overhead","from":"electric-T-142","to":"electric-TX-00050","lengthM":0.0,"voltageKV":13.8,"secondaryVoltageKV":0.24,"ratingKVA":25.0,"phases":1,"phase":"C","feeder":"F1-01"}},{"type":"Feature","id":"electric-E500","geometry":{"type":"LineString","coordinates":[[-78.9373311,43.8698396],[-78.937385,43.8699668]]},"properties":{"kind":"transformer","tier":"transformer","placement":"underground","from":"electric-T-143","to":"electric-TX-00051","lengthM":14.8,"voltageKV":13.8,"secondaryVoltageKV":0.24,"ratingKVA":25.0,"phases":1,"phase":"C","feeder":"F1-01"}},{"type":"Feature","id":"electric-E502","geometry":{"type":"LineString","coordinates":[[-78.9373167,43.8698428],[-78.9373167,43.8698428]]},"properties":{"kind":"transformer","tier":"transformer","placement":"overhead","from":"electric-T-144","to":"electric-TX-00052","lengthM":0.0,"voltageKV":13.8,"secondaryVoltageKV":0.24,"ratingKVA":25.0,"phases":1,"phase":"C","feeder":"F1-01"}},{"type":"Feature","id":"electric-E504","geometry":{"type":"LineString","coordinates":[[-78.9370772,43.8698958],[-78.9371314,43.8700229]]},"properties":{"kind":"transformer","tier":"transformer","placement":"underground","from":"electric-T-145","to":"electric-TX-00053","lengthM":14.8,"voltageKV":13.8,"secondaryVoltageKV":0.24,"ratingKVA":25.0,"phases":1,"phase":"C","feeder":"F1-01"}},{"type":"Feature","id":"electric-E506","geometry":{"type":"LineString","coordinates":[[-78.9370611,43.8698994],[-78.9370611,43.8698994]]},"properties":{"kind":"transformer","tier":"transformer","placement":"overhead","from":"electric-T-146","to":"electric-TX-00054","lengthM":0.0,"voltageKV":13.8,"secondaryVoltageKV":0.24,"ratingKVA":25.0,"phases":1,"phase":"C","feeder":"F1-01"}},{"type":"Feature","id":"electric-E508","geometry":{"type":"LineString","coordinates":[[-78.9368273,43.8699512],[-78.9368815,43.8700783]]},"properties":{"kind":"transformer","tier":"transformer","placement":"underground","from":"electric-T-147","to":"electric-TX-00055","lengthM":14.8,"voltageKV":13.8,"secondaryVoltageKV":0.24,"ratingKVA":25.0,"phases":1,"phase":"C","feeder":"F1-01"}},{"type":"Feature","id":"electric-E510","geometry":{"type":"LineString","coordinates":[[-78.9368164,43.8699536],[-78.9368164,43.8699536]]},"properties":{"kind":"transformer","tier":"transformer","placement":"overhead","from":"electric-T-148","to":"electric-TX-00056","lengthM":0.0,"voltageKV":13.8,"secondaryVoltageKV":0.24,"ratingKVA":25.0,"phases":1,"phase":"C","feeder":"F1-01"}},{"type":"Feature","id":"electric-E512","geometry":{"type":"LineString","coordinates":[[-78.9371782,43.8715188],[-78.9371569,43.8715237]]},"properties":{"kind":"transformer","tier":"transformer","placement":"underground","from":"electric-T-149","to":"electric-TX-00057","lengthM":1.8,"voltageKV":13.8,"secondaryVoltageKV":0.24,"ratingKVA":25.0,"phases":1,"phase":"A","feeder":"F1-01"}},{"type":"Feature","id":"electric-E521","geometry":{"type":"LineString","coordinates":[[-78.9368337,43.8720999],[-78.9368477,43.8721326]]},"properties":{"kind":"transformer","tier":"transformer","placement":"underground","from":"electric-T-150","to":"electric-TX-00058","lengthM":3.8,"voltageKV":13.8,"secondaryVoltageKV":0.24,"ratingKVA":25.0,"phases":1,"phase":"ABC","feeder":"F1-01"}},{"type":"Feature","id":"electric-E524","geometry":{"type":"LineString","coordinates":[[-78.9364497,43.868135],[-78.9364497,43.868135]]},"properties":{"kind":"transformer","tier":"transformer","placement":"overhead","from":"electric-T-151","to":"electric-TX-00059","lengthM":0.0,"voltageKV":13.8,"secondaryVoltageKV":0.24,"ratingKVA":25.0,"phases":1,"phase":"B","feeder":"F1-01"}},{"type":"Feature","id":"electric-E531","geometry":{"type":"LineString","coordinates":[[-78.9360425,43.8682262],[-78.9360425,43.8682262]]},"properties":{"kind":"transformer","tier":"transformer","placement":"overhead","from":"electric-T-152","to":"electric-TX-00060","lengthM":0.0,"voltageKV":13.8,"secondaryVoltageKV":0.24,"ratingKVA":25.0,"phases":1,"phase":"B","feeder":"F1-01"}},{"type":"Feature","id":"electric-E534","geometry":{"type":"LineString","coordinates":[[-78.9363599,43.8727132],[-78.9363385,43.872718]]},"properties":{"kind":"transformer","tier":"transformer","placement":"underground","from":"electric-T-153","to":"electric-TX-00061","lengthM":1.8,"voltageKV":13.8,"secondaryVoltageKV":0.24,"ratingKVA":50.0,"phases":1,"phase":"B","feeder":"F1-01"}},{"type":"Feature","id":"electric-E545","geometry":{"type":"LineString","coordinates":[[-78.9362014,43.8723481],[-78.9363703,43.87231]]},"properties":{"kind":"transformer","tier":"transformer","placement":"underground","from":"electric-T-154","to":"electric-TX-00062","lengthM":14.2,"voltageKV":13.8,"secondaryVoltageKV":0.24,"ratingKVA":25.0,"phases":1,"phase":"B","feeder":"F1-01"}},{"type":"Feature","id":"electric-E547","geometry":{"type":"LineString","coordinates":[[-78.9367322,43.870509],[-78.9367108,43.870514]]},"properties":{"kind":"transformer","tier":"transformer","placement":"underground","from":"electric-T-155","to":"electric-TX-00063","lengthM":1.8,"voltageKV":13.8,"secondaryVoltageKV":0.24,"ratingKVA":25.0,"phases":1,"phase":"C","feeder":"F1-01"}},{"type":"Feature","id":"electric-E554","geometry":{"type":"LineString","coordinates":[[-78.9362139,43.8711644],[-78.9362206,43.8711798]]},"properties":{"kind":"transformer","tier":"transformer","placement":"underground","from":"electric-T-156","to":"electric-TX-00064","lengthM":1.8,"voltageKV":13.8,"secondaryVoltageKV":0.24,"ratingKVA":25.0,"phases":1,"phase":"C","feeder":"F1-01"}},{"type":"Feature","id":"electric-E561","geometry":{"type":"LineString","coordinates":[[-78.9364699,43.8695249],[-78.9364699,43.8695249]]},"properties":{"kind":"transformer","tier":"transformer","placement":"overhead","from":"electric-T-157","to":"electric-TX-00065","lengthM":0.0,"voltageKV":13.8,"secondaryVoltageKV":0.24,"ratingKVA":25.0,"phases":1,"phase":"C","feeder":"F1-01"}},{"type":"Feature","id":"electric-E568","geometry":{"type":"LineString","coordinates":[[-78.9362418,43.8690043],[-78.9362418,43.8690043]]},"properties":{"kind":"transformer","tier":"transformer","placement":"overhead","from":"electric-T-158","to":"electric-TX-00066","lengthM":0.0,"voltageKV":13.8,"secondaryVoltageKV":0.24,"ratingKVA":25.0,"phases":1,"phase":"C","feeder":"F1-01"}},{"type":"Feature","id":"electric-E575","geometry":{"type":"LineString","coordinates":[[-78.9360481,43.8685623],[-78.9360481,43.8685623]]},"properties":{"kind":"transformer","tier":"transformer","placement":"overhead","from":"electric-T-159","to":"electric-TX-00067","lengthM":0.0,"voltageKV":13.8,"secondaryVoltageKV":0.24,"ratingKVA":25.0,"phases":1,"phase":"B","feeder":"F1-01"}},{"type":"Feature","id":"electric-E578","geometry":{"type":"LineString","coordinates":[[-78.9358244,43.8702992],[-78.9358311,43.8703146]]},"properties":{"kind":"transformer","tier":"transformer","placement":"underground","from":"electric-T-160","to":"electric-TX-00068","lengthM":1.8,"voltageKV":13.8,"secondaryVoltageKV":0.24,"ratingKVA":25.0,"phases":1,"phase":"C","feeder":"F1-01"}},{"type":"Feature","id":"electric-E585","geometry":{"type":"LineString","coordinates":[[-78.9359532,43.8717876],[-78.9359318,43.8717925]]},"properties":{"kind":"transformer","tier":"transformer","placement":"underground","from":"electric-T-161","to":"electric-TX-00069","lengthM":1.8,"voltageKV":13.8,"secondaryVoltageKV":0.24,"ratingKVA":25.0,"phases":1,"phase":"A","feeder":"F1-01"}},{"type":"Feature","id":"electric-E594","geometry":{"type":"LineString","coordinates":[[-78.9351567,43.8724717],[-78.9351706,43.8725043]]},"properties":{"kind":"transformer","tier":"transformer","placement":"underground","from":"electric-T-162","to":"electric-TX-00070","lengthM":3.8,"voltageKV":13.8,"secondaryVoltageKV":0.24,"ratingKVA":50.0,"phases":1,"phase":"ABC","feeder":"F1-01"}},{"type":"Feature","id":"electric-E604","geometry":{"type":"LineString","coordinates":[[-78.9344904,43.8726195],[-78.9345043,43.8726521]]},"properties":{"kind":"transformer","tier":"transformer","placement":"underground","from":"electric-T-163","to":"electric-TX-00071","lengthM":3.8,"voltageKV":13.8,"secondaryVoltageKV":0.24,"ratingKVA":25.0,"phases":1,"phase":"ABC","feeder":"F1-01"}},{"type":"Feature","id":"electric-E606","geometry":{"type":"LineString","coordinates":[[-78.9351616,43.8684303],[-78.9351616,43.8684303]]},"properties":{"kind":"transformer","tier":"transformer","placement":"overhead","from":"electric-T-164","to":"electric-TX-00072","lengthM":0.0,"voltageKV":13.8,"secondaryVoltageKV":0.24,"ratingKVA":25.0,"phases":1,"phase":"B","feeder":"F1-01"}},{"type":"Feature","id":"electric-E613","geometry":{"type":"LineString","coordinates":[[-78.934647,43.8688155],[-78.934647,43.8688155]]},"properties":{"kind":"transformer","tier":"transformer","placement":"overhead","from":"electric-T-165","to":"electric-TX-00073","lengthM":0.0,"voltageKV":13.8,"secondaryVoltageKV":0.24,"ratingKVA":25.0,"phases":1,"phase":"B","feeder":"F1-01"}},{"type":"Feature","id":"electric-E618","geometry":{"type":"LineString","coordinates":[[-78.9347535,43.8690761],[-78.9347392,43.8690791]]},"properties":{"kind":"transformer","tier":"transformer","placement":"underground","from":"electric-T-166","to":"electric-TX-00074","lengthM":1.2,"voltageKV":13.8,"secondaryVoltageKV":0.24,"ratingKVA":25.0,"phases":1,"phase":"C","feeder":"F1-01"}},{"type":"Feature","id":"electric-E620","geometry":{"type":"LineString","coordinates":[[-78.9348163,43.8692186],[-78.9348163,43.8692186]]},"properties":{"kind":"transformer","tier":"transformer","placement":"overhead","from":"electric-T-167","to":"electric-TX-00075","lengthM":0.0,"voltageKV":13.8,"secondaryVoltageKV":0.24,"ratingKVA":25.0,"phases":1,"phase":"C","feeder":"F1-01"}},{"type":"Feature","id":"electric-E622","geometry":{"type":"LineString","coordinates":[[-78.9348197,43.8692264],[-78.9348055,43.8692296]]},"properties":{"kind":"transformer","tier":"transformer","placement":"underground","from":"electric-T-168","to":"electric-TX-00076","lengthM":1.2,"voltageKV":13.8,"secondaryVoltageKV":0.24,"ratingKVA":25.0,"phases":1,"phase":"C","feeder":"F1-01"}},{"type":"Feature","id":"electric-E624","geometry":{"type":"LineString","coordinates":[[-78.934889,43.8693827],[-78.934889,43.8693827]]},"properties":{"kind":"transformer","tier":"transformer","placement":"overhead","from":"electric-T-169","to":"electric-TX-00077","lengthM":0.0,"voltageKV":13.8,"secondaryVoltageKV":0.24,"ratingKVA":25.0,"phases":1,"phase":"C","feeder":"F1-01"}},{"type":"Feature","id":"electric-E626","geometry":{"type":"LineString","coordinates":[[-78.9348892,43.8693833],[-78.934875,43.8693866]]},"properties":{"kind":"transformer","tier":"transformer","placement":"underground","from":"electric-T-170","to":"electric-TX-00078","lengthM":1.2,"voltageKV":13.8,"secondaryVoltageKV":0.24,"ratingKVA":25.0,"phases":1,"phase":"C","feeder":"F1-01"}},{"type":"Feature","id":"electric-E628","geometry":{"type":"LineString","coordinates":[[-78.9349642,43.8695525],[-78.9349642,43.8695525]]},"properties":{"kind":"transformer","tier":"transformer","placement":"overhead","from":"electric-T-171","to":"electric-TX-00079","lengthM":0.0,"voltageKV":13.8,"secondaryVoltageKV":0.24,"ratingKVA":25.0,"phases":1,"phase":"C","feeder":"F1-01"}},{"type":"Feature","id":"electric-E630","geometry":{"type":"LineString","coordinates":[[-78.93512,43.8695203],[-78.9349514,43.8695591]]},"properties":{"kind":"transformer","tier":"transformer","placement":"underground","from":"electric-T-172","to":"electric-TX-00080","lengthM":14.2,"voltageKV":13.8,"secondaryVoltageKV":0.24,"ratingKVA":25.0,"phases":1,"phase":"C","feeder":"F1-01"}},{"type":"Feature","id":"electric-E632","geometry":{"type":"LineString","coordinates":[[-78.9351885,43.8696749],[-78.9350341,43.8697105]]},"properties":{"kind":"transformer","tier":"transformer","placement":"overhead","from":"electric-T-173","to":"electric-TX-00081","lengthM":13.0,"voltageKV":13.8,"secondaryVoltageKV":0.24,"ratingKVA":25.0,"phases":1,"phase":"C","feeder":"F1-01"}},{"type":"Feature","id":"electric-E634","geometry":{"type":"LineString","coordinates":[[-78.9351897,43.8696777],[-78.9350211,43.8697165]]},"properties":{"kind":"transformer","tier":"transformer","placement":"underground","from":"electric-T-174","to":"electric-TX-00082","lengthM":14.2,"voltageKV":13.8,"secondaryVoltageKV":0.24,"ratingKVA":25.0,"phases":1,"phase":"C","feeder":"F1-01"}},{"type":"Feature","id":"electric-E636","geometry":{"type":"LineString","coordinates":[[-78.9352582,43.8698325],[-78.9351039,43.869868]]},"properties":{"kind":"transformer","tier":"transformer","placement":"overhead","from":"electric-T-175","to":"electric-TX-00083","lengthM":13.0,"voltageKV":13.8,"secondaryVoltageKV":0.24,"ratingKVA":25.0,"phases":1,"phase":"C","feeder":"F1-01"}},{"type":"Feature","id":"electric-E638","geometry":{"type":"LineString","coordinates":[[-78.9353319,43.8699988],[-78.9351634,43.8700376]]},"properties":{"kind":"transformer","tier":"transformer","placement":"underground","from":"electric-T-176","to":"electric-TX-00084","lengthM":14.2,"voltageKV":13.8,"secondaryVoltageKV":0.24,"ratingKVA":25.0,"phases":1,"phase":"C","feeder":"F1-01"}},{"type":"Feature","id":"electric-E642","geometry":{"type":"LineString","coordinates":[[-78.9355133,43.8707818],[-78.935492,43.8707867]]},"properties":{"kind":"transformer","tier":"transformer","placement":"underground","from":"electric-T-177","to":"electric-TX-00085","lengthM":1.8,"voltageKV":13.8,"secondaryVoltageKV":0.24,"ratingKVA":25.0,"phases":1,"phase":"A","feeder":"F1-01"}},{"type":"Feature","id":"electric-E649","geometry":{"type":"LineString","coordinates":[[-78.934226,43.8704923],[-78.9343154,43.8703822]]},"properties":{"kind":"transformer","tier":"transformer","placement":"underground","from":"electric-T-178","to":"electric-TX-00086","lengthM":14.2,"voltageKV":13.8,"secondaryVoltageKV":0.24,"ratingKVA":25.0,"phases":1,"phase":"C","feeder":"F1-01"}},{"type":"Feature","id":"electric-E657","geometry":{"type":"LineString","coordinates":[[-78.9336123,43.8709421],[-78.9334436,43.8709805]]},"properties":{"kind":"transformer","tier":"transformer","placement":"underground","from":"electric-T-179","to":"electric-TX-00087","lengthM":14.2,"voltageKV":13.8,"secondaryVoltageKV":0.24,"ratingKVA":50.0,"phases":1,"phase":"B","feeder":"F1-01"}},{"type":"Feature","id":"electric-E668","geometry":{"type":"LineString","coordinates":[[-78.9338318,43.8714429],[-78.9338531,43.871438]]},"properties":{"kind":"transformer","tier":"transformer","placement":"underground","from":"electric-T-180","to":"electric-TX-00088","lengthM":1.8,"voltageKV":13.8,"secondaryVoltageKV":0.24,"ratingKVA":25.0,"phases":1,"phase":"B","feeder":"F1-01"}},{"type":"Feature","id":"electric-E672","geometry":{"type":"LineString","coordinates":[[-78.9353044,43.8672108],[-78.9353043,43.8672105]]},"properties":{"kind":"transformer","tier":"transformer","placement":"overhead","from":"electric-T-181","to":"electric-TX-00089","lengthM":0.04,"voltageKV":13.8,"secondaryVoltageKV":0.24,"ratingKVA":25.0,"phases":1,"phase":"C","feeder":"F1-01"}},{"type":"Feature","id":"electric-E674","geometry":{"type":"LineString","coordinates":[[-78.9341922,43.8715903],[-78.9341992,43.8716057]]},"properties":{"kind":"transformer","tier":"transformer","placement":"underground","from":"electric-T-182","to":"electric-TX-00090","lengthM":1.8,"voltageKV":13.8,"secondaryVoltageKV":0.24,"ratingKVA":25.0,"phases":1,"phase":"B","feeder":"F1-01"}},{"type":"Feature","id":"electric-E677","geometry":{"type":"LineString","coordinates":[[-78.9340053,43.8722158],[-78.9339839,43.8722206]]},"properties":{"kind":"transformer","tier":"transformer","placement":"underground","from":"electric-T-183","to":"electric-TX-00091","lengthM":1.8,"voltageKV":13.8,"secondaryVoltageKV":0.24,"ratingKVA":50.0,"phases":1,"phase":"B","feeder":"F1-01"}},{"type":"Feature","id":"electric-E686","geometry":{"type":"LineString","coordinates":[[-78.9334632,43.8728475],[-78.9334038,43.8727084]]},"properties":{"kind":"transformer","tier":"transformer","placement":"underground","from":"electric-T-184","to":"electric-TX-00092","lengthM":16.2,"voltageKV":13.8,"secondaryVoltageKV":0.24,"ratingKVA":25.0,"phases":1,"phase":"ABC","feeder":"F1-01"}},{"type":"Feature","id":"electric-E690","geometry":{"type":"LineString","coordinates":[[-78.9318186,43.871827],[-78.9319873,43.8717886]]},"properties":{"kind":"transformer","tier":"transformer","placement":"underground","from":"electric-T-185","to":"electric-TX-00093","lengthM":14.2,"voltageKV":13.8,"secondaryVoltageKV":0.24,"ratingKVA":50.0,"phases":1,"phase":"A","feeder":"F1-01"}},{"type":"Feature","id":"electric-E699","geometry":{"type":"LineString","coordinates":[[-78.9315404,43.8711923],[-78.9315191,43.8711972]]},"properties":{"kind":"transformer","tier":"transformer","placement":"underground","from":"electric-T-186","to":"electric-TX-00094","lengthM":1.8,"voltageKV":13.8,"secondaryVoltageKV":0.24,"ratingKVA":50.0,"phases":1,"phase":"A","feeder":"F1-01"}},{"type":"Feature","id":"electric-E710","geometry":{"type":"LineString","coordinates":[[-78.933001,43.8719319],[-78.9331696,43.8718931]]},"properties":{"kind":"transformer","tier":"transformer","placement":"underground","from":"electric-T-187","to":"electric-TX-00095","lengthM":14.2,"voltageKV":13.8,"secondaryVoltageKV":0.24,"ratingKVA":25.0,"phases":1,"phase":"A","feeder":"F1-01"}},{"type":"Feature","id":"electric-E718","geometry":{"type":"LineString","coordinates":[[-78.9327441,43.871352],[-78.9327227,43.8713569]]},"properties":{"kind":"transformer","tier":"transformer","placement":"underground","from":"electric-T-188","to":"electric-TX-00096","lengthM":1.8,"voltageKV":13.8,"secondaryVoltageKV":0.24,"ratingKVA":50.0,"phases":1,"phase":"A","feeder":"F1-01"}},{"type":"Feature","id":"electric-E729","geometry":{"type":"LineString","coordinates":[[-78.9324076,43.8705605],[-78.9323857,43.870564]]},"properties":{"kind":"transformer","tier":"transformer","placement":"underground","from":"electric-T-189","to":"electric-TX-00097","lengthM":1.8,"voltageKV":13.8,"secondaryVoltageKV":0.24,"ratingKVA":50.0,"phases":1,"phase":"A","feeder":"F1-01"}},{"type":"Feature","id":"electric-E740","geometry":{"type":"LineString","coordinates":[[-78.9322105,43.8697557],[-78.9321892,43.8697607]]},"properties":{"kind":"transformer","tier":"transformer","placement":"underground","from":"electric-T-190","to":"electric-TX-00098","lengthM":1.8,"voltageKV":13.8,"secondaryVoltageKV":0.24,"ratingKVA":50.0,"phases":1,"phase":"A","feeder":"F1-01"}},{"type":"Feature","id":"electric-E751","geometry":{"type":"LineString","coordinates":[[-78.9319199,43.8692227],[-78.9319126,43.8692379]]},"properties":{"kind":"transformer","tier":"transformer","placement":"underground","from":"electric-T-191","to":"electric-TX-00099","lengthM":1.8,"voltageKV":13.8,"secondaryVoltageKV":0.24,"ratingKVA":25.0,"phases":1,"phase":"A","feeder":"F1-01"}},{"type":"Feature","id":"electric-E756","geometry":{"type":"LineString","coordinates":[[-78.9311108,43.8693517],[-78.931115,43.8693676]]},"properties":{"kind":"transformer","tier":"transformer","placement":"underground","from":"electric-T-192","to":"electric-TX-00100","lengthM":1.8,"voltageKV":13.8,"secondaryVoltageKV":0.24,"ratingKVA":25.0,"phases":1,"phase":"A","feeder":"F1-01"}},{"type":"Feature","id":"electric-E758","geometry":{"type":"LineString","coordinates":[[-78.9311741,43.870276],[-78.9311519,43.8702781]]},"properties":{"kind":"transformer","tier":"transformer","placement":"underground","from":"electric-T-193","to":"electric-TX-00101","lengthM":1.8,"voltageKV":13.8,"secondaryVoltageKV":0.24,"ratingKVA":25.0,"phases":1,"phase":"A","feeder":"F1-01"}},{"type":"Feature","id":"electric-E767","geometry":{"type":"LineString","coordinates":[[-78.9309868,43.8697326],[-78.9309654,43.8697374]]},"properties":{"kind":"transformer","tier":"transformer","placement":"underground","from":"electric-T-194","to":"electric-TX-00102","lengthM":1.8,"voltageKV":13.8,"secondaryVoltageKV":0.24,"ratingKVA":25.0,"phases":1,"phase":"A","feeder":"F1-01"}},{"type":"Feature","id":"electric-E772","geometry":{"type":"LineString","coordinates":[[-78.9308219,43.8709354],[-78.9308284,43.8709509]]},"properties":{"kind":"transformer","tier":"transformer","placement":"underground","from":"electric-T-195","to":"electric-TX-00103","lengthM":1.8,"voltageKV":13.8,"secondaryVoltageKV":0.24,"ratingKVA":25.0,"phases":1,"phase":"A","feeder":"F1-01"}},{"type":"Feature","id":"electric-E775","geometry":{"type":"LineString","coordinates":[[-78.9302398,43.8694518],[-78.9302431,43.8694678]]},"properties":{"kind":"transformer","tier":"transformer","placement":"underground","from":"electric-T-196","to":"electric-TX-00104","lengthM":1.8,"voltageKV":13.8,"secondaryVoltageKV":0.24,"ratingKVA":25.0,"phases":1,"phase":"B","feeder":"F1-01"}},{"type":"Feature","id":"electric-E782","geometry":{"type":"LineString","coordinates":[[-78.930068,43.8704339],[-78.9302361,43.8703942]]},"properties":{"kind":"transformer","tier":"transformer","placement":"underground","from":"electric-T-197","to":"electric-TX-00105","lengthM":14.2,"voltageKV":13.8,"secondaryVoltageKV":0.24,"ratingKVA":25.0,"phases":1,"phase":"A","feeder":"F1-01"}},{"type":"Feature","id":"electric-E785","geometry":{"type":"LineString","coordinates":[[-78.9298944,43.8700289],[-78.9300647,43.8699941]]},"properties":{"kind":"transformer","tier":"transformer","placement":"underground","from":"electric-T-198","to":"electric-TX-00106","lengthM":14.2,"voltageKV":13.8,"secondaryVoltageKV":0.24,"ratingKVA":25.0,"phases":1,"phase":"B","feeder":"F1-01"}},{"type":"Feature","id":"electric-E787","geometry":{"type":"LineString","coordinates":[[-78.9382105,43.8708312],[-78.9384521,43.8707803]]},"properties":{"kind":"transformer","tier":"transformer","placement":"underground","from":"electric-T-199","to":"electric-TX-00107","lengthM":20.2,"voltageKV":13.8,"secondaryVoltageKV":0.208,"ratingKVA":75.0,"phases":3,"phase":"ABC","feeder":"F1-01"}},{"type":"Feature","id":"electric-E789","geometry":{"type":"LineString","coordinates":[[-78.9380422,43.8700448],[-78.9377945,43.8700998]]},"properties":{"kind":"transformer","tier":"transformer","placement":"underground","from":"electric-T-200","to":"electric-TX-00108","lengthM":20.8,"voltageKV":13.8,"secondaryVoltageKV":0.208,"ratingKVA":75.0,"phases":3,"phase":"ABC","feeder":"F1-01"}},{"type":"Feature","id":"electric-E792","geometry":{"type":"LineString","coordinates":[[-78.9377542,43.8693895],[-78.9375067,43.8694449]]},"properties":{"kind":"transformer","tier":"transformer","placement":"underground","from":"electric-T-201","to":"electric-TX-00109","lengthM":20.8,"voltageKV":13.8,"secondaryVoltageKV":0.208,"ratingKVA":75.0,"phases":3,"phase":"ABC","feeder":"F1-01"}},{"type":"Feature","id":"electric-E795","geometry":{"type":"LineString","coordinates":[[-78.9375338,43.8688671],[-78.9376201,43.8688494]]},"properties":{"kind":"transformer","tier":"transformer","placement":"underground","from":"electric-T-202","to":"electric-TX-00110","lengthM":7.2,"voltageKV":13.8,"secondaryVoltageKV":0.208,"ratingKVA":75.0,"phases":3,"phase":"ABC","feeder":"F1-01"}},{"type":"Feature","id":"electric-E799","geometry":{"type":"LineString","coordinates":[[-78.9374229,43.868593],[-78.9371757,43.868649]]},"properties":{"kind":"transformer","tier":"transformer","placement":"underground","from":"electric-T-203","to":"electric-TX-00111","lengthM":20.8,"voltageKV":13.8,"secondaryVoltageKV":0.208,"ratingKVA":75.0,"phases":3,"phase":"ABC","feeder":"F1-01"}},{"type":"Feature","id":"electric-E803","geometry":{"type":"LineString","coordinates":[[-78.9373007,43.8683129],[-78.9373863,43.8682935]]},"properties":{"kind":"transformer","tier":"transformer","placement":"underground","from":"electric-T-204","to":"electric-TX-00112","lengthM":7.2,"voltageKV":13.8,"secondaryVoltageKV":0.208,"ratingKVA":75.0,"phases":3,"phase":"ABC","feeder":"F1-01"}},{"type":"Feature","id":"electric-E807","geometry":{"type":"LineString","coordinates":[[-78.9371194,43.8676756],[-78.9372047,43.8676556]]},"properties":{"kind":"transformer","tier":"transformer","placement":"underground","from":"electric-T-205","to":"electric-TX-00113","lengthM":7.2,"voltageKV":13.8,"secondaryVoltageKV":0.208,"ratingKVA":75.0,"phases":3,"phase":"ABC","feeder":"F1-01"}},{"type":"Feature","id":"electric-E810","geometry":{"type":"LineString","coordinates":[[-78.9368519,43.8670449],[-78.9369381,43.8670267]]},"properties":{"kind":"transformer","tier":"transformer","placement":"underground","from":"electric-T-206","to":"electric-TX-00114","lengthM":7.2,"voltageKV":13.8,"secondaryVoltageKV":0.208,"ratingKVA":150.0,"phases":3,"phase":"ABC","feeder":"F1-01"}},{"type":"Feature","id":"electric-E814","geometry":{"type":"LineString","coordinates":[[-78.9366546,43.8665551],[-78.936741,43.8665376]]},"properties":{"kind":"transformer","tier":"transformer","placement":"underground","from":"electric-T-207","to":"electric-TX-00115","lengthM":7.2,"voltageKV":13.8,"secondaryVoltageKV":0.208,"ratingKVA":150.0,"phases":3,"phase":"ABC","feeder":"F1-01"}},{"type":"Feature","id":"electric-E818","geometry":{"type":"LineString","coordinates":[[-78.9364614,43.8660796],[-78.9365474,43.8660611]]},"properties":{"kind":"transformer","tier":"transformer","placement":"underground","from":"electric-T-208","to":"electric-TX-00116","lengthM":7.2,"voltageKV":13.8,"secondaryVoltageKV":0.208,"ratingKVA":150.0,"phases":3,"phase":"ABC","feeder":"F1-01"}},{"type":"Feature","id":"electric-E822","geometry":{"type":"LineString","coordinates":[[-78.9362752,43.8655993],[-78.9363623,43.8655838]]},"properties":{"kind":"transformer","tier":"transformer","placement":"underground","from":"electric-T-209","to":"electric-TX-00117","lengthM":7.2,"voltageKV":13.8,"secondaryVoltageKV":0.208,"ratingKVA":75.0,"phases":3,"phase":"ABC","feeder":"F1-01"}},{"type":"Feature","id":"electric-E826","geometry":{"type":"LineString","coordinates":[[-78.9361315,43.8651784],[-78.9362186,43.8651629]]},"properties":{"kind":"transformer","tier":"transformer","placement":"underground","from":"electric-T-210","to":"electric-TX-00118","lengthM":7.2,"voltageKV":13.8,"secondaryVoltageKV":0.208,"ratingKVA":75.0,"phases":3,"phase":"ABC","feeder":"F1-01"}},{"type":"Feature","id":"electric-E829","geometry":{"type":"LineString","coordinates":[[-78.9361761,43.8675941],[-78.9362522,43.8677727]]},"properties":{"kind":"transformer","tier":"transformer","placement":"underground","from":"electric-T-211","to":"electric-TX-00119","lengthM":20.8,"voltageKV":13.8,"secondaryVoltageKV":0.208,"ratingKVA":75.0,"phases":3,"phase":"ABC","feeder":"F1-01"}},{"type":"Feature","id":"electric-E833","geometry":{"type":"LineString","coordinates":[[-78.9357747,43.8676831],[-78.9358509,43.8678616]]},"properties":{"kind":"transformer","tier":"transformer","placement":"underground","from":"electric-T-212","to":"electric-TX-00120","lengthM":20.8,"voltageKV":13.8,"secondaryVoltageKV":0.208,"ratingKVA":75.0,"phases":3,"phase":"ABC","feeder":"F1-01"}},{"type":"Feature","id":"electric-E835","geometry":{"type":"LineString","coordinates":[[-78.9367037,43.8670674],[-78.9364555,43.8671213]]},"properties":{"kind":"transformer","tier":"transformer","placement":"underground","from":"electric-T-213","to":"electric-TX-00121","lengthM":20.8,"voltageKV":13.8,"secondaryVoltageKV":0.208,"ratingKVA":75.0,"phases":3,"phase":"ABC","feeder":"F1-01"}},{"type":"Feature","id":"electric-E839","geometry":{"type":"LineString","coordinates":[[-78.9365022,43.8665828],[-78.9362528,43.8666337]]},"properties":{"kind":"transformer","tier":"transformer","placement":"underground","from":"electric-T-214","to":"electric-TX-00122","lengthM":20.8,"voltageKV":13.8,"secondaryVoltageKV":0.208,"ratingKVA":150.0,"phases":3,"phase":"ABC","feeder":"F1-01"}},{"type":"Feature","id":"electric-E843","geometry":{"type":"LineString","coordinates":[[-78.9363027,43.866075],[-78.9360533,43.8661259]]},"properties":{"kind":"transformer","tier":"transformer","placement":"underground","from":"electric-T-215","to":"electric-TX-00123","lengthM":20.8,"voltageKV":13.8,"secondaryVoltageKV":0.208,"ratingKVA":150.0,"phases":3,"phase":"ABC","feeder":"F1-01"}},{"type":"Feature","id":"electric-E847","geometry":{"type":"LineString","coordinates":[[-78.9361209,43.8655766],[-78.9358694,43.8656217]]},"properties":{"kind":"transformer","tier":"transformer","placement":"underground","from":"electric-T-216","to":"electric-TX-00124","lengthM":20.8,"voltageKV":13.8,"secondaryVoltageKV":0.208,"ratingKVA":75.0,"phases":3,"phase":"ABC","feeder":"F1-01"}},{"type":"Feature","id":"electric-E851","geometry":{"type":"LineString","coordinates":[[-78.9359774,43.8651669],[-78.9357262,43.8652129]]},"properties":{"kind":"transformer","tier":"transformer","placement":"underground","from":"electric-T-217","to":"electric-TX-00125","lengthM":20.8,"voltageKV":13.8,"secondaryVoltageKV":0.208,"ratingKVA":75.0,"phases":3,"phase":"ABC","feeder":"F1-01"}},{"type":"Feature","id":"electric-E854","geometry":{"type":"LineString","coordinates":[[-78.9357985,43.8675647],[-78.9357736,43.8675025]]},"properties":{"kind":"transformer","tier":"transformer","placement":"underground","from":"electric-T-218","to":"electric-TX-00126","lengthM":7.2,"voltageKV":13.8,"secondaryVoltageKV":0.208,"ratingKVA":75.0,"phases":3,"phase":"ABC","feeder":"F1-01"}},{"type":"Feature","id":"electric-E857","geometry":{"type":"LineString","coordinates":[[-78.9348818,43.8678671],[-78.9349487,43.8680476]]},"properties":{"kind":"transformer","tier":"transformer","placement":"underground","from":"electric-T-219","to":"electric-TX-00127","lengthM":20.8,"voltageKV":13.8,"secondaryVoltageKV":0.208,"ratingKVA":75.0,"phases":3,"phase":"ABC","feeder":"F1-01"}},{"type":"Feature","id":"electric-E861","geometry":{"type":"LineString","coordinates":[[-78.9339847,43.867982],[-78.9339895,43.8681688]]},"properties":{"kind":"transformer","tier":"transformer","placement":"underground","from":"electric-T-220","to":"electric-TX-00128","lengthM":20.8,"voltageKV":13.8,"secondaryVoltageKV":0.208,"ratingKVA":75.0,"phases":3,"phase":"ABC","feeder":"F1-01"}},{"type":"Feature","id":"electric-E865","geometry":{"type":"LineString","coordinates":[[-78.9334984,43.8679884],[-78.9335016,43.8681752]]},"properties":{"kind":"transformer","tier":"transformer","placement":"underground","from":"electric-T-221","to":"electric-TX-00129","lengthM":20.8,"voltageKV":13.8,"secondaryVoltageKV":0.208,"ratingKVA":75.0,"phases":3,"phase":"ABC","feeder":"F1-01"}},{"type":"Feature","id":"electric-E867","geometry":{"type":"LineString","coordinates":[[-78.9347565,43.8677849],[-78.9347378,43.8677217]]},"properties":{"kind":"transformer","tier":"transformer","placement":"underground","from":"electric-T-222","to":"electric-TX-00130","lengthM":7.2,"voltageKV":13.8,"secondaryVoltageKV":0.208,"ratingKVA":75.0,"phases":3,"phase":"ABC","feeder":"F1-01"}},{"type":"Feature","id":"electric-E871","geometry":{"type":"LineString","coordinates":[[-78.9339921,43.867872],[-78.9339889,43.8678073]]},"properties":{"kind":"transformer","tier":"transformer","placement":"underground","from":"electric-T-223","to":"electric-TX-00131","lengthM":7.2,"voltageKV":13.8,"secondaryVoltageKV":0.208,"ratingKVA":75.0,"phases":3,"phase":"ABC","feeder":"F1-01"}},{"type":"Feature","id":"electric-E875","geometry":{"type":"LineString","coordinates":[[-78.9335048,43.8678844],[-78.9335041,43.8678197]]},"properties":{"kind":"transformer","tier":"transformer","placement":"underground","from":"electric-T-224","to":"electric-TX-00132","lengthM":7.2,"voltageKV":13.8,"secondaryVoltageKV":0.208,"ratingKVA":75.0,"phases":3,"phase":"ABC","feeder":"F1-01"}},{"type":"Feature","id":"electric-E877","geometry":{"type":"LineString","coordinates":[[-78.9329168,43.8680577],[-78.9329179,43.8681278]]},"properties":{"kind":"transformer","tier":"transformer","placement":"underground","from":"electric-T-225","to":"electric-TX-00133","lengthM":7.8,"voltageKV":13.8,"secondaryVoltageKV":0.208,"ratingKVA":75.0,"phases":3,"phase":"ABC","feeder":"F1-01"}},{"type":"Feature","id":"electric-E881","geometry":{"type":"LineString","coordinates":[[-78.9327082,43.8680594],[-78.9327054,43.867878]]},"properties":{"kind":"transformer","tier":"transformer","placement":"underground","from":"electric-T-226","to":"electric-TX-00134","lengthM":20.2,"voltageKV":13.8,"secondaryVoltageKV":0.208,"ratingKVA":75.0,"phases":3,"phase":"ABC","feeder":"F1-01"}},{"type":"Feature","id":"electric-E883","geometry":{"type":"LineString","coordinates":[[-78.94414,43.8720664],[-78.9443803,43.8720122]]},"properties":{"kind":"transformer","tier":"transformer","placement":"underground","from":"electric-T-227","to":"electric-TX-00135","lengthM":20.2,"voltageKV":13.8,"secondaryVoltageKV":0.208,"ratingKVA":500.0,"phases":3,"phase":"ABC","feeder":"F1-01"}},{"type":"Feature","id":"electric-E885","geometry":{"type":"LineString","coordinates":[[-78.9396084,43.8740095],[-78.9398486,43.8739553]]},"properties":{"kind":"transformer","tier":"transformer","placement":"underground","from":"electric-T-228","to":"electric-TX-00136","lengthM":20.2,"voltageKV":13.8,"secondaryVoltageKV":0.208,"ratingKVA":75.0,"phases":3,"phase":"ABC","feeder":"F1-01"}},{"type":"Feature","id":"electric-E887","geometry":{"type":"LineString","coordinates":[[-78.9283028,43.8683512],[-78.9282909,43.8684208]]},"properties":{"kind":"transformer","tier":"transformer","placement":"underground","from":"electric-T-229","to":"electric-TX-00137","lengthM":7.8,"voltageKV":13.8,"secondaryVoltageKV":0.208,"ratingKVA":75.0,"phases":3,"phase":"ABC","feeder":"F1-01"}},{"type":"Feature","id":"electric-E889","geometry":{"type":"LineString","coordinates":[[-78.9281342,43.8683359],[-78.9282255,43.8683873]]},"properties":{"kind":"transformer","tier":"transformer","placement":"underground","from":"electric-T-230","to":"electric-TX-00138","lengthM":9.3,"voltageKV":13.8,"secondaryVoltageKV":0.208,"ratingKVA":500.0,"phases":3,"phase":"ABC","feeder":"F1-01"}}]}