{"type":"FeatureCollection","name":"electric_equipment","crs_note":"EPSG:4326","features":[{"type":"Feature","id":"RCL-F1-01","geometry":{"type":"Point","coordinates":[-78.9440638,43.8718906]},"properties":{"kind":"recloser","nodeId":"electric-J-T255","feeder":"F1-01"}},{"type":"Feature","id":"RCL-F1-02","geometry":{"type":"Point","coordinates":[-78.9440459,43.8718946]},"properties":{"kind":"recloser","nodeId":"electric-J-T255-F1-02","feeder":"F1-02"}},{"type":"Feature","id":"SW-F1-01-01","geometry":{"type":"Point","coordinates":[-78.9434238,43.8705949]},"properties":{"kind":"sectionalising_switch","edgeId":"electric-E7","feeder":"F1-01","normally":"closed","mount":"pad"}},{"type":"Feature","id":"FUSE-00003","geometry":{"type":"Point","coordinates":[-78.9449703,43.8701392]},"properties":{"kind":"fuse","edgeId":"electric-E13","feeder":"F1-01"}},{"type":"Feature","id":"FUSE-00004","geometry":{"type":"Point","coordinates":[-78.9423028,43.8708978]},"properties":{"kind":"fuse","edgeId":"electric-E14","feeder":"F1-01"}},{"type":"Feature","id":"FUSE-00005","geometry":{"type":"Point","coordinates":[-78.9422365,43.8707447]},"properties":{"kind":"fuse","edgeId":"electric-E15","feeder":"F1-01"}},{"type":"Feature","id":"FUSE-00006","geometry":{"type":"Point","coordinates":[-78.9423197,43.8679851]},"properties":{"kind":"fuse","edgeId":"electric-E17","feeder":"F1-01"}},{"type":"Feature","id":"FUSE-00007","geometry":{"type":"Point","coordinates":[-78.9473503,43.8696169]},"properties":{"kind":"fuse","edgeId":"electric-E19","feeder":"F1-01"}},{"type":"Feature","id":"FUSE-00008","geometry":{"type":"Point","coordinates":[-78.9410841,43.8711564]},"properties":{"kind":"fuse","edgeId":"electric-E27","feeder":"F1-01"}},{"type":"Feature","id":"FUSE-00009","geometry":{"type":"Point","coordinates":[-78.9410255,43.8710167]},"properties":{"kind":"fuse","edgeId":"electric-E28","feeder":"F1-01"}},{"type":"Feature","id":"FUSE-00010","geometry":{"type":"Point","coordinates":[-78.9399971,43.8714019]},"properties":{"kind":"fuse","edgeId":"electric-E42","feeder":"F1-01"}},{"type":"Feature","id":"FUSE-00011","geometry":{"type":"Point","coordinates":[-78.9399425,43.8712684]},"properties":{"kind":"fuse","edgeId":"electric-E43","feeder":"F1-01"}},{"type":"Feature","id":"SW-F1-01-02","geometry":{"type":"Point","coordinates":[-78.9398481,43.8714167]},"properties":{"kind":"sectionalising_switch","edgeId":"electric-E44","feeder":"F1-01","normally":"closed","mount":"pad"}},{"type":"Feature","id":"RISER-00001","geometry":{"type":"Point","coordinates":[-78.9400315,43.8685167]},"properties":{"kind":"riser","nodeId":"electric-J-30","edgeId":"electric-E46","feeder":"F1-01","from":"underground","to":"overhead"}},{"type":"Feature","id":"FUSE-00014","geometry":{"type":"Point","coordinates":[-78.937394,43.8719956]},"properties":{"kind":"fuse","edgeId":"electric-E65","feeder":"F1-01"}},{"type":"Feature","id":"FUSE-00015","geometry":{"type":"Point","coordinates":[-78.9373314,43.8718684]},"properties":{"kind":"fuse","edgeId":"electric-E66","feeder":"F1-01"}},{"type":"Feature","id":"FUSE-00016","geometry":{"type":"Point","coordinates":[-78.9363149,43.8722364]},"properties":{"kind":"fuse","edgeId":"electric-E73","feeder":"F1-01"}},{"type":"Feature","id":"FUSE-00017","geometry":{"type":"Point","coordinates":[-78.9362509,43.8720994]},"properties":{"kind":"fuse","edgeId":"electric-E74","feeder":"F1-01"}},{"type":"Feature","id":"SW-F1-01-03","geometry":{"type":"Point","coordinates":[-78.9361629,43.8722492]},"properties":{"kind":"sectionalising_switch","edgeId":"electric-E75","feeder":"F1-01","normally":"closed","mount":"pad"}},{"type":"Feature","id":"FUSE-00019","geometry":{"type":"Point","coordinates":[-78.9343024,43.8725304]},"properties":{"kind":"fuse","edgeId":"electric-E83","feeder":"F1-01"}},{"type":"Feature","id":"RISER-00002","geometry":{"type":"Point","coordinates":[-78.9354727,43.8703214]},"properties":{"kind":"riser","nodeId":"electric-J-58","edgeId":"electric-E85","feeder":"F1-01","from":"underground","to":"overhead"}},{"type":"Feature","id":"FUSE-00021","geometry":{"type":"Point","coordinates":[-78.932318,43.8729603]},"properties":{"kind":"fuse","edgeId":"electric-E92","feeder":"F1-01"}},{"type":"Feature","id":"SW-F1-02-01","geometry":{"type":"Point","coordinates":[-78.9386374,43.8716578]},"properties":{"kind":"sectionalising_switch","edgeId":"electric-E117","feeder":"F1-02","normally":"closed","mount":"pad"}},{"type":"Feature","id":"RISER-00003","geometry":{"type":"Point","coordinates":[-78.9381437,43.8706664]},"properties":{"kind":"riser","nodeId":"electric-J-38","edgeId":"electric-E120","feeder":"F1-02","from":"underground","to":"overhead"}},{"type":"Feature","id":"FUSE-00024","geometry":{"type":"Point","coordinates":[-78.9381371,43.8707286]},"properties":{"kind":"fuse","edgeId":"electric-E121","feeder":"F1-02"}},{"type":"Feature","id":"FUSE-00025","geometry":{"type":"Point","coordinates":[-78.9382313,43.8703693]},"properties":{"kind":"fuse","edgeId":"electric-E122","feeder":"F1-02"}},{"type":"Feature","id":"RISER-00004","geometry":{"type":"Point","coordinates":[-78.9381628,43.870327]},"properties":{"kind":"riser","nodeId":"electric-J-39","edgeId":"electric-E122","feeder":"F1-02","from":"overhead","to":"underground"}},{"type":"Feature","id":"RISER-00005","geometry":{"type":"Point","coordinates":[-78.9393754,43.8701179]},"properties":{"kind":"riser","nodeId":"electric-J-34","edgeId":"electric-E127","feeder":"F1-02","from":"underground","to":"overhead"}},{"type":"Feature","id":"FUSE-00028","geometry":{"type":"Point","coordinates":[-78.937704,43.8697499]},"properties":{"kind":"fuse","edgeId":"electric-E128","feeder":"F1-02"}},{"type":"Feature","id":"SW-F1-02-02","geometry":{"type":"Point","coordinates":[-78.9378487,43.8696089]},"properties":{"kind":"sectionalising_switch","edgeId":"electric-E129","feeder":"F1-02","normally":"closed","mount":"pole"}},{"type":"Feature","id":"FUSE-00030","geometry":{"type":"Point","coordinates":[-78.9375883,43.8689518]},"properties":{"kind":"fuse","edgeId":"electric-E135","feeder":"F1-02"}},{"type":"Feature","id":"SW-F1-02-03","geometry":{"type":"Point","coordinates":[-78.9370522,43.8678557]},"properties":{"kind":"sectionalising_switch","edgeId":"electric-E154","feeder":"F1-02","normally":"closed","mount":"pole"}},{"type":"Feature","id":"RISER-00006","geometry":{"type":"Point","coordinates":[-78.93659,43.8700027]},"properties":{"kind":"riser","nodeId":"electric-J-51","edgeId":"electric-E158","feeder":"F1-02","from":"overhead","to":"underground"}},{"type":"Feature","id":"FUSE-00033","geometry":{"type":"Point","coordinates":[-78.9353316,43.8683902]},"properties":{"kind":"fuse","edgeId":"electric-E174","feeder":"F1-02"}},{"type":"Feature","id":"FUSE-00034","geometry":{"type":"Point","coordinates":[-78.9360841,43.8686445]},"properties":{"kind":"fuse","edgeId":"electric-E180","feeder":"F1-02"}},{"type":"Feature","id":"RISER-00007","geometry":{"type":"Point","coordinates":[-78.9331659,43.867946]},"properties":{"kind":"riser","nodeId":"electric-J-66","edgeId":"electric-E189","feeder":"F1-02","from":"overhead","to":"underground"}},{"type":"Feature","id":"FUSE-00036","geometry":{"type":"Point","coordinates":[-78.9355395,43.8676106]},"properties":{"kind":"fuse","edgeId":"electric-E201","feeder":"F1-02"}},{"type":"Feature","id":"FUSE-00037","geometry":{"type":"Point","coordinates":[-78.9292322,43.869483]},"properties":{"kind":"fuse","edgeId":"electric-E221","feeder":"F1-02"}},{"type":"Feature","id":"TIE-F1-01-F1-02","geometry":{"type":"Point","coordinates":[-78.9385425,43.8715707]},"properties":{"kind":"tie_switch","edgeId":"electric-E1003","normally":"open","feeders":["F1-01","F1-02"]}},{"type":"Feature","id":"TIE-F1-01-F1-02-2","geometry":{"type":"Point","coordinates":[-78.931138,43.8701792]},"properties":{"kind":"tie_switch","edgeId":"electric-E1004","normally":"open","feeders":["F1-01","F1-02"]}},{"type":"Feature","id":"POLE-00001","geometry":{"type":"Point","coordinates":[-78.9400315,43.8685167]},"properties":{"kind":"pole","edgeId":"electric-E46","heightM":12.2}},{"type":"Feature","id":"POLE-00002","geometry":{"type":"Point","coordinates":[-78.9399324,43.8680854]},"properties":{"kind":"pole","edgeId":"electric-E46","heightM":12.2}},{"type":"Feature","id":"POLE-00003","geometry":{"type":"Point","coordinates":[-78.939883,43.8679717]},"properties":{"kind":"pole","edgeId":"electric-E46","heightM":12.2}},{"type":"Feature","id":"POLE-00004","geometry":{"type":"Point","coordinates":[-78.9398456,43.8678853]},"properties":{"kind":"pole","edgeId":"electric-E51","heightM":12.2}},{"type":"Feature","id":"POLE-00005","geometry":{"type":"Point","coordinates":[-78.9397092,43.8675707]},"properties":{"kind":"pole","edgeId":"electric-E55","heightM":12.2}},{"type":"Feature","id":"POLE-00006","geometry":{"type":"Point","coordinates":[-78.9396153,43.8673543]},"properties":{"kind":"pole","edgeId":"electric-E60","heightM":12.2}},{"type":"Feature","id":"POLE-00007","geometry":{"type":"Point","coordinates":[-78.9395055,43.8671012]},"properties":{"kind":"pole","edgeId":"electric-E60","heightM":12.2}},{"type":"Feature","id":"POLE-00008","geometry":{"type":"Point","coordinates":[-78.9354727,43.8703214]},"properties":{"kind":"pole","edgeId":"electric-E85","heightM":12.2}},{"type":"Feature","id":"POLE-00009","geometry":{"type":"Point","coordinates":[-78.935281,43.8702678]},"properties":{"kind":"pole","edgeId":"electric-E85","heightM":12.2}},{"type":"Feature","id":"POLE-00010","geometry":{"type":"Point","coordinates":[-78.9351776,43.8700344]},"properties":{"kind":"pole","edgeId":"electric-E85","heightM":12.2}},{"type":"Feature","id":"POLE-00011","geometry":{"type":"Point","coordinates":[-78.9351039,43.869868]},"properties":{"kind":"pole","edgeId":"electric-E89","heightM":12.2}},{"type":"Feature","id":"POLE-00012","geometry":{"type":"Point","coordinates":[-78.9350353,43.8697132]},"properties":{"kind":"pole","edgeId":"electric-E93","heightM":12.2}},{"type":"Feature","id":"POLE-00013","geometry":{"type":"Point","coordinates":[-78.9350341,43.8697105]},"properties":{"kind":"pole","edgeId":"electric-E97","heightM":12.2}},{"type":"Feature","id":"POLE-00014","geometry":{"type":"Point","coordinates":[-78.9349656,43.8695558]},"properties":{"kind":"pole","edgeId":"electric-E100","heightM":12.2}},{"type":"Feature","id":"POLE-00015","geometry":{"type":"Point","coordinates":[-78.9349642,43.8695525]},"properties":{"kind":"pole","edgeId":"electric-E103","heightM":12.2}},{"type":"Feature","id":"POLE-00016","geometry":{"type":"Point","coordinates":[-78.9381437,43.8706664]},"properties":{"kind":"pole","edgeId":"electric-E120","heightM":12.2}},{"type":"Feature","id":"POLE-00017","geometry":{"type":"Point","coordinates":[-78.9381628,43.870327]},"properties":{"kind":"pole","edgeId":"electric-E120","heightM":12.2}},{"type":"Feature","id":"POLE-00018","geometry":{"type":"Point","coordinates":[-78.9380422,43.8700448]},"properties":{"kind":"pole","edgeId":"electric-E123","heightM":12.2}},{"type":"Feature","id":"POLE-00019","geometry":{"type":"Point","coordinates":[-78.9380158,43.8699832]},"properties":{"kind":"pole","edgeId":"electric-E125","heightM":12.2}},{"type":"Feature","id":"POLE-00020","geometry":{"type":"Point","coordinates":[-78.9379824,43.8699048]},"properties":{"kind":"pole","edgeId":"electric-E125","heightM":12.2}},{"type":"Feature","id":"POLE-00021","geometry":{"type":"Point","coordinates":[-78.9379158,43.8697648]},"properties":{"kind":"pole","edgeId":"electric-E125","heightM":12.2}},{"type":"Feature","id":"POLE-00022","geometry":{"type":"Point","coordinates":[-78.9393754,43.8701179]},"properties":{"kind":"pole","edgeId":"electric-E127","heightM":12.2}},{"type":"Feature","id":"POLE-00023","geometry":{"type":"Point","coordinates":[-78.9392511,43.8700351]},"properties":{"kind":"pole","edgeId":"electric-E127","heightM":12.2}},{"type":"Feature","id":"POLE-00024","geometry":{"type":"Point","coordinates":[-78.9391705,43.8698459]},"properties":{"kind":"pole","edgeId":"electric-E127","heightM":12.2}},{"type":"Feature","id":"POLE-00025","geometry":{"type":"Point","coordinates":[-78.937704,43.8697499]},"properties":{"kind":"pole","edgeId":"electric-E128","heightM":12.2}},{"type":"Feature","id":"POLE-00026","geometry":{"type":"Point","coordinates":[-78.9376753,43.8697564]},"properties":{"kind":"pole","edgeId":"electric-E128","heightM":12.2}},{"type":"Feature","id":"POLE-00027","geometry":{"type":"Point","coordinates":[-78.9375769,43.8697829]},"properties":{"kind":"pole","edgeId":"electric-E128","heightM":12.2}},{"type":"Feature","id":"POLE-00028","geometry":{"type":"Point","coordinates":[-78.9378487,43.8696089]},"properties":{"kind":"pole","edgeId":"electric-E129","heightM":12.2}},{"type":"Feature","id":"POLE-00029","geometry":{"type":"Point","coordinates":[-78.9377542,43.8693895]},"properties":{"kind":"pole","edgeId":"electric-E129","heightM":12.2}},{"type":"Feature","id":"POLE-00030","geometry":{"type":"Point","coordinates":[-78.9390647,43.8695974]},"properties":{"kind":"pole","edgeId":"electric-E130","heightM":12.2}},{"type":"Feature","id":"POLE-00031","geometry":{"type":"Point","coordinates":[-78.9375235,43.8697973]},"properties":{"kind":"pole","edgeId":"electric-E131","heightM":12.2}},{"type":"Feature","id":"POLE-00032","geometry":{"type":"Point","coordinates":[-78.9374838,43.869808]},"properties":{"kind":"pole","edgeId":"electric-E131","heightM":12.2}},{"type":"Feature","id":"POLE-00033","geometry":{"type":"Point","coordinates":[-78.9373395,43.8698377]},"properties":{"kind":"pole","edgeId":"electric-E131","heightM":12.2}},{"type":"Feature","id":"POLE-00034","geometry":{"type":"Point","coordinates":[-78.9373311,43.8698396]},"properties":{"kind":"pole","edgeId":"electric-E131","heightM":12.2}},{"type":"Feature","id":"POLE-00035","geometry":{"type":"Point","coordinates":[-78.937706,43.8692774]},"properties":{"kind":"pole","edgeId":"electric-E132","heightM":12.2}},{"type":"Feature","id":"POLE-00036","geometry":{"type":"Point","coordinates":[-78.9376578,43.8691667]},"properties":{"kind":"pole","edgeId":"electric-E132","heightM":12.2}},{"type":"Feature","id":"POLE-00037","geometry":{"type":"Point","coordinates":[-78.9375927,43.8690165]},"properties":{"kind":"pole","edgeId":"electric-E132","heightM":12.2}},{"type":"Feature","id":"POLE-00038","geometry":{"type":"Point","coordinates":[-78.9390592,43.8695845]},"properties":{"kind":"pole","edgeId":"electric-E133","heightM":12.2}},{"type":"Feature","id":"POLE-00039","geometry":{"type":"Point","coordinates":[-78.9373167,43.8698428]},"properties":{"kind":"pole","edgeId":"electric-E134","heightM":12.2}},{"type":"Feature","id":"POLE-00040","geometry":{"type":"Point","coordinates":[-78.9375883,43.8689518]},"properties":{"kind":"pole","edgeId":"electric-E135","heightM":12.2}},{"type":"Feature","id":"POLE-00041","geometry":{"type":"Point","coordinates":[-78.9376294,43.8689419]},"properties":{"kind":"pole","edgeId":"electric-E135","heightM":12.2}},{"type":"Feature","id":"POLE-00042","geometry":{"type":"Point","coordinates":[-78.9379062,43.8688797]},"properties":{"kind":"pole","edgeId":"electric-E135","heightM":12.2}},{"type":"Feature","id":"POLE-00043","geometry":{"type":"Point","coordinates":[-78.938,43.8688586]},"properties":{"kind":"pole","edgeId":"electric-E135","heightM":12.2}},{"type":"Feature","id":"POLE-00044","geometry":{"type":"Point","coordinates":[-78.9375338,43.8688671]},"properties":{"kind":"pole","edgeId":"electric-E136","heightM":12.2}},{"type":"Feature","id":"POLE-00045","geometry":{"type":"Point","coordinates":[-78.9370772,43.8698958]},"properties":{"kind":"pole","edgeId":"electric-E137","heightM":12.2}},{"type":"Feature","id":"POLE-00046","geometry":{"type":"Point","coordinates":[-78.9380336,43.868851]},"properties":{"kind":"pole","edgeId":"electric-E138","heightM":12.2}},{"type":"Feature","id":"POLE-00047","geometry":{"type":"Point","coordinates":[-78.9382639,43.8687992]},"properties":{"kind":"pole","edgeId":"electric-E138","heightM":12.2}},{"type":"Feature","id":"POLE-00048","geometry":{"type":"Point","coordinates":[-78.9387634,43.8686866]},"properties":{"kind":"pole","edgeId":"electric-E138","heightM":12.2}},{"type":"Feature","id":"POLE-00049","geometry":{"type":"Point","coordinates":[-78.9375124,43.8688128]},"properties":{"kind":"pole","edgeId":"electric-E139","heightM":12.2}},{"type":"Feature","id":"POLE-00050","geometry":{"type":"Point","coordinates":[-78.9374507,43.8686565]},"properties":{"kind":"pole","edgeId":"electric-E139","heightM":12.2}},{"type":"Feature","id":"POLE-00051","geometry":{"type":"Point","coordinates":[-78.9374229,43.868593]},"properties":{"kind":"pole","edgeId":"electric-E139","heightM":12.2}},{"type":"Feature","id":"POLE-00052","geometry":{"type":"Point","coordinates":[-78.9370611,43.8698994]},"properties":{"kind":"pole","edgeId":"electric-E140","heightM":12.2}},{"type":"Feature","id":"POLE-00053","geometry":{"type":"Point","coordinates":[-78.9392475,43.8685792]},"properties":{"kind":"pole","edgeId":"electric-E141","heightM":12.2}},{"type":"Feature","id":"POLE-00054","geometry":{"type":"Point","coordinates":[-78.9386804,43.8686951]},"properties":{"kind":"pole","edgeId":"electric-E142","heightM":12.2}},{"type":"Feature","id":"POLE-00055","geometry":{"type":"Point","coordinates":[-78.9385761,43.8684437]},"properties":{"kind":"pole","edgeId":"electric-E142","heightM":12.2}},{"type":"Feature","id":"POLE-00056","geometry":{"type":"Point","coordinates":[-78.9387288,43.8688103]},"properties":{"kind":"pole","edgeId":"electric-E143","heightM":12.2}},{"type":"Feature","id":"POLE-00057","geometry":{"type":"Point","coordinates":[-78.9387435,43.8688433]},"properties":{"kind":"pole","edgeId":"electric-E143","heightM":12.2}},{"type":"Feature","id":"POLE-00058","geometry":{"type":"Point","coordinates":[-78.9387664,43.868897]},"properties":{"kind":"pole","edgeId":"electric-E143","heightM":12.2}},{"type":"Feature","id":"POLE-00059","geometry":{"type":"Point","coordinates":[-78.93892,43.8692577]},"properties":{"kind":"pole","edgeId":"electric-E143","heightM":12.2}},{"type":"Feature","id":"POLE-00060","geometry":{"type":"Point","coordinates":[-78.9373007,43.8683129]},"properties":{"kind":"pole","edgeId":"electric-E144","heightM":12.2}},{"type":"Feature","id":"POLE-00061","geometry":{"type":"Point","coordinates":[-78.9368273,43.8699512]},"properties":{"kind":"pole","edgeId":"electric-E145","heightM":12.2}},{"type":"Feature","id":"POLE-00062","geometry":{"type":"Point","coordinates":[-78.9385634,43.8684131]},"properties":{"kind":"pole","edgeId":"electric-E146","heightM":12.2}},{"type":"Feature","id":"POLE-00063","geometry":{"type":"Point","coordinates":[-78.9384134,43.8680516]},"properties":{"kind":"pole","edgeId":"electric-E146","heightM":12.2}},{"type":"Feature","id":"POLE-00064","geometry":{"type":"Point","coordinates":[-78.9371795,43.8680353]},"properties":{"kind":"pole","edgeId":"electric-E147","heightM":12.2}},{"type":"Feature","id":"POLE-00065","geometry":{"type":"Point","coordinates":[-78.9368164,43.8699536]},"properties":{"kind":"pole","edgeId":"electric-E148","heightM":12.2}},{"type":"Feature","id":"POLE-00066","geometry":{"type":"Point","coordinates":[-78.9383644,43.8679335]},"properties":{"kind":"pole","edgeId":"electric-E149","heightM":12.2}},{"type":"Feature","id":"POLE-00067","geometry":{"type":"Point","coordinates":[-78.9382145,43.867572]},"properties":{"kind":"pole","edgeId":"electric-E149","heightM":12.2}},{"type":"Feature","id":"POLE-00068","geometry":{"type":"Point","coordinates":[-78.9371385,43.8679502]},"properties":{"kind":"pole","edgeId":"electric-E150","heightM":12.2}},{"type":"Feature","id":"POLE-00069","geometry":{"type":"Point","coordinates":[-78.9369512,43.8680226]},"properties":{"kind":"pole","edgeId":"electric-E151","heightM":12.2}},{"type":"Feature","id":"POLE-00070","geometry":{"type":"Point","coordinates":[-78.9369114,43.8680315]},"properties":{"kind":"pole","edgeId":"electric-E151","heightM":12.2}},{"type":"Feature","id":"POLE-00071","geometry":{"type":"Point","coordinates":[-78.9366482,43.8680905]},"properties":{"kind":"pole","edgeId":"electric-E151","heightM":12.2}},{"type":"Feature","id":"POLE-00072","geometry":{"type":"Point","coordinates":[-78.9367024,43.8699788]},"properties":{"kind":"pole","edgeId":"electric-E152","heightM":12.2}},{"type":"Feature","id":"POLE-00073","geometry":{"type":"Point","coordinates":[-78.93659,43.8700027]},"properties":{"kind":"pole","edgeId":"electric-E152","heightM":12.2}},{"type":"Feature","id":"POLE-00074","geometry":{"type":"Point","coordinates":[-78.9380675,43.8672177]},"properties":{"kind":"pole","edgeId":"electric-E153","heightM":12.2}},{"type":"Feature","id":"POLE-00075","geometry":{"type":"Point","coordinates":[-78.9380566,43.8671802]},"properties":{"kind":"pole","edgeId":"electric-E153","heightM":12.2}},{"type":"Feature","id":"POLE-00076","geometry":{"type":"Point","coordinates":[-78.9380528,43.8671328]},"properties":{"kind":"pole","edgeId":"electric-E153","heightM":12.2}},{"type":"Feature","id":"POLE-00077","geometry":{"type":"Point","coordinates":[-78.9380657,43.8670897]},"properties":{"kind":"pole","edgeId":"electric-E153","heightM":12.2}},{"type":"Feature","id":"POLE-00078","geometry":{"type":"Point","coordinates":[-78.9381051,43.8670262]},"properties":{"kind":"pole","edgeId":"electric-E153","heightM":12.2}},{"type":"Feature","id":"POLE-00079","geometry":{"type":"Point","coordinates":[-78.9382288,43.8669622]},"properties":{"kind":"pole","edgeId":"electric-E153","heightM":12.2}},{"type":"Feature","id":"POLE-00080","geometry":{"type":"Point","coordinates":[-78.9383803,43.8668988]},"properties":{"kind":"pole","edgeId":"electric-E153","heightM":12.2}},{"type":"Feature","id":"POLE-00081","geometry":{"type":"Point","coordinates":[-78.9384866,43.866874]},"properties":{"kind":"pole","edgeId":"electric-E153","heightM":12.2}},{"type":"Feature","id":"POLE-00082","geometry":{"type":"Point","coordinates":[-78.9370522,43.8678557]},"properties":{"kind":"pole","edgeId":"electric-E154","heightM":12.2}},{"type":"Feature","id":"POLE-00083","geometry":{"type":"Point","coordinates":[-78.9369316,43.8676066]},"properties":{"kind":"pole","edgeId":"electric-E154","heightM":12.2}},{"type":"Feature","id":"POLE-00084","geometry":{"type":"Point","coordinates":[-78.9368853,43.8675003]},"properties":{"kind":"pole","edgeId":"electric-E154","heightM":12.2}},{"type":"Feature","id":"POLE-00085","geometry":{"type":"Point","coordinates":[-78.9371913,43.8678346]},"properties":{"kind":"pole","edgeId":"electric-E155","heightM":12.2}},{"type":"Feature","id":"POLE-00086","geometry":{"type":"Point","coordinates":[-78.9371194,43.8676756]},"properties":{"kind":"pole","edgeId":"electric-E155","heightM":12.2}},{"type":"Feature","id":"POLE-00087","geometry":{"type":"Point","coordinates":[-78.9362532,43.868179]},"properties":{"kind":"pole","edgeId":"electric-E156","heightM":12.2}},{"type":"Feature","id":"POLE-00088","geometry":{"type":"Point","coordinates":[-78.9366627,43.8699655]},"properties":{"kind":"pole","edgeId":"electric-E157","heightM":12.2}},{"type":"Feature","id":"POLE-00089","geometry":{"type":"Point","coordinates":[-78.936656,43.8699496]},"properties":{"kind":"pole","edgeId":"electric-E157","heightM":12.2}},{"type":"Feature","id":"POLE-00090","geometry":{"type":"Point","coordinates":[-78.9364984,43.8695898]},"properties":{"kind":"pole","edgeId":"electric-E157","heightM":12.2}},{"type":"Feature","id":"POLE-00091","geometry":{"type":"Point","coordinates":[-78.9364699,43.8695249]},"properties":{"kind":"pole","edgeId":"electric-E157","heightM":12.2}},{"type":"Feature","id":"POLE-00092","geometry":{"type":"Point","coordinates":[-78.9368424,43.867399]},"properties":{"kind":"pole","edgeId":"electric-E159","heightM":12.2}},{"type":"Feature","id":"POLE-00093","geometry":{"type":"Point","coordinates":[-78.9366411,43.867491]},"properties":{"kind":"pole","edgeId":"electric-E160","heightM":12.2}},{"type":"Feature","id":"POLE-00094","geometry":{"type":"Point","coordinates":[-78.9361761,43.8675941]},"properties":{"kind":"pole","edgeId":"electric-E160","heightM":12.2}},{"type":"Feature","id":"POLE-00095","geometry":{"type":"Point","coordinates":[-78.9370729,43.8675729]},"properties":{"kind":"pole","edgeId":"electric-E161","heightM":12.2}},{"type":"Feature","id":"POLE-00096","geometry":{"type":"Point","coordinates":[-78.9370281,43.8674688]},"properties":{"kind":"pole","edgeId":"electric-E161","heightM":12.2}},{"type":"Feature","id":"POLE-00097","geometry":{"type":"Point","coordinates":[-78.9360449,43.8682257]},"properties":{"kind":"pole","edgeId":"electric-E162","heightM":12.2}},{"type":"Feature","id":"POLE-00098","geometry":{"type":"Point","coordinates":[-78.9367037,43.8670674]},"properties":{"kind":"pole","edgeId":"electric-E163","heightM":12.2}},{"type":"Feature","id":"POLE-00099","geometry":{"type":"Point","coordinates":[-78.9357747,43.8676831]},"properties":{"kind":"pole","edgeId":"electric-E164","heightM":12.2}},{"type":"Feature","id":"POLE-00100","geometry":{"type":"Point","coordinates":[-78.9369813,43.8673676]},"properties":{"kind":"pole","edgeId":"electric-E165","heightM":12.2}},{"type":"Feature","id":"POLE-00101","geometry":{"type":"Point","coordinates":[-78.9360401,43.8682268]},"properties":{"kind":"pole","edgeId":"electric-E166","heightM":12.2}},{"type":"Feature","id":"POLE-00102","geometry":{"type":"Point","coordinates":[-78.9365526,43.8667061]},"properties":{"kind":"pole","edgeId":"electric-E167","heightM":12.2}},{"type":"Feature","id":"POLE-00103","geometry":{"type":"Point","coordinates":[-78.9365201,43.8666284]},"properties":{"kind":"pole","edgeId":"electric-E167","heightM":12.2}},{"type":"Feature","id":"POLE-00104","geometry":{"type":"Point","coordinates":[-78.9365022,43.8665828]},"properties":{"kind":"pole","edgeId":"electric-E167","heightM":12.2}},{"type":"Feature","id":"POLE-00105","geometry":{"type":"Point","coordinates":[-78.9353585,43.8677753]},"properties":{"kind":"pole","edgeId":"electric-E168","heightM":12.2}},{"type":"Feature","id":"POLE-00106","geometry":{"type":"Point","coordinates":[-78.936957,43.867304]},"properties":{"kind":"pole","edgeId":"electric-E169","heightM":12.2}},{"type":"Feature","id":"POLE-00107","geometry":{"type":"Point","coordinates":[-78.9368519,43.8670449]},"properties":{"kind":"pole","edgeId":"electric-E169","heightM":12.2}},{"type":"Feature","id":"POLE-00108","geometry":{"type":"Point","coordinates":[-78.9359464,43.8682478]},"properties":{"kind":"pole","edgeId":"electric-E170","heightM":12.2}},{"type":"Feature","id":"POLE-00109","geometry":{"type":"Point","coordinates":[-78.9358313,43.8682725]},"properties":{"kind":"pole","edgeId":"electric-E170","heightM":12.2}},{"type":"Feature","id":"POLE-00110","geometry":{"type":"Point","coordinates":[-78.9363596,43.8662198]},"properties":{"kind":"pole","edgeId":"electric-E171","heightM":12.2}},{"type":"Feature","id":"POLE-00111","geometry":{"type":"Point","coordinates":[-78.9363027,43.866075]},"properties":{"kind":"pole","edgeId":"electric-E171","heightM":12.2}},{"type":"Feature","id":"POLE-00112","geometry":{"type":"Point","coordinates":[-78.9348818,43.8678671]},"properties":{"kind":"pole","edgeId":"electric-E172","heightM":12.2}},{"type":"Feature","id":"POLE-00113","geometry":{"type":"Point","coordinates":[-78.9367051,43.8666827]},"properties":{"kind":"pole","edgeId":"electric-E173","heightM":12.2}},{"type":"Feature","id":"POLE-00114","geometry":{"type":"Point","coordinates":[-78.9366873,43.8666389]},"properties":{"kind":"pole","edgeId":"electric-E173","heightM":12.2}},{"type":"Feature","id":"POLE-00115","geometry":{"type":"Point","coordinates":[-78.9366546,43.8665551]},"properties":{"kind":"pole","edgeId":"electric-E173","heightM":12.2}},{"type":"Feature","id":"POLE-00116","geometry":{"type":"Point","coordinates":[-78.9353316,43.8683902]},"properties":{"kind":"pole","edgeId":"electric-E174","heightM":12.2}},{"type":"Feature","id":"POLE-00117","geometry":{"type":"Point","coordinates":[-78.9351616,43.8684303]},"properties":{"kind":"pole","edgeId":"electric-E174","heightM":12.2}},{"type":"Feature","id":"POLE-00118","geometry":{"type":"Point","coordinates":[-78.9359623,43.8683665]},"properties":{"kind":"pole","edgeId":"electric-E175","heightM":12.2}},{"type":"Feature","id":"POLE-00119","geometry":{"type":"Point","coordinates":[-78.9360481,43.8685623]},"properties":{"kind":"pole","edgeId":"electric-E175","heightM":12.2}},{"type":"Feature","id":"POLE-00120","geometry":{"type":"Point","coordinates":[-78.9362531,43.8659486]},"properties":{"kind":"pole","edgeId":"electric-E176","heightM":12.2}},{"type":"Feature","id":"POLE-00121","geometry":{"type":"Point","coordinates":[-78.9361847,43.8657617]},"properties":{"kind":"pole","edgeId":"electric-E176","heightM":12.2}},{"type":"Feature","id":"POLE-00122","geometry":{"type":"Point","coordinates":[-78.9361209,43.8655766]},"properties":{"kind":"pole","edgeId":"electric-E176","heightM":12.2}},{"type":"Feature","id":"POLE-00123","geometry":{"type":"Point","coordinates":[-78.9347569,43.8678911]},"properties":{"kind":"pole","edgeId":"electric-E177","heightM":12.2}},{"type":"Feature","id":"POLE-00124","geometry":{"type":"Point","coordinates":[-78.9344365,43.8679375]},"properties":{"kind":"pole","edgeId":"electric-E177","heightM":12.2}},{"type":"Feature","id":"POLE-00125","geometry":{"type":"Point","coordinates":[-78.9341854,43.8679759]},"properties":{"kind":"pole","edgeId":"electric-E177","heightM":12.2}},{"type":"Feature","id":"POLE-00126","geometry":{"type":"Point","coordinates":[-78.9340651,43.867981]},"properties":{"kind":"pole","edgeId":"electric-E177","heightM":12.2}},{"type":"Feature","id":"POLE-00127","geometry":{"type":"Point","coordinates":[-78.9339847,43.867982]},"properties":{"kind":"pole","edgeId":"electric-E177","heightM":12.2}},{"type":"Feature","id":"POLE-00128","geometry":{"type":"Point","coordinates":[-78.9365943,43.8664002]},"properties":{"kind":"pole","edgeId":"electric-E178","heightM":12.2}},{"type":"Feature","id":"POLE-00129","geometry":{"type":"Point","coordinates":[-78.9364614,43.8660796]},"properties":{"kind":"pole","edgeId":"electric-E178","heightM":12.2}},{"type":"Feature","id":"POLE-00130","geometry":{"type":"Point","coordinates":[-78.9347554,43.8685261]},"properties":{"kind":"pole","edgeId":"electric-E179","heightM":12.2}},{"type":"Feature","id":"POLE-00131","geometry":{"type":"Point","coordinates":[-78.9345474,43.8685716]},"properties":{"kind":"pole","edgeId":"electric-E179","heightM":12.2}},{"type":"Feature","id":"POLE-00132","geometry":{"type":"Point","coordinates":[-78.934647,43.8688155]},"properties":{"kind":"pole","edgeId":"electric-E179","heightM":12.2}},{"type":"Feature","id":"POLE-00133","geometry":{"type":"Point","coordinates":[-78.9360841,43.8686445]},"properties":{"kind":"pole","edgeId":"electric-E180","heightM":12.2}},{"type":"Feature","id":"POLE-00134","geometry":{"type":"Point","coordinates":[-78.9362418,43.8690043]},"properties":{"kind":"pole","edgeId":"electric-E180","heightM":12.2}},{"type":"Feature","id":"POLE-00135","geometry":{"type":"Point","coordinates":[-78.9360871,43.8654786]},"properties":{"kind":"pole","edgeId":"electric-E181","heightM":12.2}},{"type":"Feature","id":"POLE-00136","geometry":{"type":"Point","coordinates":[-78.9359774,43.8651669]},"properties":{"kind":"pole","edgeId":"electric-E181","heightM":12.2}},{"type":"Feature","id":"POLE-00137","geometry":{"type":"Point","coordinates":[-78.9338967,43.8679832]},"properties":{"kind":"pole","edgeId":"electric-E182","heightM":12.2}},{"type":"Feature","id":"POLE-00138","geometry":{"type":"Point","coordinates":[-78.9336659,43.8679862]},"properties":{"kind":"pole","edgeId":"electric-E182","heightM":12.2}},{"type":"Feature","id":"POLE-00139","geometry":{"type":"Point","coordinates":[-78.933525,43.8679881]},"properties":{"kind":"pole","edgeId":"electric-E182","heightM":12.2}},{"type":"Feature","id":"POLE-00140","geometry":{"type":"Point","coordinates":[-78.9334984,43.8679884]},"properties":{"kind":"pole","edgeId":"electric-E182","heightM":12.2}},{"type":"Feature","id":"POLE-00141","geometry":{"type":"Point","coordinates":[-78.9363347,43.8657737]},"properties":{"kind":"pole","edgeId":"electric-E183","heightM":12.2}},{"type":"Feature","id":"POLE-00142","geometry":{"type":"Point","coordinates":[-78.9362752,43.8655993]},"properties":{"kind":"pole","edgeId":"electric-E183","heightM":12.2}},{"type":"Feature","id":"POLE-00143","geometry":{"type":"Point","coordinates":[-78.9347535,43.8690761]},"properties":{"kind":"pole","edgeId":"electric-E184","heightM":12.2}},{"type":"Feature","id":"POLE-00144","geometry":{"type":"Point","coordinates":[-78.9332858,43.8679903]},"properties":{"kind":"pole","edgeId":"electric-E185","heightM":12.2}},{"type":"Feature","id":"POLE-00145","geometry":{"type":"Point","coordinates":[-78.9331659,43.867946]},"properties":{"kind":"pole","edgeId":"electric-E185","heightM":12.2}},{"type":"Feature","id":"POLE-00146","geometry":{"type":"Point","coordinates":[-78.9362431,43.8655055]},"properties":{"kind":"pole","edgeId":"electric-E186","heightM":12.2}},{"type":"Feature","id":"POLE-00147","geometry":{"type":"Point","coordinates":[-78.9361315,43.8651784]},"properties":{"kind":"pole","edgeId":"electric-E186","heightM":12.2}},{"type":"Feature","id":"POLE-00148","geometry":{"type":"Point","coordinates":[-78.9347582,43.8690875]},"properties":{"kind":"pole","edgeId":"electric-E187","heightM":12.2}},{"type":"Feature","id":"POLE-00149","geometry":{"type":"Point","coordinates":[-78.9348163,43.8692186]},"properties":{"kind":"pole","edgeId":"electric-E187","heightM":12.2}},{"type":"Feature","id":"POLE-00150","geometry":{"type":"Point","coordinates":[-78.9332353,43.8678812]},"properties":{"kind":"pole","edgeId":"electric-E188","heightM":12.2}},{"type":"Feature","id":"POLE-00151","geometry":{"type":"Point","coordinates":[-78.9335011,43.8678845]},"properties":{"kind":"pole","edgeId":"electric-E188","heightM":12.2}},{"type":"Feature","id":"POLE-00152","geometry":{"type":"Point","coordinates":[-78.9348197,43.8692264]},"properties":{"kind":"pole","edgeId":"electric-E190","heightM":12.2}},{"type":"Feature","id":"POLE-00153","geometry":{"type":"Point","coordinates":[-78.9336613,43.8678804]},"properties":{"kind":"pole","edgeId":"electric-E191","heightM":12.2}},{"type":"Feature","id":"POLE-00154","geometry":{"type":"Point","coordinates":[-78.9338819,43.8678748]},"properties":{"kind":"pole","edgeId":"electric-E191","heightM":12.2}},{"type":"Feature","id":"POLE-00155","geometry":{"type":"Point","coordinates":[-78.9339921,43.867872]},"properties":{"kind":"pole","edgeId":"electric-E191","heightM":12.2}},{"type":"Feature","id":"POLE-00156","geometry":{"type":"Point","coordinates":[-78.934889,43.8693827]},"properties":{"kind":"pole","edgeId":"electric-E193","heightM":12.2}},{"type":"Feature","id":"POLE-00157","geometry":{"type":"Point","coordinates":[-78.9340506,43.8678705]},"properties":{"kind":"pole","edgeId":"electric-E194","heightM":12.2}},{"type":"Feature","id":"POLE-00158","geometry":{"type":"Point","coordinates":[-78.9343957,43.8678403]},"properties":{"kind":"pole","edgeId":"electric-E194","heightM":12.2}},{"type":"Feature","id":"POLE-00159","geometry":{"type":"Point","coordinates":[-78.9347565,43.8677849]},"properties":{"kind":"pole","edgeId":"electric-E194","heightM":12.2}},{"type":"Feature","id":"POLE-00160","geometry":{"type":"Point","coordinates":[-78.9347834,43.8677808]},"properties":{"kind":"pole","edgeId":"electric-E197","heightM":12.2}},{"type":"Feature","id":"POLE-00161","geometry":{"type":"Point","coordinates":[-78.9352295,43.8676862]},"properties":{"kind":"pole","edgeId":"electric-E197","heightM":12.2}},{"type":"Feature","id":"POLE-00162","geometry":{"type":"Point","coordinates":[-78.9354218,43.8676431]},"properties":{"kind":"pole","edgeId":"electric-E199","heightM":12.2}},{"type":"Feature","id":"POLE-00163","geometry":{"type":"Point","coordinates":[-78.9355395,43.8676106]},"properties":{"kind":"pole","edgeId":"electric-E201","heightM":12.2}},{"type":"Feature","id":"POLE-00164","geometry":{"type":"Point","coordinates":[-78.9354685,43.8674605]},"properties":{"kind":"pole","edgeId":"electric-E201","heightM":12.2}},{"type":"Feature","id":"POLE-00165","geometry":{"type":"Point","coordinates":[-78.9353763,43.8673962]},"properties":{"kind":"pole","edgeId":"electric-E201","heightM":12.2}},{"type":"Feature","id":"POLE-00166","geometry":{"type":"Point","coordinates":[-78.9357985,43.8675647]},"properties":{"kind":"pole","edgeId":"electric-E202","heightM":12.2}},{"type":"Feature","id":"POLE-00167","geometry":{"type":"Point","coordinates":[-78.9353699,43.8673481]},"properties":{"kind":"pole","edgeId":"electric-E204","heightM":12.2}},{"type":"Feature","id":"POLE-00168","geometry":{"type":"Point","coordinates":[-78.9353061,43.8672145]},"properties":{"kind":"pole","edgeId":"electric-E204","heightM":12.2}},{"type":"Feature","id":"POLE-00169","geometry":{"type":"Point","coordinates":[-78.9353044,43.8672108]},"properties":{"kind":"pole","edgeId":"electric-E204","heightM":12.2}},{"type":"Feature","id":"electric-supply","geometry":{"type":"Point","coordinates":[-78.945258,43.8744653]},"properties":{"kind":"external_supply","label":"Regional grid · 115 kV (off-map)","elevationM":89.163}},{"type":"Feature","id":"electric-station","geometry":{"type":"Point","coordinates":[-78.9445768,43.8713514]},"properties":{"kind":"substation","label":"Substation 1","facilityId":"SUB-01","ratingMVA":10.0,"primaryKV":115.0,"secondaryKV":13.8,"feeders":2,"designKVA":2674.3,"elevationM":89.0}},{"type":"Feature","id":"electric-TX-00001","geometry":{"type":"Point","coordinates":[-78.9447111,43.8684665]},"properties":{"kind":"transformer","label":"Pad-mount transformer","ratingKVA":25.0,"primaryKV":13.8,"secondaryKV":0.24,"phases":1,"phase":"C","feeder":"F1-01","mount":"pad","customers":1,"designKVA":3.0,"loadingPct":12.0,"elevationM":91.202}},{"type":"Feature","id":"electric-TX-00002","geometry":{"type":"Point","coordinates":[-78.944208,43.8676302]},"properties":{"kind":"transformer","label":"Pad-mount transformer","ratingKVA":50.0,"primaryKV":13.8,"secondaryKV":0.24,"phases":1,"phase":"A","feeder":"F1-01","mount":"pad","customers":10,"designKVA":43.12,"loadingPct":86.2,"elevationM":89.758}},{"type":"Feature","id":"electric-TX-00003","geometry":{"type":"Point","coordinates":[-78.9435048,43.8682651]},"properties":{"kind":"transformer","label":"Pad-mount transformer","ratingKVA":50.0,"primaryKV":13.8,"secondaryKV":0.24,"phases":1,"phase":"A","feeder":"F1-01","mount":"pad","customers":10,"designKVA":36.05,"loadingPct":72.1,"elevationM":87.513}},{"type":"Feature","id":"electric-TX-00004","geometry":{"type":"Point","coordinates":[-78.9441212,43.8690242]},"properties":{"kind":"transformer","label":"Pad-mount transformer","ratingKVA":50.0,"primaryKV":13.8,"secondaryKV":0.24,"phases":1,"phase":"A","feeder":"F1-01","mount":"pad","customers":10,"designKVA":35.99,"loadingPct":72.0,"elevationM":88.852}},{"type":"Feature","id":"electric-TX-00005","geometry":{"type":"Point","coordinates":[-78.9443592,43.8694191]},"properties":{"kind":"transformer","label":"Pad-mount transformer","ratingKVA":25.0,"primaryKV":13.8,"secondaryKV":0.24,"phases":1,"phase":"A","feeder":"F1-01","mount":"pad","customers":1,"designKVA":5.01,"loadingPct":20.0,"elevationM":89.469}},{"type":"Feature","id":"electric-TX-00006","geometry":{"type":"Point","coordinates":[-78.9439638,43.870347]},"properties":{"kind":"transformer","label":"Pad-mount transformer","ratingKVA":25.0,"primaryKV":13.8,"secondaryKV":0.24,"phases":1,"phase":"ABC","feeder":"F1-01","mount":"pad","customers":1,"designKVA":18.64,"loadingPct":74.6,"elevationM":87.696}},{"type":"Feature","id":"electric-TX-00007","geometry":{"type":"Point","coordinates":[-78.9431471,43.8705285]},"properties":{"kind":"transformer","label":"Pad-mount transformer","ratingKVA":25.0,"primaryKV":13.8,"secondaryKV":0.24,"phases":1,"phase":"ABC","feeder":"F1-01","mount":"pad","customers":2,"designKVA":4.87,"loadingPct":19.5,"elevationM":85.911}},{"type":"Feature","id":"electric-TX-00008","geometry":{"type":"Point","coordinates":[-78.9423735,43.8711199]},"properties":{"kind":"transformer","label":"Pad-mount transformer","ratingKVA":25.0,"primaryKV":13.8,"secondaryKV":0.24,"phases":1,"phase":"B","feeder":"F1-01","mount":"pad","customers":7,"designKVA":24.56,"loadingPct":98.3,"elevationM":85.246}},{"type":"Feature","id":"electric-TX-00009","geometry":{"type":"Point","coordinates":[-78.9419466,43.8719278]},"properties":{"kind":"transformer","label":"Pad-mount transformer","ratingKVA":25.0,"primaryKV":13.8,"secondaryKV":0.24,"phases":1,"phase":"C","feeder":"F1-01","mount":"pad","customers":3,"designKVA":17.11,"loadingPct":68.4,"elevationM":86.35}},{"type":"Feature","id":"electric-TX-00010","geometry":{"type":"Point","coordinates":[-78.9417136,43.8681422]},"properties":{"kind":"transformer","label":"Pad-mount transformer","ratingKVA":50.0,"primaryKV":13.8,"secondaryKV":0.24,"phases":1,"phase":"B","feeder":"F1-01","mount":"pad","customers":8,"designKVA":36.92,"loadingPct":73.8,"elevationM":85.74}},{"type":"Feature","id":"electric-TX-00011","geometry":{"type":"Point","coordinates":[-78.9420567,43.8703928]},"properties":{"kind":"transformer","label":"Pad-mount transformer","ratingKVA":50.0,"primaryKV":13.8,"secondaryKV":0.24,"phases":1,"phase":"C","feeder":"F1-01","mount":"pad","customers":10,"designKVA":34.26,"loadingPct":68.5,"elevationM":84.956}},{"type":"Feature","id":"electric-TX-00012","geometry":{"type":"Point","coordinates":[-78.9417396,43.8696793]},"properties":{"kind":"transformer","label":"Pad-mount transformer","ratingKVA":50.0,"primaryKV":13.8,"secondaryKV":0.24,"phases":1,"phase":"C","feeder":"F1-01","mount":"pad","customers":10,"designKVA":41.95,"loadingPct":83.9,"elevationM":84.919}},{"type":"Feature","id":"electric-TX-00013","geometry":{"type":"Point","coordinates":[-78.9417753,43.8710223]},"properties":{"kind":"transformer","label":"Pad-mount transformer","ratingKVA":25.0,"primaryKV":13.8,"secondaryKV":0.24,"phases":1,"phase":"ABC","feeder":"F1-01","mount":"pad","customers":2,"designKVA":6.04,"loadingPct":24.1,"elevationM":84.874}},{"type":"Feature","id":"electric-TX-00014","geometry":{"type":"Point","coordinates":[-78.9413513,43.8687982]},"properties":{"kind":"transformer","label":"Pad-mount transformer","ratingKVA":50.0,"primaryKV":13.8,"secondaryKV":0.24,"phases":1,"phase":"B","feeder":"F1-01","mount":"pad","customers":10,"designKVA":46.86,"loadingPct":93.7,"elevationM":85.102}},{"type":"Feature","id":"electric-TX-00015","geometry":{"type":"Point","coordinates":[-78.9408319,43.8694771]},"properties":{"kind":"transformer","label":"Pad-mount transformer","ratingKVA":25.0,"primaryKV":13.8,"secondaryKV":0.24,"phases":1,"phase":"A","feeder":"F1-01","mount":"pad","customers":4,"designKVA":22.18,"loadingPct":88.7,"elevationM":84.686}},{"type":"Feature","id":"electric-TX-00016","geometry":{"type":"Point","coordinates":[-78.9412205,43.8715305]},"properties":{"kind":"transformer","label":"Pad-mount transformer","ratingKVA":50.0,"primaryKV":13.8,"secondaryKV":0.24,"phases":1,"phase":"C","feeder":"F1-01","mount":"pad","customers":9,"designKVA":34.07,"loadingPct":68.1,"elevationM":85.355}},{"type":"Feature","id":"electric-TX-00017","geometry":{"type":"Point","coordinates":[-78.940717,43.8722031]},"properties":{"kind":"transformer","label":"Pad-mount transformer","ratingKVA":25.0,"primaryKV":13.8,"secondaryKV":0.24,"phases":1,"phase":"C","feeder":"F1-01","mount":"pad","customers":3,"designKVA":11.38,"loadingPct":45.5,"elevationM":86.738}},{"type":"Feature","id":"electric-TX-00018","geometry":{"type":"Point","coordinates":[-78.9408348,43.8676208]},"properties":{"kind":"transformer","label":"Pad-mount transformer","ratingKVA":50.0,"primaryKV":13.8,"secondaryKV":0.24,"phases":1,"phase":"B","feeder":"F1-01","mount":"pad","customers":10,"designKVA":35.13,"loadingPct":70.3,"elevationM":85.791}},{"type":"Feature","id":"electric-TX-00019","geometry":{"type":"Point","coordinates":[-78.9406433,43.867179]},"properties":{"kind":"transformer","label":"Pad-mount transformer","ratingKVA":25.0,"primaryKV":13.8,"secondaryKV":0.24,"phases":1,"phase":"B","feeder":"F1-01","mount":"pad","customers":2,"designKVA":9.04,"loadingPct":36.2,"elevationM":86.001}},{"type":"Feature","id":"electric-TX-00020","geometry":{"type":"Point","coordinates":[-78.9403807,43.8684522]},"properties":{"kind":"transformer","label":"Pad-mount transformer","ratingKVA":25.0,"primaryKV":13.8,"secondaryKV":0.24,"phases":1,"phase":"B","feeder":"F1-01","mount":"pad","customers":4,"designKVA":15.55,"loadingPct":62.2,"elevationM":84.909}},{"type":"Feature","id":"electric-TX-00021","geometry":{"type":"Point","coordinates":[-78.9408324,43.8706108]},"properties":{"kind":"transformer","label":"Pad-mount transformer","ratingKVA":50.0,"primaryKV":13.8,"secondaryKV":0.24,"phases":1,"phase":"A","feeder":"F1-01","mount":"pad","customers":10,"designKVA":33.59,"loadingPct":67.2,"elevationM":84.493}},{"type":"Feature","id":"electric-TX-00022","geometry":{"type":"Point","coordinates":[-78.9405988,43.8700521]},"properties":{"kind":"transformer","label":"Pad-mount transformer","ratingKVA":25.0,"primaryKV":13.8,"secondaryKV":0.24,"phases":1,"phase":"A","feeder":"F1-01","mount":"pad","customers":4,"designKVA":24.16,"loadingPct":96.6,"elevationM":84.444}},{"type":"Feature","id":"electric-TX-00023","geometry":{"type":"Point","coordinates":[-78.9405451,43.8712963]},"properties":{"kind":"transformer","label":"Pad-mount transformer","ratingKVA":25.0,"primaryKV":13.8,"secondaryKV":0.24,"phases":1,"phase":"ABC","feeder":"F1-01","mount":"pad","customers":2,"designKVA":8.39,"loadingPct":33.6,"elevationM":84.924}},{"type":"Feature","id":"electric-TX-00024","geometry":{"type":"Point","coordinates":[-78.9404303,43.869658]},"properties":{"kind":"transformer","label":"Pad-mount transformer","ratingKVA":25.0,"primaryKV":13.8,"secondaryKV":0.24,"phases":1,"phase":"A","feeder":"F1-01","mount":"pad","customers":1,"designKVA":5.52,"loadingPct":22.1,"elevationM":84.483}},{"type":"Feature","id":"electric-TX-00025","geometry":{"type":"Point","coordinates":[-78.9397943,43.8700419]},"properties":{"kind":"transformer","label":"Pad-mount transformer","ratingKVA":25.0,"primaryKV":13.8,"secondaryKV":0.24,"phases":1,"phase":"B","feeder":"F1-02","mount":"pad","customers":6,"designKVA":20.71,"loadingPct":82.8,"elevationM":84.175}},{"type":"Feature","id":"electric-TX-00026","geometry":{"type":"Point","coordinates":[-78.9401679,43.8690652]},"properties":{"kind":"transformer","label":"Pad-mount transformer","ratingKVA":25.0,"primaryKV":13.8,"secondaryKV":0.24,"phases":1,"phase":"A","feeder":"F1-01","mount":"pad","customers":7,"designKVA":21.11,"loadingPct":84.5,"elevationM":84.543}},{"type":"Feature","id":"electric-TX-00027","geometry":{"type":"Point","coordinates":[-78.9401538,43.8685955]},"properties":{"kind":"transformer","label":"Pole-mount transformer","ratingKVA":25.0,"primaryKV":13.8,"secondaryKV":0.24,"phases":1,"phase":"B","feeder":"F1-01","mount":"pole","customers":1,"designKVA":4.38,"loadingPct":17.5,"elevationM":84.702}},{"type":"Feature","id":"electric-TX-00028","geometry":{"type":"Point","coordinates":[-78.9399572,43.8717331]},"properties":{"kind":"transformer","label":"Pad-mount transformer","ratingKVA":50.0,"primaryKV":13.8,"secondaryKV":0.24,"phases":1,"phase":"C","feeder":"F1-01","mount":"pad","customers":8,"designKVA":37.31,"loadingPct":74.6,"elevationM":85.811}},{"type":"Feature","id":"electric-TX-00029","geometry":{"type":"Point","coordinates":[-78.9392475,43.8685792]},"properties":{"kind":"transformer","label":"Pole-mount transformer","ratingKVA":25.0,"primaryKV":13.8,"secondaryKV":0.24,"phases":1,"phase":"A","feeder":"F1-02","mount":"pole","customers":6,"designKVA":24.17,"loadingPct":96.7,"elevationM":84.155}},{"type":"Feature","id":"electric-TX-00030","geometry":{"type":"Point","coordinates":[-78.939883,43.8679717]},"properties":{"kind":"transformer","label":"Pole-mount transformer","ratingKVA":25.0,"primaryKV":13.8,"secondaryKV":0.24,"phases":1,"phase":"B","feeder":"F1-01","mount":"pole","customers":1,"designKVA":4.47,"loadingPct":17.9,"elevationM":84.88}},{"type":"Feature","id":"electric-TX-00031","geometry":{"type":"Point","coordinates":[-78.9398599,43.8678821]},"properties":{"kind":"transformer","label":"Pad-mount transformer","ratingKVA":25.0,"primaryKV":13.8,"secondaryKV":0.24,"phases":1,"phase":"B","feeder":"F1-01","mount":"pad","customers":2,"designKVA":9.75,"loadingPct":39.0,"elevationM":84.921}},{"type":"Feature","id":"electric-TX-00032","geometry":{"type":"Point","coordinates":[-78.9397092,43.8675707]},"properties":{"kind":"transformer","label":"Pole-mount transformer","ratingKVA":25.0,"primaryKV":13.8,"secondaryKV":0.24,"phases":1,"phase":"B","feeder":"F1-01","mount":"pole","customers":6,"designKVA":24.73,"loadingPct":98.9,"elevationM":85.037}},{"type":"Feature","id":"electric-TX-00033","geometry":{"type":"Point","coordinates":[-78.9395055,43.8671012]},"properties":{"kind":"transformer","label":"Pole-mount transformer","ratingKVA":25.0,"primaryKV":13.8,"secondaryKV":0.24,"phases":1,"phase":"B","feeder":"F1-01","mount":"pole","customers":6,"designKVA":20.59,"loadingPct":82.4,"elevationM":85.194}},{"type":"Feature","id":"electric-TX-00034","geometry":{"type":"Point","coordinates":[-78.9384866,43.866874]},"properties":{"kind":"transformer","label":"Pole-mount transformer","ratingKVA":25.0,"primaryKV":13.8,"secondaryKV":0.24,"phases":1,"phase":"A","feeder":"F1-02","mount":"pole","customers":4,"designKVA":7.86,"loadingPct":31.4,"elevationM":85.332}},{"type":"Feature","id":"electric-TX-00035","geometry":{"type":"Point","coordinates":[-78.9382145,43.867572]},"properties":{"kind":"transformer","label":"Pole-mount transformer","ratingKVA":25.0,"primaryKV":13.8,"secondaryKV":0.24,"phases":1,"phase":"A","feeder":"F1-02","mount":"pole","customers":6,"designKVA":27.21,"loadingPct":108.8,"elevationM":85.088}},{"type":"Feature","id":"electric-TX-00036","geometry":{"type":"Point","coordinates":[-78.9384134,43.8680516]},"properties":{"kind":"transformer","label":"Pole-mount transformer","ratingKVA":25.0,"primaryKV":13.8,"secondaryKV":0.24,"phases":1,"phase":"A","feeder":"F1-02","mount":"pole","customers":6,"designKVA":15.97,"loadingPct":63.9,"elevationM":84.404}},{"type":"Feature","id":"electric-TX-00037","geometry":{"type":"Point","coordinates":[-78.9385761,43.8684437]},"properties":{"kind":"transformer","label":"Pole-mount transformer","ratingKVA":25.0,"primaryKV":13.8,"secondaryKV":0.24,"phases":1,"phase":"A","feeder":"F1-02","mount":"pole","customers":3,"designKVA":15.04,"loadingPct":60.2,"elevationM":83.936}},{"type":"Feature","id":"electric-TX-00038","geometry":{"type":"Point","coordinates":[-78.9395963,43.8708886]},"properties":{"kind":"transformer","label":"Pad-mount transformer","ratingKVA":50.0,"primaryKV":13.8,"secondaryKV":0.24,"phases":1,"phase":"C","feeder":"F1-01","mount":"pad","customers":10,"designKVA":48.71,"loadingPct":97.4,"elevationM":84.481}},{"type":"Feature","id":"electric-TX-00039","geometry":{"type":"Point","coordinates":[-78.9393578,43.8703242]},"properties":{"kind":"transformer","label":"Pad-mount transformer","ratingKVA":25.0,"primaryKV":13.8,"secondaryKV":0.24,"phases":1,"phase":"C","feeder":"F1-01","mount":"pad","customers":2,"designKVA":6.06,"loadingPct":24.2,"elevationM":84.134}},{"type":"Feature","id":"electric-TX-00040","geometry":{"type":"Point","coordinates":[-78.9392152,43.8715939]},"properties":{"kind":"transformer","label":"Pad-mount transformer","ratingKVA":25.0,"primaryKV":13.8,"secondaryKV":0.24,"phases":1,"phase":"ABC","feeder":"F1-01","mount":"pad","customers":2,"designKVA":18.22,"loadingPct":72.9,"elevationM":85.555}},{"type":"Feature","id":"electric-TX-00041","geometry":{"type":"Point","coordinates":[-78.9391562,43.8698491]},"properties":{"kind":"transformer","label":"Pad-mount transformer","ratingKVA":25.0,"primaryKV":13.8,"secondaryKV":0.24,"phases":1,"phase":"B","feeder":"F1-02","mount":"pad","customers":2,"designKVA":13.21,"loadingPct":52.8,"elevationM":83.923}},{"type":"Feature","id":"electric-TX-00042","geometry":{"type":"Point","coordinates":[-78.9390647,43.8695974]},"properties":{"kind":"transformer","label":"Pole-mount transformer","ratingKVA":25.0,"primaryKV":13.8,"secondaryKV":0.24,"phases":1,"phase":"B","feeder":"F1-02","mount":"pole","customers":1,"designKVA":4.71,"loadingPct":18.9,"elevationM":83.836}},{"type":"Feature","id":"electric-TX-00043","geometry":{"type":"Point","coordinates":[-78.9392355,43.8695455]},"properties":{"kind":"transformer","label":"Pad-mount transformer","ratingKVA":25.0,"primaryKV":13.8,"secondaryKV":0.24,"phases":1,"phase":"B","feeder":"F1-02","mount":"pad","customers":1,"designKVA":6.14,"loadingPct":24.6,"elevationM":83.917}},{"type":"Feature","id":"electric-TX-00044","geometry":{"type":"Point","coordinates":[-78.93892,43.8692577]},"properties":{"kind":"transformer","label":"Pole-mount transformer","ratingKVA":25.0,"primaryKV":13.8,"secondaryKV":0.24,"phases":1,"phase":"A","feeder":"F1-02","mount":"pole","customers":6,"designKVA":19.73,"loadingPct":78.9,"elevationM":83.739}},{"type":"Feature","id":"electric-TX-00045","geometry":{"type":"Point","coordinates":[-78.9386424,43.870295]},"properties":{"kind":"transformer","label":"Pad-mount transformer","ratingKVA":25.0,"primaryKV":13.8,"secondaryKV":0.24,"phases":1,"phase":"B","feeder":"F1-02","mount":"pad","customers":4,"designKVA":15.14,"loadingPct":60.6,"elevationM":84.028}},{"type":"Feature","id":"electric-TX-00046","geometry":{"type":"Point","coordinates":[-78.938,43.8688586]},"properties":{"kind":"transformer","label":"Pole-mount transformer","ratingKVA":25.0,"primaryKV":13.8,"secondaryKV":0.24,"phases":1,"phase":"A","feeder":"F1-02","mount":"pole","customers":3,"designKVA":20.67,"loadingPct":82.7,"elevationM":83.355}},{"type":"Feature","id":"electric-TX-00047","geometry":{"type":"Point","coordinates":[-78.9381098,43.8716656]},"properties":{"kind":"transformer","label":"Pad-mount transformer","ratingKVA":25.0,"primaryKV":13.8,"secondaryKV":0.24,"phases":1,"phase":"ABC","feeder":"F1-01","mount":"pad","customers":2,"designKVA":17.63,"loadingPct":70.5,"elevationM":85.691}},{"type":"Feature","id":"electric-TX-00048","geometry":{"type":"Point","coordinates":[-78.9377837,43.8724811]},"properties":{"kind":"transformer","label":"Pad-mount transformer","ratingKVA":50.0,"primaryKV":13.8,"secondaryKV":0.24,"phases":1,"phase":"B","feeder":"F1-01","mount":"pad","customers":10,"designKVA":34.36,"loadingPct":68.7,"elevationM":86.591}},{"type":"Feature","id":"electric-TX-00049","geometry":{"type":"Point","coordinates":[-78.9374045,43.8720787]},"properties":{"kind":"transformer","label":"Pad-mount transformer","ratingKVA":25.0,"primaryKV":13.8,"secondaryKV":0.24,"phases":1,"phase":"B","feeder":"F1-01","mount":"pad","customers":2,"designKVA":7.94,"loadingPct":31.8,"elevationM":86.183}},{"type":"Feature","id":"electric-TX-00050","geometry":{"type":"Point","coordinates":[-78.9375336,43.8708813]},"properties":{"kind":"transformer","label":"Pad-mount transformer","ratingKVA":25.0,"primaryKV":13.8,"secondaryKV":0.24,"phases":1,"phase":"A","feeder":"F1-02","mount":"pad","customers":8,"designKVA":27.63,"loadingPct":110.5,"elevationM":84.667}},{"type":"Feature","id":"electric-TX-00051","geometry":{"type":"Point","coordinates":[-78.9375769,43.8697829]},"properties":{"kind":"transformer","label":"Pole-mount transformer","ratingKVA":25.0,"primaryKV":13.8,"secondaryKV":0.24,"phases":1,"phase":"C","feeder":"F1-02","mount":"pole","customers":1,"designKVA":10.93,"loadingPct":43.7,"elevationM":83.501}},{"type":"Feature","id":"electric-TX-00052","geometry":{"type":"Point","coordinates":[-78.937385,43.8699668]},"properties":{"kind":"transformer","label":"Pad-mount transformer","ratingKVA":25.0,"primaryKV":13.8,"secondaryKV":0.24,"phases":1,"phase":"C","feeder":"F1-02","mount":"pad","customers":1,"designKVA":4.77,"loadingPct":19.1,"elevationM":83.651}},{"type":"Feature","id":"electric-TX-00053","geometry":{"type":"Point","coordinates":[-78.9373167,43.8698428]},"properties":{"kind":"transformer","label":"Pole-mount transformer","ratingKVA":25.0,"primaryKV":13.8,"secondaryKV":0.24,"phases":1,"phase":"C","feeder":"F1-02","mount":"pole","customers":1,"designKVA":11.16,"loadingPct":44.6,"elevationM":83.548}},{"type":"Feature","id":"electric-TX-00054","geometry":{"type":"Point","coordinates":[-78.9371314,43.8700229]},"properties":{"kind":"transformer","label":"Pad-mount transformer","ratingKVA":25.0,"primaryKV":13.8,"secondaryKV":0.24,"phases":1,"phase":"C","feeder":"F1-02","mount":"pad","customers":1,"designKVA":5.98,"loadingPct":23.9,"elevationM":83.713}},{"type":"Feature","id":"electric-TX-00055","geometry":{"type":"Point","coordinates":[-78.9370611,43.8698994]},"properties":{"kind":"transformer","label":"Pole-mount transformer","ratingKVA":25.0,"primaryKV":13.8,"secondaryKV":0.24,"phases":1,"phase":"C","feeder":"F1-02","mount":"pole","customers":1,"designKVA":6.22,"loadingPct":24.9,"elevationM":83.612}},{"type":"Feature","id":"electric-TX-00056","geometry":{"type":"Point","coordinates":[-78.9368815,43.8700783]},"properties":{"kind":"transformer","label":"Pad-mount transformer","ratingKVA":25.0,"primaryKV":13.8,"secondaryKV":0.24,"phases":1,"phase":"C","feeder":"F1-02","mount":"pad","customers":1,"designKVA":4.86,"loadingPct":19.4,"elevationM":83.786}},{"type":"Feature","id":"electric-TX-00057","geometry":{"type":"Point","coordinates":[-78.9368164,43.8699536]},"properties":{"kind":"transformer","label":"Pole-mount transformer","ratingKVA":25.0,"primaryKV":13.8,"secondaryKV":0.24,"phases":1,"phase":"C","feeder":"F1-02","mount":"pole","customers":1,"designKVA":4.71,"loadingPct":18.9,"elevationM":83.686}},{"type":"Feature","id":"electric-TX-00058","geometry":{"type":"Point","coordinates":[-78.9371569,43.8715237]},"properties":{"kind":"transformer","label":"Pad-mount transformer","ratingKVA":25.0,"primaryKV":13.8,"secondaryKV":0.24,"phases":1,"phase":"A","feeder":"F1-01","mount":"pad","customers":8,"designKVA":31.29,"loadingPct":125.2,"elevationM":85.49}},{"type":"Feature","id":"electric-TX-00059","geometry":{"type":"Point","coordinates":[-78.9368477,43.8721326]},"properties":{"kind":"transformer","label":"Pad-mount transformer","ratingKVA":25.0,"primaryKV":13.8,"secondaryKV":0.24,"phases":1,"phase":"ABC","feeder":"F1-01","mount":"pad","customers":2,"designKVA":7.57,"loadingPct":30.3,"elevationM":86.199}},{"type":"Feature","id":"electric-TX-00060","geometry":{"type":"Point","coordinates":[-78.9360449,43.8682257]},"properties":{"kind":"transformer","label":"Pole-mount transformer","ratingKVA":25.0,"primaryKV":13.8,"secondaryKV":0.24,"phases":1,"phase":"ABC","feeder":"F1-02","mount":"pole","customers":1,"designKVA":10.21,"loadingPct":40.8,"elevationM":84.321}},{"type":"Feature","id":"electric-TX-00061","geometry":{"type":"Point","coordinates":[-78.9363712,43.8727935]},"properties":{"kind":"transformer","label":"Pad-mount transformer","ratingKVA":50.0,"primaryKV":13.8,"secondaryKV":0.24,"phases":1,"phase":"C","feeder":"F1-01","mount":"pad","customers":10,"designKVA":43.91,"loadingPct":87.8,"elevationM":86.579}},{"type":"Feature","id":"electric-TX-00062","geometry":{"type":"Point","coordinates":[-78.9361806,43.8723542]},"properties":{"kind":"transformer","label":"Pad-mount transformer","ratingKVA":25.0,"primaryKV":13.8,"secondaryKV":0.24,"phases":1,"phase":"C","feeder":"F1-01","mount":"pad","customers":2,"designKVA":12.8,"loadingPct":51.2,"elevationM":86.28}},{"type":"Feature","id":"electric-TX-00063","geometry":{"type":"Point","coordinates":[-78.9367108,43.870514]},"properties":{"kind":"transformer","label":"Pad-mount transformer","ratingKVA":25.0,"primaryKV":13.8,"secondaryKV":0.24,"phases":1,"phase":"A","feeder":"F1-01","mount":"pad","customers":6,"designKVA":28.72,"loadingPct":114.9,"elevationM":84.238}},{"type":"Feature","id":"electric-TX-00064","geometry":{"type":"Point","coordinates":[-78.9362206,43.8711798]},"properties":{"kind":"transformer","label":"Pad-mount transformer","ratingKVA":25.0,"primaryKV":13.8,"secondaryKV":0.24,"phases":1,"phase":"B","feeder":"F1-01","mount":"pad","customers":6,"designKVA":20.1,"loadingPct":80.4,"elevationM":84.975}},{"type":"Feature","id":"electric-TX-00065","geometry":{"type":"Point","coordinates":[-78.9364699,43.8695249]},"properties":{"kind":"transformer","label":"Pole-mount transformer","ratingKVA":25.0,"primaryKV":13.8,"secondaryKV":0.24,"phases":1,"phase":"C","feeder":"F1-02","mount":"pole","customers":6,"designKVA":21.6,"loadingPct":86.4,"elevationM":83.496}},{"type":"Feature","id":"electric-TX-00066","geometry":{"type":"Point","coordinates":[-78.9362418,43.8690043]},"properties":{"kind":"transformer","label":"Pole-mount transformer","ratingKVA":25.0,"primaryKV":13.8,"secondaryKV":0.24,"phases":1,"phase":"C","feeder":"F1-02","mount":"pole","customers":6,"designKVA":26.4,"loadingPct":105.6,"elevationM":83.503}},{"type":"Feature","id":"electric-TX-00067","geometry":{"type":"Point","coordinates":[-78.9358311,43.8703146]},"properties":{"kind":"transformer","label":"Pad-mount transformer","ratingKVA":25.0,"primaryKV":13.8,"secondaryKV":0.24,"phases":1,"phase":"C","feeder":"F1-02","mount":"pad","customers":6,"designKVA":21.19,"loadingPct":84.8,"elevationM":84.134}},{"type":"Feature","id":"electric-TX-00068","geometry":{"type":"Point","coordinates":[-78.9359318,43.8717925]},"properties":{"kind":"transformer","label":"Pad-mount transformer","ratingKVA":25.0,"primaryKV":13.8,"secondaryKV":0.24,"phases":1,"phase":"B","feeder":"F1-01","mount":"pad","customers":8,"designKVA":28.06,"loadingPct":112.2,"elevationM":85.66}},{"type":"Feature","id":"electric-TX-00069","geometry":{"type":"Point","coordinates":[-78.9351706,43.8725043]},"properties":{"kind":"transformer","label":"Pad-mount transformer","ratingKVA":50.0,"primaryKV":13.8,"secondaryKV":0.24,"phases":1,"phase":"ABC","feeder":"F1-01","mount":"pad","customers":9,"designKVA":32.72,"loadingPct":65.4,"elevationM":86.091}},{"type":"Feature","id":"electric-TX-00070","geometry":{"type":"Point","coordinates":[-78.9345043,43.8726521]},"properties":{"kind":"transformer","label":"Pad-mount transformer","ratingKVA":25.0,"primaryKV":13.8,"secondaryKV":0.24,"phases":1,"phase":"ABC","feeder":"F1-01","mount":"pad","customers":1,"designKVA":5.8,"loadingPct":23.2,"elevationM":85.952}},{"type":"Feature","id":"electric-TX-00071","geometry":{"type":"Point","coordinates":[-78.9351616,43.8684303]},"properties":{"kind":"transformer","label":"Pole-mount transformer","ratingKVA":25.0,"primaryKV":13.8,"secondaryKV":0.24,"phases":1,"phase":"B","feeder":"F1-02","mount":"pole","customers":6,"designKVA":17.77,"loadingPct":71.1,"elevationM":84.416}},{"type":"Feature","id":"electric-TX-00072","geometry":{"type":"Point","coordinates":[-78.934647,43.8688155]},"properties":{"kind":"transformer","label":"Pole-mount transformer","ratingKVA":25.0,"primaryKV":13.8,"secondaryKV":0.24,"phases":1,"phase":"B","feeder":"F1-02","mount":"pole","customers":4,"designKVA":25.52,"loadingPct":102.1,"elevationM":84.284}},{"type":"Feature","id":"electric-TX-00073","geometry":{"type":"Point","coordinates":[-78.9347392,43.8690791]},"properties":{"kind":"transformer","label":"Pad-mount transformer","ratingKVA":25.0,"primaryKV":13.8,"secondaryKV":0.24,"phases":1,"phase":"B","feeder":"F1-02","mount":"pad","customers":1,"designKVA":4.54,"loadingPct":18.1,"elevationM":84.177}},{"type":"Feature","id":"electric-TX-00074","geometry":{"type":"Point","coordinates":[-78.9348163,43.8692186]},"properties":{"kind":"transformer","label":"Pole-mount transformer","ratingKVA":25.0,"primaryKV":13.8,"secondaryKV":0.24,"phases":1,"phase":"B","feeder":"F1-02","mount":"pole","customers":1,"designKVA":4.51,"loadingPct":18.0,"elevationM":84.131}},{"type":"Feature","id":"electric-TX-00075","geometry":{"type":"Point","coordinates":[-78.9348055,43.8692296]},"properties":{"kind":"transformer","label":"Pad-mount transformer","ratingKVA":25.0,"primaryKV":13.8,"secondaryKV":0.24,"phases":1,"phase":"B","feeder":"F1-02","mount":"pad","customers":1,"designKVA":10.7,"loadingPct":42.8,"elevationM":84.135}},{"type":"Feature","id":"electric-TX-00076","geometry":{"type":"Point","coordinates":[-78.934889,43.8693827]},"properties":{"kind":"transformer","label":"Pole-mount transformer","ratingKVA":25.0,"primaryKV":13.8,"secondaryKV":0.24,"phases":1,"phase":"B","feeder":"F1-02","mount":"pole","customers":1,"designKVA":4.53,"loadingPct":18.1,"elevationM":84.097}},{"type":"Feature","id":"electric-TX-00077","geometry":{"type":"Point","coordinates":[-78.934875,43.8693866]},"properties":{"kind":"transformer","label":"Pad-mount transformer","ratingKVA":25.0,"primaryKV":13.8,"secondaryKV":0.24,"phases":1,"phase":"B","feeder":"F1-02","mount":"pad","customers":1,"designKVA":4.91,"loadingPct":19.6,"elevationM":84.102}},{"type":"Feature","id":"electric-TX-00078","geometry":{"type":"Point","coordinates":[-78.9349642,43.8695525]},"properties":{"kind":"transformer","label":"Pole-mount transformer","ratingKVA":25.0,"primaryKV":13.8,"secondaryKV":0.24,"phases":1,"phase":"B","feeder":"F1-01","mount":"pole","customers":1,"designKVA":0.98,"loadingPct":3.9,"elevationM":84.076}},{"type":"Feature","id":"electric-TX-00079","geometry":{"type":"Point","coordinates":[-78.9349514,43.8695591]},"properties":{"kind":"transformer","label":"Pad-mount transformer","ratingKVA":25.0,"primaryKV":13.8,"secondaryKV":0.24,"phases":1,"phase":"B","feeder":"F1-01","mount":"pad","customers":1,"designKVA":6.51,"loadingPct":26.1,"elevationM":84.081}},{"type":"Feature","id":"electric-TX-00080","geometry":{"type":"Point","coordinates":[-78.9350341,43.8697105]},"properties":{"kind":"transformer","label":"Pole-mount transformer","ratingKVA":25.0,"primaryKV":13.8,"secondaryKV":0.24,"phases":1,"phase":"B","feeder":"F1-01","mount":"pole","customers":1,"designKVA":9.64,"loadingPct":38.6,"elevationM":84.072}},{"type":"Feature","id":"electric-TX-00081","geometry":{"type":"Point","coordinates":[-78.9350211,43.8697165]},"properties":{"kind":"transformer","label":"Pad-mount transformer","ratingKVA":25.0,"primaryKV":13.8,"secondaryKV":0.24,"phases":1,"phase":"B","feeder":"F1-01","mount":"pad","customers":1,"designKVA":12.63,"loadingPct":50.5,"elevationM":84.078}},{"type":"Feature","id":"electric-TX-00082","geometry":{"type":"Point","coordinates":[-78.9351039,43.869868]},"properties":{"kind":"transformer","label":"Pole-mount transformer","ratingKVA":25.0,"primaryKV":13.8,"secondaryKV":0.24,"phases":1,"phase":"B","feeder":"F1-01","mount":"pole","customers":1,"designKVA":5.43,"loadingPct":21.7,"elevationM":84.086}},{"type":"Feature","id":"electric-TX-00083","geometry":{"type":"Point","coordinates":[-78.9351634,43.8700376]},"properties":{"kind":"transformer","label":"Pad-mount transformer","ratingKVA":25.0,"primaryKV":13.8,"secondaryKV":0.24,"phases":1,"phase":"B","feeder":"F1-01","mount":"pad","customers":3,"designKVA":26.43,"loadingPct":105.7,"elevationM":84.125}},{"type":"Feature","id":"electric-TX-00084","geometry":{"type":"Point","coordinates":[-78.935492,43.8707867]},"properties":{"kind":"transformer","label":"Pad-mount transformer","ratingKVA":25.0,"primaryKV":13.8,"secondaryKV":0.24,"phases":1,"phase":"B","feeder":"F1-01","mount":"pad","customers":6,"designKVA":27.41,"loadingPct":109.6,"elevationM":84.542}},{"type":"Feature","id":"electric-TX-00085","geometry":{"type":"Point","coordinates":[-78.9343154,43.8703822]},"properties":{"kind":"transformer","label":"Pad-mount transformer","ratingKVA":25.0,"primaryKV":13.8,"secondaryKV":0.24,"phases":1,"phase":"B","feeder":"F1-01","mount":"pad","customers":7,"designKVA":20.83,"loadingPct":83.3,"elevationM":84.497}},{"type":"Feature","id":"electric-TX-00086","geometry":{"type":"Point","coordinates":[-78.9334436,43.8709805]},"properties":{"kind":"transformer","label":"Pad-mount transformer","ratingKVA":50.0,"primaryKV":13.8,"secondaryKV":0.24,"phases":1,"phase":"A","feeder":"F1-01","mount":"pad","customers":10,"designKVA":37.58,"loadingPct":75.2,"elevationM":85.112}},{"type":"Feature","id":"electric-TX-00087","geometry":{"type":"Point","coordinates":[-78.9338531,43.871438]},"properties":{"kind":"transformer","label":"Pad-mount transformer","ratingKVA":25.0,"primaryKV":13.8,"secondaryKV":0.24,"phases":1,"phase":"A","feeder":"F1-01","mount":"pad","customers":3,"designKVA":8.68,"loadingPct":34.7,"elevationM":85.192}},{"type":"Feature","id":"electric-TX-00088","geometry":{"type":"Point","coordinates":[-78.9353043,43.8672105]},"properties":{"kind":"transformer","label":"Pole-mount transformer","ratingKVA":25.0,"primaryKV":13.8,"secondaryKV":0.24,"phases":1,"phase":"C","feeder":"F1-02","mount":"pole","customers":1,"designKVA":4.77,"loadingPct":19.1,"elevationM":86.198}},{"type":"Feature","id":"electric-TX-00089","geometry":{"type":"Point","coordinates":[-78.9341992,43.8716057]},"properties":{"kind":"transformer","label":"Pad-mount transformer","ratingKVA":25.0,"primaryKV":13.8,"secondaryKV":0.24,"phases":1,"phase":"A","feeder":"F1-01","mount":"pad","customers":2,"designKVA":8.64,"loadingPct":34.6,"elevationM":85.232}},{"type":"Feature","id":"electric-TX-00090","geometry":{"type":"Point","coordinates":[-78.9339839,43.8722206]},"properties":{"kind":"transformer","label":"Pad-mount transformer","ratingKVA":50.0,"primaryKV":13.8,"secondaryKV":0.24,"phases":1,"phase":"A","feeder":"F1-01","mount":"pad","customers":8,"designKVA":34.99,"loadingPct":70.0,"elevationM":85.768}},{"type":"Feature","id":"electric-TX-00091","geometry":{"type":"Point","coordinates":[-78.9334038,43.8727084]},"properties":{"kind":"transformer","label":"Pad-mount transformer","ratingKVA":25.0,"primaryKV":13.8,"secondaryKV":0.24,"phases":1,"phase":"ABC","feeder":"F1-01","mount":"pad","customers":5,"designKVA":22.17,"loadingPct":88.7,"elevationM":86.383}},{"type":"Feature","id":"electric-TX-00092","geometry":{"type":"Point","coordinates":[-78.9319873,43.8717886]},"properties":{"kind":"transformer","label":"Pad-mount transformer","ratingKVA":50.0,"primaryKV":13.8,"secondaryKV":0.24,"phases":1,"phase":"C","feeder":"F1-01","mount":"pad","customers":8,"designKVA":34.04,"loadingPct":68.1,"elevationM":86.988}},{"type":"Feature","id":"electric-TX-00093","geometry":{"type":"Point","coordinates":[-78.9315191,43.8711972]},"properties":{"kind":"transformer","label":"Pad-mount transformer","ratingKVA":50.0,"primaryKV":13.8,"secondaryKV":0.24,"phases":1,"phase":"C","feeder":"F1-01","mount":"pad","customers":10,"designKVA":35.29,"loadingPct":70.6,"elevationM":87.028}},{"type":"Feature","id":"electric-TX-00094","geometry":{"type":"Point","coordinates":[-78.9331696,43.8718931]},"properties":{"kind":"transformer","label":"Pad-mount transformer","ratingKVA":25.0,"primaryKV":13.8,"secondaryKV":0.24,"phases":1,"phase":"C","feeder":"F1-01","mount":"pad","customers":7,"designKVA":25.7,"loadingPct":102.8,"elevationM":85.963}},{"type":"Feature","id":"electric-TX-00095","geometry":{"type":"Point","coordinates":[-78.9327227,43.8713569]},"properties":{"kind":"transformer","label":"Pad-mount transformer","ratingKVA":50.0,"primaryKV":13.8,"secondaryKV":0.24,"phases":1,"phase":"C","feeder":"F1-01","mount":"pad","customers":10,"designKVA":35.07,"loadingPct":70.1,"elevationM":85.841}},{"type":"Feature","id":"electric-TX-00096","geometry":{"type":"Point","coordinates":[-78.9323857,43.870564]},"properties":{"kind":"transformer","label":"Pad-mount transformer","ratingKVA":50.0,"primaryKV":13.8,"secondaryKV":0.24,"phases":1,"phase":"C","feeder":"F1-01","mount":"pad","customers":10,"designKVA":41.24,"loadingPct":82.5,"elevationM":86.103}},{"type":"Feature","id":"electric-TX-00097","geometry":{"type":"Point","coordinates":[-78.9321892,43.8697607]},"properties":{"kind":"transformer","label":"Pad-mount transformer","ratingKVA":50.0,"primaryKV":13.8,"secondaryKV":0.24,"phases":1,"phase":"C","feeder":"F1-02","mount":"pad","customers":10,"designKVA":32.67,"loadingPct":65.3,"elevationM":87.413}},{"type":"Feature","id":"electric-TX-00098","geometry":{"type":"Point","coordinates":[-78.9319126,43.8692379]},"properties":{"kind":"transformer","label":"Pad-mount transformer","ratingKVA":25.0,"primaryKV":13.8,"secondaryKV":0.24,"phases":1,"phase":"C","feeder":"F1-02","mount":"pad","customers":4,"designKVA":24.94,"loadingPct":99.8,"elevationM":88.433}},{"type":"Feature","id":"electric-TX-00099","geometry":{"type":"Point","coordinates":[-78.931115,43.8693676]},"properties":{"kind":"transformer","label":"Pad-mount transformer","ratingKVA":25.0,"primaryKV":13.8,"secondaryKV":0.24,"phases":1,"phase":"C","feeder":"F1-02","mount":"pad","customers":1,"designKVA":1.43,"loadingPct":5.7,"elevationM":89.331}},{"type":"Feature","id":"electric-TX-00100","geometry":{"type":"Point","coordinates":[-78.9311519,43.8702781]},"properties":{"kind":"transformer","label":"Pad-mount transformer","ratingKVA":25.0,"primaryKV":13.8,"secondaryKV":0.24,"phases":1,"phase":"C","feeder":"F1-01","mount":"pad","customers":8,"designKVA":29.11,"loadingPct":116.4,"elevationM":88.042}},{"type":"Feature","id":"electric-TX-00101","geometry":{"type":"Point","coordinates":[-78.9309654,43.8697374]},"properties":{"kind":"transformer","label":"Pad-mount transformer","ratingKVA":25.0,"primaryKV":13.8,"secondaryKV":0.24,"phases":1,"phase":"C","feeder":"F1-02","mount":"pad","customers":4,"designKVA":15.09,"loadingPct":60.3,"elevationM":89.121}},{"type":"Feature","id":"electric-TX-00102","geometry":{"type":"Point","coordinates":[-78.9307283,43.8709728]},"properties":{"kind":"transformer","label":"Pad-mount transformer","ratingKVA":25.0,"primaryKV":13.8,"secondaryKV":0.24,"phases":1,"phase":"C","feeder":"F1-01","mount":"pad","customers":4,"designKVA":19.2,"loadingPct":76.8,"elevationM":88.378}},{"type":"Feature","id":"electric-TX-00103","geometry":{"type":"Point","coordinates":[-78.9302431,43.8694678]},"properties":{"kind":"transformer","label":"Pad-mount transformer","ratingKVA":25.0,"primaryKV":13.8,"secondaryKV":0.24,"phases":1,"phase":"C","feeder":"F1-02","mount":"pad","customers":6,"designKVA":25.55,"loadingPct":102.2,"elevationM":90.773}},{"type":"Feature","id":"electric-TX-00104","geometry":{"type":"Point","coordinates":[-78.9302361,43.8703942]},"properties":{"kind":"transformer","label":"Pad-mount transformer","ratingKVA":25.0,"primaryKV":13.8,"secondaryKV":0.24,"phases":1,"phase":"C","feeder":"F1-02","mount":"pad","customers":2,"designKVA":14.27,"loadingPct":57.1,"elevationM":89.79}},{"type":"Feature","id":"electric-TX-00105","geometry":{"type":"Point","coordinates":[-78.9300647,43.8699941]},"properties":{"kind":"transformer","label":"Pad-mount transformer","ratingKVA":25.0,"primaryKV":13.8,"secondaryKV":0.24,"phases":1,"phase":"C","feeder":"F1-02","mount":"pad","customers":1,"designKVA":6.29,"loadingPct":25.1,"elevationM":90.603}},{"type":"Feature","id":"electric-TX-00106","geometry":{"type":"Point","coordinates":[-78.9295633,43.869366]},"properties":{"kind":"transformer","label":"Pad-mount transformer","ratingKVA":25.0,"primaryKV":13.8,"secondaryKV":0.24,"phases":1,"phase":"C","feeder":"F1-02","mount":"pad","customers":1,"designKVA":2.49,"loadingPct":10.0,"elevationM":92.314}},{"type":"Feature","id":"electric-TX-00107","geometry":{"type":"Point","coordinates":[-78.929213,43.8689101]},"properties":{"kind":"transformer","label":"Pad-mount transformer","ratingKVA":25.0,"primaryKV":13.8,"secondaryKV":0.24,"phases":1,"phase":"ABC","feeder":"F1-02","mount":"pad","customers":2,"designKVA":12.37,"loadingPct":49.5,"elevationM":93.302}},{"type":"Feature","id":"electric-TX-00108","geometry":{"type":"Point","coordinates":[-78.9435146,43.8700585]},"properties":{"kind":"transformer","label":"Pad-mount transformer","ratingKVA":75.0,"primaryKV":13.8,"secondaryKV":0.208,"phases":3,"phase":"ABC","feeder":"F1-01","mount":"pad","customers":1,"designKVA":24.26,"loadingPct":32.3,"elevationM":86.626}},{"type":"Feature","id":"electric-TX-00109","geometry":{"type":"Point","coordinates":[-78.9422779,43.8671384]},"properties":{"kind":"transformer","label":"Pad-mount transformer","ratingKVA":75.0,"primaryKV":13.8,"secondaryKV":0.208,"phases":3,"phase":"ABC","feeder":"F1-01","mount":"pad","customers":3,"designKVA":50.88,"loadingPct":67.8,"elevationM":87.299}},{"type":"Feature","id":"electric-TX-00110","geometry":{"type":"Point","coordinates":[-78.9420957,43.8666879]},"properties":{"kind":"transformer","label":"Pad-mount transformer","ratingKVA":75.0,"primaryKV":13.8,"secondaryKV":0.208,"phases":3,"phase":"ABC","feeder":"F1-01","mount":"pad","customers":3,"designKVA":54.48,"loadingPct":72.6,"elevationM":87.687}},{"type":"Feature","id":"electric-TX-00111","geometry":{"type":"Point","coordinates":[-78.941964,43.8663988]},"properties":{"kind":"transformer","label":"Pad-mount transformer","ratingKVA":75.0,"primaryKV":13.8,"secondaryKV":0.208,"phases":3,"phase":"ABC","feeder":"F1-01","mount":"pad","customers":1,"designKVA":22.11,"loadingPct":29.5,"elevationM":87.872}},{"type":"Feature","id":"electric-TX-00112","geometry":{"type":"Point","coordinates":[-78.9391213,43.8714267]},"properties":{"kind":"transformer","label":"Pad-mount transformer","ratingKVA":75.0,"primaryKV":13.8,"secondaryKV":0.208,"phases":3,"phase":"ABC","feeder":"F1-01","mount":"pad","customers":2,"designKVA":39.35,"loadingPct":52.5,"elevationM":85.251}},{"type":"Feature","id":"electric-TX-00113","geometry":{"type":"Point","coordinates":[-78.93874,43.8722616]},"properties":{"kind":"transformer","label":"Pad-mount transformer","ratingKVA":75.0,"primaryKV":13.8,"secondaryKV":0.208,"phases":3,"phase":"ABC","feeder":"F1-01","mount":"pad","customers":3,"designKVA":51.89,"loadingPct":69.2,"elevationM":86.695}},{"type":"Feature","id":"electric-TX-00114","geometry":{"type":"Point","coordinates":[-78.9386778,43.8721179]},"properties":{"kind":"transformer","label":"Pad-mount transformer","ratingKVA":75.0,"primaryKV":13.8,"secondaryKV":0.208,"phases":3,"phase":"ABC","feeder":"F1-01","mount":"pad","customers":2,"designKVA":36.12,"loadingPct":48.2,"elevationM":86.457}},{"type":"Feature","id":"electric-TX-00115","geometry":{"type":"Point","coordinates":[-78.9382602,43.871182]},"properties":{"kind":"transformer","label":"Pad-mount transformer","ratingKVA":75.0,"primaryKV":13.8,"secondaryKV":0.208,"phases":3,"phase":"ABC","feeder":"F1-02","mount":"pad","customers":3,"designKVA":46.82,"loadingPct":62.4,"elevationM":84.987}},{"type":"Feature","id":"electric-TX-00116","geometry":{"type":"Point","coordinates":[-78.9384859,43.8708636]},"properties":{"kind":"transformer","label":"Pad-mount transformer","ratingKVA":75.0,"primaryKV":13.8,"secondaryKV":0.208,"phases":3,"phase":"ABC","feeder":"F1-02","mount":"pad","customers":2,"designKVA":42.31,"loadingPct":56.4,"elevationM":84.569}},{"type":"Feature","id":"electric-TX-00117","geometry":{"type":"Point","coordinates":[-78.9381688,43.8718405]},"properties":{"kind":"transformer","label":"Pad-mount transformer","ratingKVA":75.0,"primaryKV":13.8,"secondaryKV":0.208,"phases":3,"phase":"ABC","feeder":"F1-01","mount":"pad","customers":2,"designKVA":38.33,"loadingPct":51.1,"elevationM":85.945}},{"type":"Feature","id":"electric-TX-00118","geometry":{"type":"Point","coordinates":[-78.9377945,43.8700998]},"properties":{"kind":"transformer","label":"Pad-mount transformer","ratingKVA":75.0,"primaryKV":13.8,"secondaryKV":0.208,"phases":3,"phase":"ABC","feeder":"F1-02","mount":"pad","customers":2,"designKVA":24.52,"loadingPct":32.7,"elevationM":83.785}},{"type":"Feature","id":"electric-TX-00119","geometry":{"type":"Point","coordinates":[-78.9375067,43.8694449]},"properties":{"kind":"transformer","label":"Pad-mount transformer","ratingKVA":75.0,"primaryKV":13.8,"secondaryKV":0.208,"phases":3,"phase":"ABC","feeder":"F1-02","mount":"pad","customers":2,"designKVA":63.51,"loadingPct":84.7,"elevationM":83.298}},{"type":"Feature","id":"electric-TX-00120","geometry":{"type":"Point","coordinates":[-78.9376201,43.8688494]},"properties":{"kind":"transformer","label":"Pad-mount transformer","ratingKVA":75.0,"primaryKV":13.8,"secondaryKV":0.208,"phases":3,"phase":"ABC","feeder":"F1-02","mount":"pad","customers":3,"designKVA":42.6,"loadingPct":56.8,"elevationM":83.279}},{"type":"Feature","id":"electric-TX-00121","geometry":{"type":"Point","coordinates":[-78.9371757,43.868649]},"properties":{"kind":"transformer","label":"Pad-mount transformer","ratingKVA":75.0,"primaryKV":13.8,"secondaryKV":0.208,"phases":3,"phase":"ABC","feeder":"F1-02","mount":"pad","customers":3,"designKVA":57.19,"loadingPct":76.3,"elevationM":83.452}},{"type":"Feature","id":"electric-TX-00122","geometry":{"type":"Point","coordinates":[-78.9373863,43.8682935]},"properties":{"kind":"transformer","label":"Pad-mount transformer","ratingKVA":75.0,"primaryKV":13.8,"secondaryKV":0.208,"phases":3,"phase":"ABC","feeder":"F1-02","mount":"pad","customers":3,"designKVA":61.2,"loadingPct":81.6,"elevationM":83.944}},{"type":"Feature","id":"electric-TX-00123","geometry":{"type":"Point","coordinates":[-78.9366438,43.8680802]},"properties":{"kind":"transformer","label":"Pad-mount transformer","ratingKVA":75.0,"primaryKV":13.8,"secondaryKV":0.208,"phases":3,"phase":"ABC","feeder":"F1-02","mount":"pad","customers":3,"designKVA":59.77,"loadingPct":79.7,"elevationM":84.398}},{"type":"Feature","id":"electric-TX-00124","geometry":{"type":"Point","coordinates":[-78.936308,43.8683059]},"properties":{"kind":"transformer","label":"Pad-mount transformer","ratingKVA":75.0,"primaryKV":13.8,"secondaryKV":0.208,"phases":3,"phase":"ABC","feeder":"F1-02","mount":"pad","customers":3,"designKVA":67.83,"loadingPct":90.4,"elevationM":84.111}},{"type":"Feature","id":"electric-TX-00125","geometry":{"type":"Point","coordinates":[-78.9360357,43.8682165]},"properties":{"kind":"transformer","label":"Pad-mount transformer","ratingKVA":75.0,"primaryKV":13.8,"secondaryKV":0.208,"phases":3,"phase":"ABC","feeder":"F1-02","mount":"pad","customers":1,"designKVA":20.07,"loadingPct":26.8,"elevationM":84.339}},{"type":"Feature","id":"electric-TX-00126","geometry":{"type":"Point","coordinates":[-78.9372047,43.8676556]},"properties":{"kind":"transformer","label":"Pad-mount transformer","ratingKVA":75.0,"primaryKV":13.8,"secondaryKV":0.208,"phases":3,"phase":"ABC","feeder":"F1-02","mount":"pad","customers":2,"designKVA":37.19,"loadingPct":49.6,"elevationM":85.068}},{"type":"Feature","id":"electric-TX-00127","geometry":{"type":"Point","coordinates":[-78.9369381,43.8670267]},"properties":{"kind":"transformer","label":"Pad-mount transformer","ratingKVA":150.0,"primaryKV":13.8,"secondaryKV":0.208,"phases":3,"phase":"ABC","feeder":"F1-02","mount":"pad","customers":3,"designKVA":91.48,"loadingPct":61.0,"elevationM":85.648}},{"type":"Feature","id":"electric-TX-00128","geometry":{"type":"Point","coordinates":[-78.936741,43.8665376]},"properties":{"kind":"transformer","label":"Pad-mount transformer","ratingKVA":150.0,"primaryKV":13.8,"secondaryKV":0.208,"phases":3,"phase":"ABC","feeder":"F1-02","mount":"pad","customers":3,"designKVA":80.63,"loadingPct":53.8,"elevationM":85.32}},{"type":"Feature","id":"electric-TX-00129","geometry":{"type":"Point","coordinates":[-78.9365474,43.8660611]},"properties":{"kind":"transformer","label":"Pad-mount transformer","ratingKVA":150.0,"primaryKV":13.8,"secondaryKV":0.208,"phases":3,"phase":"ABC","feeder":"F1-02","mount":"pad","customers":3,"designKVA":93.17,"loadingPct":62.1,"elevationM":84.699}},{"type":"Feature","id":"electric-TX-00130","geometry":{"type":"Point","coordinates":[-78.9363623,43.8655838]},"properties":{"kind":"transformer","label":"Pad-mount transformer","ratingKVA":75.0,"primaryKV":13.8,"secondaryKV":0.208,"phases":3,"phase":"ABC","feeder":"F1-02","mount":"pad","customers":3,"designKVA":55.17,"loadingPct":73.6,"elevationM":84.239}},{"type":"Feature","id":"electric-TX-00131","geometry":{"type":"Point","coordinates":[-78.9362186,43.8651629]},"properties":{"kind":"transformer","label":"Pad-mount transformer","ratingKVA":75.0,"primaryKV":13.8,"secondaryKV":0.208,"phases":3,"phase":"ABC","feeder":"F1-02","mount":"pad","customers":2,"designKVA":30.96,"loadingPct":41.3,"elevationM":84.16}},{"type":"Feature","id":"electric-TX-00132","geometry":{"type":"Point","coordinates":[-78.9362522,43.8677727]},"properties":{"kind":"transformer","label":"Pad-mount transformer","ratingKVA":75.0,"primaryKV":13.8,"secondaryKV":0.208,"phases":3,"phase":"ABC","feeder":"F1-02","mount":"pad","customers":3,"designKVA":43.5,"loadingPct":58.0,"elevationM":85.001}},{"type":"Feature","id":"electric-TX-00133","geometry":{"type":"Point","coordinates":[-78.9358509,43.8678616]},"properties":{"kind":"transformer","label":"Pad-mount transformer","ratingKVA":75.0,"primaryKV":13.8,"secondaryKV":0.208,"phases":3,"phase":"ABC","feeder":"F1-02","mount":"pad","customers":1,"designKVA":16.49,"loadingPct":22.0,"elevationM":84.979}},{"type":"Feature","id":"electric-TX-00134","geometry":{"type":"Point","coordinates":[-78.9364555,43.8671213]},"properties":{"kind":"transformer","label":"Pad-mount transformer","ratingKVA":75.0,"primaryKV":13.8,"secondaryKV":0.208,"phases":3,"phase":"ABC","feeder":"F1-02","mount":"pad","customers":3,"designKVA":70.13,"loadingPct":93.5,"elevationM":85.708}},{"type":"Feature","id":"electric-TX-00135","geometry":{"type":"Point","coordinates":[-78.9362528,43.8666337]},"properties":{"kind":"transformer","label":"Pad-mount transformer","ratingKVA":150.0,"primaryKV":13.8,"secondaryKV":0.208,"phases":3,"phase":"ABC","feeder":"F1-02","mount":"pad","customers":3,"designKVA":81.63,"loadingPct":54.4,"elevationM":85.688}},{"type":"Feature","id":"electric-TX-00136","geometry":{"type":"Point","coordinates":[-78.9360533,43.8661259]},"properties":{"kind":"transformer","label":"Pad-mount transformer","ratingKVA":150.0,"primaryKV":13.8,"secondaryKV":0.208,"phases":3,"phase":"ABC","feeder":"F1-02","mount":"pad","customers":3,"designKVA":96.35,"loadingPct":64.2,"elevationM":85.433}},{"type":"Feature","id":"electric-TX-00137","geometry":{"type":"Point","coordinates":[-78.9358694,43.8656217]},"properties":{"kind":"transformer","label":"Pad-mount transformer","ratingKVA":75.0,"primaryKV":13.8,"secondaryKV":0.208,"phases":3,"phase":"ABC","feeder":"F1-02","mount":"pad","customers":3,"designKVA":56.99,"loadingPct":76.0,"elevationM":85.346}},{"type":"Feature","id":"electric-TX-00138","geometry":{"type":"Point","coordinates":[-78.9357262,43.8652129]},"properties":{"kind":"transformer","label":"Pad-mount transformer","ratingKVA":75.0,"primaryKV":13.8,"secondaryKV":0.208,"phases":3,"phase":"ABC","feeder":"F1-02","mount":"pad","customers":2,"designKVA":43.32,"loadingPct":57.8,"elevationM":85.516}},{"type":"Feature","id":"electric-TX-00139","geometry":{"type":"Point","coordinates":[-78.9357736,43.8675025]},"properties":{"kind":"transformer","label":"Pad-mount transformer","ratingKVA":75.0,"primaryKV":13.8,"secondaryKV":0.208,"phases":3,"phase":"ABC","feeder":"F1-02","mount":"pad","customers":2,"designKVA":61.41,"loadingPct":81.9,"elevationM":85.559}},{"type":"Feature","id":"electric-TX-00140","geometry":{"type":"Point","coordinates":[-78.9358722,43.8686024]},"properties":{"kind":"transformer","label":"Pad-mount transformer","ratingKVA":75.0,"primaryKV":13.8,"secondaryKV":0.208,"phases":3,"phase":"ABC","feeder":"F1-02","mount":"pad","customers":2,"designKVA":73.81,"loadingPct":98.4,"elevationM":83.892}},{"type":"Feature","id":"electric-TX-00141","geometry":{"type":"Point","coordinates":[-78.9349487,43.8680476]},"properties":{"kind":"transformer","label":"Pad-mount transformer","ratingKVA":75.0,"primaryKV":13.8,"secondaryKV":0.208,"phases":3,"phase":"ABC","feeder":"F1-02","mount":"pad","customers":3,"designKVA":45.12,"loadingPct":60.2,"elevationM":85.113}},{"type":"Feature","id":"electric-TX-00142","geometry":{"type":"Point","coordinates":[-78.9339895,43.8681688]},"properties":{"kind":"transformer","label":"Pad-mount transformer","ratingKVA":75.0,"primaryKV":13.8,"secondaryKV":0.208,"phases":3,"phase":"ABC","feeder":"F1-02","mount":"pad","customers":3,"designKVA":59.33,"loadingPct":79.1,"elevationM":85.674}},{"type":"Feature","id":"electric-TX-00143","geometry":{"type":"Point","coordinates":[-78.9335016,43.8681752]},"properties":{"kind":"transformer","label":"Pad-mount transformer","ratingKVA":75.0,"primaryKV":13.8,"secondaryKV":0.208,"phases":3,"phase":"ABC","feeder":"F1-02","mount":"pad","customers":1,"designKVA":27.31,"loadingPct":36.4,"elevationM":86.273}},{"type":"Feature","id":"electric-TX-00144","geometry":{"type":"Point","coordinates":[-78.9347378,43.8677217]},"properties":{"kind":"transformer","label":"Pad-mount transformer","ratingKVA":75.0,"primaryKV":13.8,"secondaryKV":0.208,"phases":3,"phase":"ABC","feeder":"F1-02","mount":"pad","customers":3,"designKVA":61.11,"loadingPct":81.5,"elevationM":85.855}},{"type":"Feature","id":"electric-TX-00145","geometry":{"type":"Point","coordinates":[-78.9339889,43.8678073]},"properties":{"kind":"transformer","label":"Pad-mount transformer","ratingKVA":75.0,"primaryKV":13.8,"secondaryKV":0.208,"phases":3,"phase":"ABC","feeder":"F1-02","mount":"pad","customers":3,"designKVA":56.15,"loadingPct":74.9,"elevationM":86.33}},{"type":"Feature","id":"electric-TX-00146","geometry":{"type":"Point","coordinates":[-78.9335041,43.8678197]},"properties":{"kind":"transformer","label":"Pad-mount transformer","ratingKVA":75.0,"primaryKV":13.8,"secondaryKV":0.208,"phases":3,"phase":"ABC","feeder":"F1-02","mount":"pad","customers":1,"designKVA":27.52,"loadingPct":36.7,"elevationM":86.757}},{"type":"Feature","id":"electric-TX-00147","geometry":{"type":"Point","coordinates":[-78.9329179,43.8681278]},"properties":{"kind":"transformer","label":"Pad-mount transformer","ratingKVA":75.0,"primaryKV":13.8,"secondaryKV":0.208,"phases":3,"phase":"ABC","feeder":"F1-02","mount":"pad","customers":3,"designKVA":51.07,"loadingPct":68.1,"elevationM":87.117}},{"type":"Feature","id":"electric-TX-00148","geometry":{"type":"Point","coordinates":[-78.9325029,43.8678796]},"properties":{"kind":"transformer","label":"Pad-mount transformer","ratingKVA":75.0,"primaryKV":13.8,"secondaryKV":0.208,"phases":3,"phase":"ABC","feeder":"F1-02","mount":"pad","customers":3,"designKVA":51.23,"loadingPct":68.3,"elevationM":87.729}},{"type":"Feature","id":"electric-TX-00149","geometry":{"type":"Point","coordinates":[-78.9322944,43.8678813]},"properties":{"kind":"transformer","label":"Pad-mount transformer","ratingKVA":75.0,"primaryKV":13.8,"secondaryKV":0.208,"phases":3,"phase":"ABC","feeder":"F1-02","mount":"pad","customers":3,"designKVA":51.67,"loadingPct":68.9,"elevationM":87.954}},{"type":"Feature","id":"electric-TX-00150","geometry":{"type":"Point","coordinates":[-78.9318844,43.868137]},"properties":{"kind":"transformer","label":"Pad-mount transformer","ratingKVA":75.0,"primaryKV":13.8,"secondaryKV":0.208,"phases":3,"phase":"ABC","feeder":"F1-02","mount":"pad","customers":3,"designKVA":52.45,"loadingPct":69.9,"elevationM":88.427}},{"type":"Feature","id":"electric-TX-00151","geometry":{"type":"Point","coordinates":[-78.9316625,43.8678892]},"properties":{"kind":"transformer","label":"Pad-mount transformer","ratingKVA":75.0,"primaryKV":13.8,"secondaryKV":0.208,"phases":3,"phase":"ABC","feeder":"F1-02","mount":"pad","customers":3,"designKVA":50.11,"loadingPct":66.8,"elevationM":88.646}},{"type":"Feature","id":"electric-TX-00152","geometry":{"type":"Point","coordinates":[-78.9314634,43.8681429]},"properties":{"kind":"transformer","label":"Pad-mount transformer","ratingKVA":75.0,"primaryKV":13.8,"secondaryKV":0.208,"phases":3,"phase":"ABC","feeder":"F1-02","mount":"pad","customers":1,"designKVA":24.32,"loadingPct":32.4,"elevationM":88.949}},{"type":"Feature","id":"electric-TX-00153","geometry":{"type":"Point","coordinates":[-78.9306584,43.8681908]},"properties":{"kind":"transformer","label":"Pad-mount transformer","ratingKVA":75.0,"primaryKV":13.8,"secondaryKV":0.208,"phases":3,"phase":"ABC","feeder":"F1-02","mount":"pad","customers":3,"designKVA":54.3,"loadingPct":72.4,"elevationM":90.345}},{"type":"Feature","id":"electric-TX-00154","geometry":{"type":"Point","coordinates":[-78.9300251,43.868204]},"properties":{"kind":"transformer","label":"Pad-mount transformer","ratingKVA":75.0,"primaryKV":13.8,"secondaryKV":0.208,"phases":3,"phase":"ABC","feeder":"F1-02","mount":"pad","customers":3,"designKVA":46.54,"loadingPct":62.0,"elevationM":91.681}},{"type":"Feature","id":"electric-TX-00155","geometry":{"type":"Point","coordinates":[-78.9294898,43.8682625]},"properties":{"kind":"transformer","label":"Pad-mount transformer","ratingKVA":75.0,"primaryKV":13.8,"secondaryKV":0.208,"phases":3,"phase":"ABC","feeder":"F1-02","mount":"pad","customers":2,"designKVA":37.62,"loadingPct":50.2,"elevationM":92.867}},{"type":"Feature","id":"electric-TX-00156","geometry":{"type":"Point","coordinates":[-78.9306391,43.8678422]},"properties":{"kind":"transformer","label":"Pad-mount transformer","ratingKVA":75.0,"primaryKV":13.8,"secondaryKV":0.208,"phases":3,"phase":"ABC","feeder":"F1-02","mount":"pad","customers":3,"designKVA":54.06,"loadingPct":72.1,"elevationM":90.499}},{"type":"Feature","id":"electric-TX-00157","geometry":{"type":"Point","coordinates":[-78.9299697,43.8678553]},"properties":{"kind":"transformer","label":"Pad-mount transformer","ratingKVA":75.0,"primaryKV":13.8,"secondaryKV":0.208,"phases":3,"phase":"ABC","feeder":"F1-02","mount":"pad","customers":3,"designKVA":55.2,"loadingPct":73.6,"elevationM":92.032}},{"type":"Feature","id":"electric-TX-00158","geometry":{"type":"Point","coordinates":[-78.9291678,43.8686666]},"properties":{"kind":"transformer","label":"Pad-mount transformer","ratingKVA":75.0,"primaryKV":13.8,"secondaryKV":0.208,"phases":3,"phase":"ABC","feeder":"F1-02","mount":"pad","customers":1,"designKVA":23.04,"loadingPct":30.7,"elevationM":93.458}},{"type":"Feature","id":"electric-TX-00159","geometry":{"type":"Point","coordinates":[-78.9443803,43.8720122]},"properties":{"kind":"transformer","label":"Pad-mount transformer","ratingKVA":500.0,"primaryKV":13.8,"secondaryKV":0.6,"phases":3,"phase":"ABC","feeder":"F1-01","mount":"pad","customers":1,"designKVA":374.28,"loadingPct":74.9,"elevationM":88.638}},{"type":"Feature","id":"electric-TX-00160","geometry":{"type":"Point","coordinates":[-78.9398954,43.8740629]},"properties":{"kind":"transformer","label":"Pad-mount transformer","ratingKVA":75.0,"primaryKV":13.8,"secondaryKV":0.208,"phases":3,"phase":"ABC","feeder":"F1-01","mount":"pad","customers":1,"designKVA":41.06,"loadingPct":54.7,"elevationM":87.918}},{"type":"Feature","id":"electric-TX-00161","geometry":{"type":"Point","coordinates":[-78.9281327,43.8684067]},"properties":{"kind":"transformer","label":"Pad-mount transformer","ratingKVA":75.0,"primaryKV":13.8,"secondaryKV":0.208,"phases":3,"phase":"ABC","feeder":"F1-02","mount":"pad","customers":1,"designKVA":15.96,"loadingPct":21.3,"elevationM":95.942}},{"type":"Feature","id":"electric-TX-00162","geometry":{"type":"Point","coordinates":[-78.9282255,43.8683873]},"properties":{"kind":"transformer","label":"Pad-mount transformer","ratingKVA":500.0,"primaryKV":13.8,"secondaryKV":0.6,"phases":3,"phase":"ABC","feeder":"F1-02","mount":"pad","customers":1,"designKVA":374.34,"loadingPct":74.9,"elevationM":95.74}}]}