{"type":"FeatureCollection","name":"facilities","crs_note":"EPSG:4326","features":[{"type":"Feature","id":"TANK-01","geometry":{"type":"Polygon","coordinates":[[[-78.930784,43.8688448],[-78.930784,43.8692041],[-78.9312824,43.8692041],[-78.9312824,43.8688448],[-78.930784,43.8688448]]]},"properties":{"kind":"elevated_tank","label":"Elevated water tank 1"}},{"type":"Feature","id":"SUB-01","geometry":{"type":"Polygon","coordinates":[[[-78.9440898,43.8711318],[-78.9443501,43.8717319],[-78.9450637,43.8715711],[-78.9448035,43.8709709],[-78.9440898,43.8711318]]]},"properties":{"kind":"substation","label":"Substation 1"}},{"type":"Feature","id":"PUMP-01","geometry":{"type":"Polygon","coordinates":[[[-78.9278105,43.8687492],[-78.92833,43.8687953],[-78.9283818,43.8684922],[-78.9278623,43.8684461],[-78.9278105,43.8687492]]]},"properties":{"kind":"pump_station","label":"Pumping station"}},{"type":"Feature","id":"GATE-01","geometry":{"type":"Polygon","coordinates":[[[-78.9278469,43.868186],[-78.9281867,43.8680356],[-78.9280172,43.8678365],[-78.9276773,43.8679869],[-78.9278469,43.868186]]]},"properties":{"kind":"city_gate","label":"Gas city gate station"}},{"type":"Feature","id":"DEPOT-01","geometry":{"type":"Polygon","coordinates":[[[-78.9392145,43.8722869],[-78.93955,43.8730584],[-78.9403823,43.8728703],[-78.9400469,43.8720988],[-78.9392145,43.8722869]]]},"properties":{"kind":"depot","label":"Operations depot"}},{"type":"Feature","id":"IND-01","geometry":{"type":"Polygon","coordinates":[[[-78.9445379,43.8721649],[-78.9450584,43.8733653],[-78.9462478,43.8730973],[-78.9457273,43.8718969],[-78.9445379,43.8721649]]]},"properties":{"kind":"industrial","label":"Industrial customer 1"}},{"type":"Feature","id":"IND-02","geometry":{"type":"Polygon","coordinates":[[[-78.9264807,43.8702875],[-78.9279674,43.8696295],[-78.9273154,43.8688639],[-78.9258287,43.869522],[-78.9264807,43.8702875]]]},"properties":{"kind":"industrial","label":"Industrial customer 2"}}]}