{"type":"FeatureCollection","name":"gas_equipment","crs_note":"EPSG:4326","features":[{"type":"Feature","id":"GREG-01","geometry":{"type":"Point","coordinates":[-78.9359199,43.8677571]},"properties":{"kind":"district_regulator","nodeId":"gas-DREG-01"}},{"type":"Feature","id":"GREG-02","geometry":{"type":"Point","coordinates":[-78.9358376,43.8676622]},"properties":{"kind":"district_regulator","nodeId":"gas-DREG-02"}},{"type":"Feature","id":"GV-00001","geometry":{"type":"Point","coordinates":[-78.9283228,43.8682179]},"properties":{"kind":"valve","edgeId":"gas-E1","normally":"open"}},{"type":"Feature","id":"GV-00002","geometry":{"type":"Point","coordinates":[-78.9283378,43.8682375]},"properties":{"kind":"valve","edgeId":"gas-E2","normally":"open"}},{"type":"Feature","id":"GV-00003","geometry":{"type":"Point","coordinates":[-78.9287719,43.8681759]},"properties":{"kind":"valve","edgeId":"gas-E2","normally":"open"}},{"type":"Feature","id":"GV-00004","geometry":{"type":"Point","coordinates":[-78.9288332,43.8681681]},"properties":{"kind":"valve","edgeId":"gas-E4","normally":"open"}},{"type":"Feature","id":"GV-00005","geometry":{"type":"Point","coordinates":[-78.9290904,43.8694062]},"properties":{"kind":"valve","edgeId":"gas-E9","normally":"open"}},{"type":"Feature","id":"GV-00006","geometry":{"type":"Point","coordinates":[-78.9291418,43.8694313]},"properties":{"kind":"valve","edgeId":"gas-E11","normally":"open"}},{"type":"Feature","id":"GV-00007","geometry":{"type":"Point","coordinates":[-78.929764,43.8694837]},"properties":{"kind":"valve","edgeId":"gas-E11","normally":"open"}},{"type":"Feature","id":"GV-00008","geometry":{"type":"Point","coordinates":[-78.929826,43.8694811]},"properties":{"kind":"valve","edgeId":"gas-E14","normally":"open"}},{"type":"Feature","id":"GV-00009","geometry":{"type":"Point","coordinates":[-78.9330967,43.868041]},"properties":{"kind":"valve","edgeId":"gas-E21","normally":"open"}},{"type":"Feature","id":"GV-00010","geometry":{"type":"Point","coordinates":[-78.9331549,43.8680519]},"properties":{"kind":"valve","edgeId":"gas-E25","normally":"open"}},{"type":"Feature","id":"GV-00011","geometry":{"type":"Point","coordinates":[-78.9324087,43.8730658]},"properties":{"kind":"valve","edgeId":"gas-E24","normally":"open"}},{"type":"Feature","id":"GV-00012","geometry":{"type":"Point","coordinates":[-78.9324682,43.8730524]},"properties":{"kind":"valve","edgeId":"gas-E29","normally":"open"}},{"type":"Feature","id":"GV-00013","geometry":{"type":"Point","coordinates":[-78.934247,43.8726575]},"properties":{"kind":"valve","edgeId":"gas-E34","normally":"open"}},{"type":"Feature","id":"GV-00014","geometry":{"type":"Point","coordinates":[-78.9343065,43.8726443]},"properties":{"kind":"valve","edgeId":"gas-E39","normally":"open"}},{"type":"Feature","id":"GV-00015","geometry":{"type":"Point","coordinates":[-78.9308649,43.8693691]},"properties":{"kind":"valve","edgeId":"gas-E43","normally":"open"}},{"type":"Feature","id":"GV-00016","geometry":{"type":"Point","coordinates":[-78.9309263,43.8693616]},"properties":{"kind":"valve","edgeId":"gas-E49","normally":"open"}},{"type":"Feature","id":"GV-00017","geometry":{"type":"Point","coordinates":[-78.9354338,43.8677467]},"properties":{"kind":"valve","edgeId":"gas-E72","normally":"open"}},{"type":"Feature","id":"GV-00018","geometry":{"type":"Point","coordinates":[-78.9354517,43.8677193]},"properties":{"kind":"valve","edgeId":"gas-E78","normally":"open"}},{"type":"Feature","id":"GV-00019","geometry":{"type":"Point","coordinates":[-78.9337821,43.8716491]},"properties":{"kind":"valve","edgeId":"gas-E82","normally":"open"}},{"type":"Feature","id":"GV-00020","geometry":{"type":"Point","coordinates":[-78.9337953,43.8716121]},"properties":{"kind":"valve","edgeId":"gas-E89","normally":"open"}},{"type":"Feature","id":"GV-00021","geometry":{"type":"Point","coordinates":[-78.9313616,43.8707341]},"properties":{"kind":"valve","edgeId":"gas-E130","normally":"open"}},{"type":"Feature","id":"GV-00022","geometry":{"type":"Point","coordinates":[-78.9313806,43.8707769]},"properties":{"kind":"valve","edgeId":"gas-E136","normally":"open"}},{"type":"Feature","id":"gas-supply","geometry":{"type":"Point","coordinates":[-78.9399586,43.8746287]},"properties":{"kind":"external_supply","label":"Regional gas transmission (off-map)","elevationM":88.115}},{"type":"Feature","id":"gas-station","geometry":{"type":"Point","coordinates":[-78.9281208,43.8679293]},"properties":{"kind":"city_gate_regulator","label":"Gas city gate station","facilityId":"GATE-01","inletKPa":3800.0,"outletKPa":414.0,"elevationM":95.802}},{"type":"Feature","id":"gas-DREG-01","geometry":{"type":"Point","coordinates":[-78.9359199,43.8677571]},"properties":{"kind":"district_regulator","label":"District regulator 1","inletKPa":414.0,"outletKPa":1.74,"elevationM":85.123}},{"type":"Feature","id":"gas-DREG-02","geometry":{"type":"Point","coordinates":[-78.9358376,43.8676622]},"properties":{"kind":"district_regulator","label":"District regulator 2","inletKPa":414.0,"outletKPa":1.74,"elevationM":85.301}}]}