{"type":"FeatureCollection","name":"gas_transmission","crs_note":"EPSG:4326","features":[{"type":"Feature","id":"gas-E0","geometry":{"type":"LineString","coordinates":[[-78.9399586,43.8746287],[-78.9395751,43.8737469],[-78.9395436,43.8736743],[-78.9395116,43.8736027],[-78.9393012,43.873132],[-78.9392705,43.8730614],[-78.9391809,43.8728563],[-78.9391157,43.8727068],[-78.9386947,43.8717352],[-78.938651,43.8716352],[-78.9386161,43.8715537],[-78.9383557,43.870991],[-78.9383124,43.8708842],[-78.9382178,43.8706508],[-78.9380821,43.8703456],[-78.9379348,43.8700011],[-78.9379018,43.8699237],[-78.9378357,43.8697846],[-78.9377677,43.869627],[-78.9376251,43.8692956],[-78.937577,43.8691849],[-78.9375118,43.8690347],[-78.9374309,43.8688296],[-78.9373695,43.8686741],[-78.9370987,43.8680536],[-78.9370584,43.8679703],[-78.9369759,43.8678835],[-78.9368512,43.8676258],[-78.9368045,43.8675187],[-78.936666,43.8675494],[-78.9353834,43.8678337],[-78.9347761,43.8679507],[-78.9344536,43.8679973],[-78.9341967,43.8680366],[-78.9340683,43.868042],[-78.9338982,43.8680443],[-78.9336675,43.8680473],[-78.9335263,43.8680492],[-78.9332658,43.8680515],[-78.9331273,43.8680003],[-78.932211,43.8680077],[-78.9319808,43.8680095],[-78.9315173,43.8680175],[-78.9313516,43.8680165],[-78.93125,43.8680161],[-78.9310128,43.8679689],[-78.9306801,43.867968],[-78.9304185,43.8679677],[-78.9301264,43.8679716],[-78.9298762,43.8679876],[-78.9295941,43.8680208],[-78.9291918,43.868075],[-78.9290492,43.8680994],[-78.9289192,43.868116],[-78.9287927,43.8681322],[-78.9286708,43.8681478],[-78.9283179,43.8681989],[-78.928308,43.8682033],[-78.9281208,43.8679293]]},"properties":{"kind":"supply","tier":"transmission","placement":"underground","from":"gas-supply","to":"gas-station","lengthM":1559.89,"sizeMm":300,"diameterIn":12.0,"nominalLabel":"12\" steel transmission","material":"steel","depthM":1.2,"pressureKPa":3800.0,"pressureTier":"hp"}}]}