{"type":"FeatureCollection","name":"mru_routes","crs_note":"EPSG:4326","features":[{"type":"Feature","id":"MRU-001","geometry":{"type":"LineString","coordinates":[[-78.9418677,43.866583],[-78.9417991,43.8664398],[-78.9360223,43.8651143],[-78.936076,43.8652716],[-78.9361326,43.8654375],[-78.9361929,43.8656139],[-78.9362463,43.8657703],[-78.9363126,43.8659339],[-78.9364474,43.8662592],[-78.9363802,43.8660971],[-78.9365731,43.8665717],[-78.936513,43.8664176],[-78.9407382,43.867157],[-78.9407387,43.8671581],[-78.9409337,43.867608],[-78.9417923,43.8680486],[-78.9409945,43.8677483],[-78.9409897,43.8677373],[-78.9409262,43.8675906],[-78.9408648,43.8674491],[-78.9408677,43.8674558],[-78.9408011,43.8673021],[-78.940802,43.8673041],[-78.9395247,43.8673502],[-78.9395925,43.8675065],[-78.9397304,43.8678243],[-78.9396629,43.8676688],[-78.9395943,43.8675106],[-78.9396623,43.8676674]]},"properties":{"technology":"AMI","portionId":"PORT-01","meterCount":29,"readerId":null}},{"type":"Feature","id":"MRU-002","geometry":{"type":"LineString","coordinates":[[-78.9395242,43.8673489],[-78.9394577,43.8671957],[-78.9393915,43.8670432],[-78.9393881,43.8670354],[-78.9394584,43.8671973],[-78.938956,43.8668934],[-78.9388929,43.8668923],[-78.9386435,43.8669095],[-78.938387,43.8669666],[-78.936706,43.8669028],[-78.93664,43.8667399],[-78.9364206,43.8665994],[-78.9364898,43.8667677],[-78.9365556,43.8669248],[-78.9366226,43.867085],[-78.9367706,43.867062],[-78.9368383,43.867229],[-78.9366925,43.8672522],[-78.936201,43.8676525],[-78.9363949,43.8676095],[-78.9370098,43.8676304],[-78.9370679,43.8677587],[-78.9383917,43.867786],[-78.9383293,43.8676358],[-78.9381915,43.8673035],[-78.9382599,43.8674684],[-78.9382619,43.8674733],[-78.9381947,43.8673113],[-78.9383295,43.8676361]]},"properties":{"technology":"AMI","portionId":"PORT-02","meterCount":29,"readerId":null}},{"type":"Feature","id":"MRU-003","geometry":{"type":"LineString","coordinates":[[-78.9383949,43.8677939],[-78.9384627,43.8679573],[-78.9385265,43.8681109],[-78.9385266,43.8681112],[-78.9385927,43.8682706],[-78.93902,43.8686936],[-78.9386572,43.8684262],[-78.9385889,43.8682613],[-78.9372794,43.8684676],[-78.9372199,43.8683313],[-78.9371613,43.8681971],[-78.9384575,43.8679448],[-78.9366762,43.8681482],[-78.9360073,43.8676954],[-78.9362784,43.8682373],[-78.936485,43.868191],[-78.9366734,43.8681488],[-78.9362682,43.8682396],[-78.93607,43.868284],[-78.9364647,43.8681956],[-78.9373964,43.8687422],[-78.9372809,43.8684712],[-78.9360865,43.8688528],[-78.9361583,43.8690165],[-78.9362359,43.8691936],[-78.9374523,43.8688838],[-78.937755,43.8689777],[-78.9380253,43.8689169],[-78.9374546,43.8688896]]},"properties":{"technology":"AMI","portionId":"PORT-03","meterCount":29,"readerId":null}},{"type":"Feature","id":"MRU-004","geometry":{"type":"LineString","coordinates":[[-78.9374005,43.8687527],[-78.9373421,43.8686113],[-78.9380298,43.8689159],[-78.9387259,43.8685916],[-78.9388616,43.8689126],[-78.9389329,43.8690798],[-78.9390003,43.8692381],[-78.9390194,43.8686938],[-78.9402629,43.8690434],[-78.9402011,43.8689035],[-78.9401366,43.8687577],[-78.9402267,43.8684126],[-78.9400731,43.8686141],[-78.9392703,43.8686381],[-78.9392745,43.8686371],[-78.9395357,43.8685772],[-78.9397825,43.8685178],[-78.9397293,43.8678218],[-78.9398022,43.8679899],[-78.9397991,43.8679828],[-78.9404677,43.8683564],[-78.9402323,43.8684113],[-78.9412576,43.8683442],[-78.9410571,43.8678927],[-78.9411225,43.8680437],[-78.9413919,43.8681412],[-78.9415877,43.8680959],[-78.9417764,43.8680522],[-78.9415898,43.8680954]]},"properties":{"technology":"MANUAL","portionId":"PORT-04","meterCount":29,"readerId":"WALKER-01"}},{"type":"Feature","id":"MRU-005","geometry":{"type":"LineString","coordinates":[[-78.9413972,43.8681399],[-78.9413807,43.8686262],[-78.9414474,43.8687789],[-78.9414454,43.8687744],[-78.9413215,43.8684907],[-78.9413829,43.8686311],[-78.9404741,43.8683549],[-78.9402013,43.8689039],[-78.9402633,43.8690442],[-78.9415781,43.8690782],[-78.9415125,43.868928],[-78.9415136,43.8689306],[-78.9415785,43.869079],[-78.9440166,43.8690487],[-78.9442132,43.8692007],[-78.9443498,43.8693064],[-78.94408,43.8690977],[-78.943915,43.8689582],[-78.9437661,43.8686609],[-78.9438212,43.8687993],[-78.943778,43.8686909],[-78.9437213,43.8685485],[-78.9436672,43.8684125],[-78.9436511,43.8683721],[-78.9437117,43.8685243],[-78.9448103,43.8684734],[-78.9435347,43.8680795],[-78.9435935,43.8682273],[-78.94344,43.8678417]]},"properties":{"technology":"AMR","portionId":"PORT-05","meterCount":29,"readerId":"VAN-01"}},{"type":"Feature","id":"MRU-006","geometry":{"type":"LineString","coordinates":[[-78.9434943,43.8679782],[-78.9435483,43.8681138],[-78.9436078,43.8682633],[-78.9419711,43.8680072],[-78.9419926,43.8680022],[-78.9421618,43.8673158],[-78.9421091,43.8671702],[-78.9420543,43.8670295],[-78.9419287,43.8667241],[-78.9419915,43.866875],[-78.9444853,43.867572],[-78.9440662,43.867551],[-78.9442664,43.8675611],[-78.9438691,43.8675411],[-78.9437423,43.8675348],[-78.9439554,43.8675455],[-78.9443701,43.8675663],[-78.9441635,43.8675559],[-78.944787,43.8675872],[-78.9445768,43.8675766],[-78.9444321,43.8693701],[-78.9442909,43.8692608],[-78.9441564,43.8691568],[-78.9417071,43.8693708],[-78.9417714,43.8695155],[-78.9418348,43.869658],[-78.9418947,43.8697928],[-78.9419583,43.8699359],[-78.9420901,43.8702325]]},"properties":{"technology":"AMI","portionId":"PORT-06","meterCount":29,"readerId":null}},{"type":"Feature","id":"MRU-007","geometry":{"type":"LineString","coordinates":[[-78.9420249,43.8700858],[-78.9421545,43.8703774],[-78.9422162,43.8705162],[-78.9430633,43.8706413],[-78.9433046,43.8705874],[-78.9439995,43.8704331],[-78.9433483,43.8700964],[-78.9422772,43.8706534],[-78.9422135,43.8705101],[-78.9422791,43.8706578],[-78.942408,43.8709554],[-78.9424679,43.8710966],[-78.9424689,43.8710989],[-78.9424065,43.8709519],[-78.9425278,43.871238],[-78.9425892,43.8713827],[-78.9426459,43.8715163],[-78.9419768,43.8719963],[-78.9421738,43.8719511],[-78.9442137,43.8720497],[-78.9417733,43.872043],[-78.94144,43.8718002],[-78.9405377,43.8723181],[-78.9407463,43.8722718],[-78.9409564,43.8722252],[-78.9401443,43.8719208],[-78.9401451,43.8719226],[-78.9400823,43.8717798],[-78.9388442,43.8720802]]},"properties":{"technology":"AMI","portionId":"PORT-07","meterCount":29,"readerId":null}},{"type":"Feature","id":"MRU-008","geometry":{"type":"LineString","coordinates":[[-78.9389066,43.8722241],[-78.9397289,43.8741006],[-78.936653,43.8732021],[-78.9365874,43.8730509],[-78.9365278,43.8729135],[-78.936467,43.8727735],[-78.9364015,43.8726226],[-78.9363391,43.8724787],[-78.9364,43.8726192],[-78.9364657,43.8727705],[-78.9376901,43.8725063],[-78.9377501,43.872647],[-78.9365266,43.8729109],[-78.9378752,43.8729388],[-78.9377473,43.8726403],[-78.9378102,43.8727879],[-78.9376229,43.8723486],[-78.9376866,43.8724981],[-78.9389674,43.8723646],[-78.9389047,43.8722199],[-78.9388444,43.8720806],[-78.9382356,43.8717321],[-78.9380301,43.8717772],[-78.9374974,43.8720518],[-78.9375593,43.8721995],[-78.9375029,43.8720652],[-78.9375635,43.8722093],[-78.9376273,43.872359],[-78.9368188,43.872045]]},"properties":{"technology":"AMI","portionId":"PORT-08","meterCount":29,"readerId":null}},{"type":"Feature","id":"MRU-009","geometry":{"type":"LineString","coordinates":[[-78.9362752,43.8723315],[-78.9363369,43.8724738],[-78.9368031,43.8720485],[-78.9361387,43.8720278],[-78.9360662,43.8718611],[-78.9359886,43.8716828],[-78.9373612,43.8717515],[-78.9372903,43.8715895],[-78.9372157,43.8714194],[-78.9372148,43.8714174],[-78.937142,43.8712512],[-78.9363908,43.8710662],[-78.9359881,43.8711569],[-78.936196,43.8711101],[-78.9363868,43.8710671],[-78.9361858,43.8711124],[-78.9368029,43.8704856],[-78.9368663,43.8706276],[-78.9369311,43.8707728],[-78.9372027,43.8708803],[-78.9374023,43.8708355],[-78.937398,43.8708365],[-78.9370696,43.871086],[-78.9372,43.8708809],[-78.9383522,43.8709825],[-78.9378206,43.8707417],[-78.9376093,43.8707891],[-78.9376056,43.8707899],[-78.9378028,43.8707457]]},"properties":{"technology":"AMI","portionId":"PORT-09","meterCount":29,"readerId":null}},{"type":"Feature","id":"MRU-010","geometry":{"type":"LineString","coordinates":[[-78.9382846,43.8708156],[-78.9383521,43.8709822],[-78.9384281,43.8711476],[-78.9390541,43.8715366],[-78.9384257,43.8711422],[-78.938241,43.8717309],[-78.9380509,43.8717725],[-78.9372881,43.8715847],[-78.9373612,43.8717516],[-78.9390691,43.8715331],[-78.9392889,43.8714837],[-78.9392618,43.8714897],[-78.9398272,43.8711883],[-78.9399588,43.8714988],[-78.9400202,43.8716384],[-78.939959,43.8714993],[-78.9400222,43.871643],[-78.9400824,43.87178],[-78.9413177,43.8715139],[-78.9413778,43.8716545],[-78.9413797,43.8716591],[-78.9413158,43.8715094],[-78.9412512,43.8713583],[-78.9411902,43.8712155],[-78.9412529,43.8713622],[-78.9405084,43.8712104],[-78.9405079,43.8712105],[-78.9410649,43.8709178],[-78.9411901,43.8712151]]},"properties":{"technology":"MANUAL","portionId":"PORT-10","meterCount":29,"readerId":"WALKER-01"}},{"type":"Feature","id":"MRU-011","geometry":{"type":"LineString","coordinates":[[-78.9417424,43.8709356],[-78.9410617,43.8709103],[-78.9409957,43.8707524],[-78.9417351,43.8709372],[-78.9409278,43.87059],[-78.9409974,43.8707565],[-78.9409278,43.8705901],[-78.9396247,43.8707093],[-78.9396923,43.8708693],[-78.9398274,43.8711889],[-78.9397593,43.8710277],[-78.939691,43.870866],[-78.9397564,43.8710209],[-78.9396255,43.8707111],[-78.9395545,43.870543],[-78.9394866,43.8703825],[-78.93957,43.870016],[-78.9394197,43.870224],[-78.9392864,43.8699098],[-78.9397797,43.86997],[-78.9406602,43.8699501],[-78.9399859,43.8699247],[-78.9395552,43.8705448],[-78.9408595,43.8704267],[-78.9407933,43.8702684],[-78.9407961,43.8702751],[-78.9408602,43.8704284],[-78.9421487,43.8703644],[-78.9420876,43.8702269]]},"properties":{"technology":"AMR","portionId":"PORT-11","meterCount":29,"readerId":"VAN-01"}},{"type":"Feature","id":"MRU-012","geometry":{"type":"LineString","coordinates":[[-78.9420266,43.8700897],[-78.9419629,43.8699464],[-78.9418963,43.8697965],[-78.9406597,43.8699488],[-78.9407282,43.8701126],[-78.9407282,43.8701126],[-78.9406824,43.8694346],[-78.9409185,43.8693832],[-78.9418342,43.8696567],[-78.9417718,43.8695163],[-78.9417083,43.8693734],[-78.940934,43.8693798],[-78.9406876,43.8694335],[-78.9403267,43.8691876],[-78.9403927,43.8693368],[-78.9405252,43.8696361],[-78.9399649,43.8699293],[-78.9397508,43.8699763],[-78.9395528,43.8700197],[-78.9392167,43.8697462],[-78.9391402,43.8695665],[-78.9390682,43.8693975],[-78.9390017,43.8692415],[-78.9390744,43.8694122],[-78.9377602,43.8696095],[-78.9376066,43.8698401],[-78.9391457,43.8695795],[-78.9379188,43.8699635],[-78.9384978,43.8702518]]},"properties":{"technology":"AMI","portionId":"PORT-12","meterCount":29,"readerId":null}},{"type":"Feature","id":"MRU-013","geometry":{"type":"LineString","coordinates":[[-78.9387187,43.8702033],[-78.9387183,43.8702034],[-78.9385082,43.8702495],[-78.9380036,43.870162],[-78.9371021,43.8699542],[-78.937356,43.869898],[-78.9368086,43.8704983],[-78.9368522,43.8700096],[-78.9366798,43.8702099],[-78.9367414,43.870348],[-78.9360019,43.8702005],[-78.9365444,43.8698978],[-78.9364664,43.8697197],[-78.9363885,43.869542],[-78.9368413,43.870012],[-78.9370859,43.8699578],[-78.9373416,43.8699012],[-78.937586,43.8692057],[-78.9363156,43.8693755],[-78.9363897,43.8695446],[-78.9363137,43.8693712],[-78.9362396,43.8692022],[-78.9349697,43.8693641],[-78.9349004,43.8692078],[-78.9349699,43.8693647],[-78.9350449,43.8695339],[-78.9350464,43.8695372],[-78.9351161,43.8696946],[-78.9351846,43.8698494]]},"properties":{"technology":"AMI","portionId":"PORT-13","meterCount":29,"readerId":null}},{"type":"Feature","id":"MRU-014","geometry":{"type":"LineString","coordinates":[[-78.9351149,43.8696919],[-78.9360102,43.8701985],[-78.9356038,43.8702909],[-78.9358039,43.8702455],[-78.9357985,43.8702467],[-78.9356013,43.8702915],[-78.9353279,43.8701728],[-78.9347689,43.870463],[-78.9352583,43.8700158],[-78.9351873,43.8698553],[-78.9340815,43.8703645],[-78.934265,43.8704442],[-78.9345332,43.8704939],[-78.9338776,43.8703069],[-78.9321413,43.8694231],[-78.9322048,43.8695635],[-78.9322705,43.8697087],[-78.9322974,43.8697681],[-78.9322333,43.8696266],[-78.9321728,43.8694927],[-78.9321089,43.8693515],[-78.9320794,43.8692862],[-78.9312927,43.8692699],[-78.9310963,43.869297],[-78.9302241,43.8693971],[-78.9309592,43.8694834],[-78.9304485,43.869373],[-78.9302326,43.8693962],[-78.9310286,43.8696426]]},"properties":{"technology":"AMI","portionId":"PORT-14","meterCount":29,"readerId":null}},{"type":"Feature","id":"MRU-015","geometry":{"type":"LineString","coordinates":[[-78.9310987,43.8698036],[-78.9310924,43.8697891],[-78.9312152,43.8701088],[-78.9312148,43.8701073],[-78.9311635,43.8699522],[-78.9299687,43.8700137],[-78.9301058,43.8703382],[-78.930177,43.8704949],[-78.9312519,43.8702756],[-78.9312495,43.8702623],[-78.9312886,43.870424],[-78.9324345,43.8703666],[-78.9324069,43.8702278],[-78.9323539,43.8699229],[-78.9323868,43.8700742],[-78.9323935,43.8701257],[-78.9323704,43.8699901],[-78.9324133,43.8702765],[-78.9324521,43.8704365],[-78.9325524,43.8707363],[-78.9324956,43.8705891],[-78.9326173,43.8708826],[-78.9326792,43.8710225],[-78.9327423,43.8711648],[-78.9327038,43.871078],[-78.9326366,43.8709262],[-78.931613,43.8711731],[-78.9315493,43.8710276],[-78.9314875,43.8708865]]},"properties":{"technology":"AMR","portionId":"PORT-15","meterCount":29,"readerId":"VAN-01"}},{"type":"Feature","id":"MRU-016","geometry":{"type":"LineString","coordinates":[[-78.9325746,43.8707863],[-78.9324706,43.8705078],[-78.9313543,43.8705873],[-78.9313556,43.8705902],[-78.930603,43.8709252],[-78.9308032,43.8708813],[-78.9305932,43.8709273],[-78.9307957,43.870883],[-78.9314873,43.8708862],[-78.9315509,43.8710313],[-78.9316152,43.871178],[-78.9316739,43.8713119],[-78.9317338,43.8714487],[-78.9317981,43.8715954],[-78.9318607,43.8717382],[-78.931861,43.871739],[-78.9317991,43.8715977],[-78.9317392,43.8714609],[-78.9316776,43.8713204],[-78.9328264,43.8713547],[-78.9327653,43.8712169],[-78.9328089,43.8713153],[-78.9328926,43.8715042],[-78.9329543,43.8716435],[-78.9330595,43.8718808],[-78.9329945,43.8717343],[-78.9329335,43.8715964],[-78.9337581,43.8714596],[-78.9340464,43.8715663]]},"properties":{"technology":"AMR","portionId":"PORT-16","meterCount":29,"readerId":"VAN-02"}},{"type":"Feature","id":"MRU-017","geometry":{"type":"LineString","coordinates":[[-78.9342897,43.8715086],[-78.9337614,43.8714672],[-78.9336988,43.8713243],[-78.9336929,43.8713108],[-78.9328734,43.8714607],[-78.933629,43.8711649],[-78.933563,43.8710143],[-78.9334985,43.8708671],[-78.9334345,43.8707211],[-78.9333722,43.8705789],[-78.93345,43.8707565],[-78.9335144,43.8709034],[-78.9341006,43.870373],[-78.9335756,43.8710431],[-78.9336352,43.8711791],[-78.9347857,43.8704597],[-78.9354636,43.8704848],[-78.9355252,43.8706247],[-78.9355872,43.8707654],[-78.9355868,43.8707646],[-78.9359851,43.8711576],[-78.9356484,43.8709044],[-78.9357115,43.8710478],[-78.9358473,43.8713581],[-78.9359171,43.8715184],[-78.9359878,43.8716811],[-78.9360653,43.8718591],[-78.9355564,43.8723246],[-78.9361404,43.8720316]]},"properties":{"technology":"AMI","portionId":"PORT-17","meterCount":29,"readerId":null}},{"type":"Feature","id":"MRU-018","geometry":{"type":"LineString","coordinates":[[-78.9362763,43.872334],[-78.935349,43.8723707],[-78.9351339,43.8724184],[-78.9349088,43.8724684],[-78.934045,43.8721205],[-78.9338964,43.8717775],[-78.9331209,43.8720194],[-78.9339692,43.8719456],[-78.9340419,43.8721134],[-78.9341868,43.872448],[-78.9341131,43.8722778],[-78.934118,43.8722893],[-78.93419,43.8724555],[-78.9344677,43.8725663],[-78.9336484,43.8727481],[-78.9332326,43.8728404],[-78.9334405,43.8727943],[-78.9340567,43.8726574],[-78.9346816,43.8725188],[-78.9351236,43.8724207],[-78.9349058,43.8724691],[-78.9353448,43.8723716],[-78.9355631,43.8723231],[-78.9330338,43.8728845],[-78.9327816,43.8723239],[-78.9321116,43.8723109],[-78.932784,43.8723234],[-78.9330746,43.871915],[-78.9330144,43.8717792]]},"properties":{"technology":"AMR","portionId":"PORT-18","meterCount":29,"readerId":"VAN-02"}},{"type":"Feature","id":"MRU-019","geometry":{"type":"LineString","coordinates":[[-78.9319235,43.8718815],[-78.9319852,43.8720223],[-78.9320474,43.8721643],[-78.9300191,43.8694192],[-78.9300137,43.8694198],[-78.9295596,43.8694378],[-78.9281342,43.8682802],[-78.9297747,43.8679995],[-78.9299851,43.8679806],[-78.9297859,43.8680945],[-78.9300165,43.8680784],[-78.9295634,43.8681224],[-78.9293426,43.8681568],[-78.9281541,43.8682819],[-78.9291154,43.8690045],[-78.9290443,43.8686785],[-78.9290738,43.8688374],[-78.9304357,43.8693744],[-78.930655,43.8680651],[-78.9308663,43.8680621],[-78.9304428,43.868068],[-78.9302306,43.868071],[-78.9314648,43.8680172],[-78.9322964,43.868007],[-78.9320897,43.8680086],[-78.9318803,43.8680112],[-78.9316667,43.8680149],[-78.9329183,43.868002],[-78.9327131,43.8680037]]},"properties":{"technology":"AMI","portionId":"PORT-19","meterCount":29,"readerId":null}},{"type":"Feature","id":"MRU-020","geometry":{"type":"LineString","coordinates":[[-78.9325043,43.8680053],[-78.931733,43.8691909],[-78.9346926,43.8687108],[-78.934764,43.8688855],[-78.9348348,43.8690588],[-78.9348284,43.8690433],[-78.934897,43.8692],[-78.9361637,43.8690289],[-78.9360853,43.8688499],[-78.9360058,43.8686686],[-78.9359288,43.8684928],[-78.9351897,43.8684879],[-78.9349674,43.8685403],[-78.9347451,43.8685922],[-78.9349589,43.8685424],[-78.9351861,43.8684888],[-78.9354275,43.8684319],[-78.9356456,43.8683805],[-78.9360653,43.8682851],[-78.9357996,43.8677414],[-78.9351513,43.8678784],[-78.9349036,43.8679261],[-78.9346794,43.8679646],[-78.9344448,43.8679986],[-78.9339863,43.8680431],[-78.9334995,43.8680494],[-78.9337475,43.8680463],[-78.9335078,43.8679455],[-78.9337557,43.8679392]]},"properties":{"technology":"AMI","portionId":"PORT-20","meterCount":29,"readerId":null}},{"type":"Feature","id":"MRU-021","geometry":{"type":"LineString","coordinates":[[-78.9345283,43.8678824],[-78.9342552,43.8679141],[-78.9339951,43.867933],[-78.9347741,43.8678447],[-78.9356891,43.867651],[-78.935955,43.8675957],[-78.9350245,43.8677933],[-78.9352237,43.8672293],[-78.9329159,43.868002],[-78.9327074,43.8680037],[-78.9325049,43.8680053],[-78.9323027,43.868007],[-78.9320927,43.8680086],[-78.9318802,43.8680112],[-78.9316774,43.8680147],[-78.931472,43.8680172],[-78.9306388,43.867968],[-78.9308528,43.8679685],[-78.9301974,43.8679706],[-78.9304228,43.8679677],[-78.9363554,43.8664332],[-78.936291,43.8662694],[-78.9362212,43.8660917],[-78.9361576,43.8659272],[-78.9360972,43.865761],[-78.9360387,43.8655913],[-78.9359831,43.8654314],[-78.9359246,43.8652651],[-78.9358669,43.8650986]]},"properties":{"technology":"MANUAL","portionId":"PORT-21","meterCount":29,"readerId":"WALKER-03"}}]}