{"type":"FeatureCollection","name":"roads","crs_note":"EPSG:4326","features":[{"type":"Feature","id":"R-0","geometry":{"type":"LineString","coordinates":[[-78.9477432,43.8696125],[-78.9475702,43.8696511],[-78.9474584,43.869676]]},"properties":{"name":"Burns Street West","roadClass":"collector","pavementWidthM":10.0,"lengthM":23.92,"origin":"osm"}},{"type":"Feature","id":"R-1","geometry":{"type":"LineString","coordinates":[[-78.9474584,43.869676],[-78.9474238,43.8695996],[-78.9474125,43.8695744],[-78.9471481,43.8689826]]},"properties":{"name":"McCullough Drive","roadClass":"local","pavementWidthM":8.0,"lengthM":81.11,"origin":"osm"}},{"type":"Feature","id":"R-2","geometry":{"type":"LineString","coordinates":[[-78.9474584,43.869676],[-78.947357,43.8696984],[-78.9449303,43.8702327]]},"properties":{"name":"Burns Street West","roadClass":"collector","pavementWidthM":10.0,"lengthM":212.13,"origin":"osm"}},{"type":"Feature","id":"R-3","geometry":{"type":"LineString","coordinates":[[-78.9471481,43.8689826],[-78.9470529,43.8689945],[-78.9470019,43.8690061],[-78.9458235,43.869275],[-78.9456823,43.8692795],[-78.9455253,43.869223],[-78.9448024,43.8685325],[-78.9448219,43.8683867],[-78.9449229,43.8683224],[-78.9464327,43.8683934],[-78.9467336,43.8683398],[-78.946768,43.8683328],[-78.946861,43.8683139]]},"properties":{"name":"Greenwood Crescent","roadClass":"local","pavementWidthM":8.0,"lengthM":417.0,"origin":"osm"}},{"type":"Feature","id":"R-4","geometry":{"type":"LineString","coordinates":[[-78.946861,43.8683139],[-78.9468275,43.8682376],[-78.9466473,43.8678275],[-78.9465336,43.8677299],[-78.9463749,43.8676669],[-78.9436112,43.8675282],[-78.9435274,43.8675393],[-78.9434426,43.8675798],[-78.9434065,43.8676178],[-78.9433825,43.8676971],[-78.9438359,43.8688364],[-78.9439305,43.8689821],[-78.9444967,43.86942],[-78.944622,43.8695669],[-78.9447047,43.8697188],[-78.944887,43.8701339],[-78.9448966,43.8701559],[-78.9449303,43.8702327]]},"properties":{"name":"Bayview Avenue","roadClass":"local","pavementWidthM":8.0,"lengthM":650.87,"origin":"osm"}},{"type":"Feature","id":"R-5","geometry":{"type":"LineString","coordinates":[[-78.945258,43.8744653],[-78.9448865,43.8736028]]},"properties":{"name":"Henry Street","roadClass":"arterial","pavementWidthM":14.0,"lengthM":100.53,"origin":"osm"}},{"type":"Feature","id":"R-6","geometry":{"type":"LineString","coordinates":[[-78.9449303,43.8702327],[-78.9448224,43.870256],[-78.9437164,43.870494],[-78.9435373,43.8705321]]},"properties":{"name":"Burns Street West","roadClass":"collector","pavementWidthM":10.0,"lengthM":116.64,"origin":"osm"}},{"type":"Feature","id":"R-7","geometry":{"type":"LineString","coordinates":[[-78.9448865,43.8736028],[-78.9448824,43.8735867],[-78.944771,43.873327],[-78.9445906,43.8729063],[-78.9444397,43.872575]]},"properties":{"name":"Henry Street","roadClass":"arterial","pavementWidthM":14.0,"lengthM":119.93,"origin":"osm"}},{"type":"Feature","id":"R-8","geometry":{"type":"LineString","coordinates":[[-78.9448865,43.8736028],[-78.9447856,43.8736208],[-78.9447684,43.8736239],[-78.9438136,43.873843],[-78.943783,43.8738507],[-78.9436762,43.8738773]]},"properties":{"name":"St. John Street West","roadClass":"local","pavementWidthM":8.0,"lengthM":101.84,"origin":"osm"}},{"type":"Feature","id":"R-9","geometry":{"type":"LineString","coordinates":[[-78.9444397,43.872575],[-78.9443553,43.8723744],[-78.9442137,43.8720497]]},"properties":{"name":"Henry Street","roadClass":"arterial","pavementWidthM":14.0,"lengthM":61.22,"origin":"osm"}},{"type":"Feature","id":"R-10","geometry":{"type":"LineString","coordinates":[[-78.9444397,43.872575],[-78.9443354,43.872595],[-78.9443108,43.8725997],[-78.9433092,43.8728244],[-78.9432288,43.8728425]]},"properties":{"name":"Trent Street West","roadClass":"local","pavementWidthM":8.0,"lengthM":101.64,"origin":"osm"}},{"type":"Feature","id":"R-11","geometry":{"type":"LineString","coordinates":[[-78.9442137,43.8720497],[-78.9439951,43.8715454]]},"properties":{"name":"Henry Street","roadClass":"arterial","pavementWidthM":14.0,"lengthM":58.82,"origin":"osm"}},{"type":"Feature","id":"R-12","geometry":{"type":"LineString","coordinates":[[-78.9439951,43.8715454],[-78.9436976,43.8708872],[-78.943596,43.8706619],[-78.9435373,43.8705321]]},"properties":{"name":"Henry Street","roadClass":"arterial","pavementWidthM":14.0,"lengthM":118.63,"origin":"osm"}},{"type":"Feature","id":"R-13","geometry":{"type":"LineString","coordinates":[[-78.943938,43.8744653],[-78.9436762,43.8738773]]},"properties":{"name":"King Street","roadClass":"local","pavementWidthM":8.0,"lengthM":68.75,"origin":"osm"}},{"type":"Feature","id":"R-14","geometry":{"type":"LineString","coordinates":[[-78.9436762,43.8738773],[-78.9435623,43.8738969],[-78.942594,43.8741168],[-78.9425499,43.8741262],[-78.9424592,43.8741456]]},"properties":{"name":"St. John Street West","roadClass":"local","pavementWidthM":8.0,"lengthM":102.15,"origin":"osm"}},{"type":"Feature","id":"R-15","geometry":{"type":"LineString","coordinates":[[-78.9435373,43.8705321],[-78.9434863,43.8704116],[-78.9429191,43.8691161],[-78.9423875,43.8679116]]},"properties":{"name":"Henry Street","roadClass":"arterial","pavementWidthM":14.0,"lengthM":305.97,"origin":"osm"}},{"type":"Feature","id":"R-16","geometry":{"type":"LineString","coordinates":[[-78.9435373,43.8705321],[-78.9433734,43.870572],[-78.9424479,43.8707788],[-78.9423431,43.8708022]]},"properties":{"name":"Burns Street West","roadClass":"collector","pavementWidthM":10.0,"lengthM":100.45,"origin":"osm"}},{"type":"Feature","id":"R-17","geometry":{"type":"LineString","coordinates":[[-78.9432288,43.8728425],[-78.9421072,43.8730962],[-78.9420154,43.8731169]]},"properties":{"name":"Trent Street West","roadClass":"local","pavementWidthM":8.0,"lengthM":102.05,"origin":"osm"}},{"type":"Feature","id":"R-18","geometry":{"type":"LineString","coordinates":[[-78.9427702,43.8718096],[-78.9423817,43.8708933],[-78.9423767,43.8708816],[-78.9423431,43.8708022]]},"properties":{"name":"King Street","roadClass":"local","pavementWidthM":8.0,"lengthM":117.27,"origin":"osm"}},{"type":"Feature","id":"R-19","geometry":{"type":"LineString","coordinates":[[-78.9427702,43.8718096],[-78.9426376,43.8718447],[-78.9416944,43.8720611],[-78.9416539,43.8720698],[-78.9415635,43.8720893]]},"properties":{"name":"Pitt Street West","roadClass":"local","pavementWidthM":8.0,"lengthM":101.73,"origin":"osm"}},{"type":"Feature","id":"R-20","geometry":{"type":"LineString","coordinates":[[-78.9424592,43.8741456],[-78.94237,43.8741662],[-78.9423492,43.874171],[-78.9413623,43.8743987],[-78.9413177,43.8744084],[-78.9412396,43.8744255]]},"properties":{"name":"St. John Street West","roadClass":"local","pavementWidthM":8.0,"lengthM":102.71,"origin":"osm"}},{"type":"Feature","id":"R-21","geometry":{"type":"LineString","coordinates":[[-78.9423875,43.8679116],[-78.9423773,43.8678819],[-78.9422425,43.8675384],[-78.942103,43.8671536],[-78.9420291,43.8669653],[-78.9418846,43.8666183],[-78.9418306,43.8665055],[-78.9416627,43.8661551],[-78.9416161,43.866056],[-78.9415614,43.8659397],[-78.9414169,43.865656],[-78.9413389,43.8654929]]},"properties":{"name":"Henry Street","roadClass":"arterial","pavementWidthM":14.0,"lengthM":282.25,"origin":"osm"}},{"type":"Feature","id":"R-22","geometry":{"type":"LineString","coordinates":[[-78.9423875,43.8679116],[-78.9422964,43.867932],[-78.9411859,43.8681888]]},"properties":{"name":"Arthur Street","roadClass":"local","pavementWidthM":8.0,"lengthM":101.25,"origin":"osm"}},{"type":"Feature","id":"R-23","geometry":{"type":"LineString","coordinates":[[-78.9423431,43.8708022],[-78.9423102,43.8707279],[-78.9423018,43.8707088],[-78.9416654,43.8692769],[-78.9416425,43.8692256]]},"properties":{"name":"King Street","roadClass":"local","pavementWidthM":8.0,"lengthM":184.28,"origin":"osm"}},{"type":"Feature","id":"R-24","geometry":{"type":"LineString","coordinates":[[-78.9423431,43.8708022],[-78.9422399,43.8708255],[-78.9412195,43.8710514],[-78.9411287,43.8710715]]},"properties":{"name":"Burns Street West","roadClass":"collector","pavementWidthM":10.0,"lengthM":101.96,"origin":"osm"}},{"type":"Feature","id":"R-25","geometry":{"type":"LineString","coordinates":[[-78.9420154,43.8731169],[-78.9408773,43.8733766],[-78.9407843,43.8733978]]},"properties":{"name":"Trent Street West","roadClass":"local","pavementWidthM":8.0,"lengthM":103.63,"origin":"osm"}},{"type":"Feature","id":"R-26","geometry":{"type":"LineString","coordinates":[[-78.9416425,43.8692256],[-78.9412152,43.8682471],[-78.9412093,43.8682352],[-78.9411859,43.8681888]]},"properties":{"name":"King Street","roadClass":"local","pavementWidthM":8.0,"lengthM":121.1,"origin":"osm"}},{"type":"Feature","id":"R-27","geometry":{"type":"LineString","coordinates":[[-78.9416425,43.8692256],[-78.9415223,43.8692518],[-78.9405707,43.8694589],[-78.9405403,43.8694653],[-78.9404572,43.8694826]]},"properties":{"name":"James Street","roadClass":"local","pavementWidthM":8.0,"lengthM":99.33,"origin":"osm"}},{"type":"Feature","id":"R-28","geometry":{"type":"LineString","coordinates":[[-78.9415635,43.8720893],[-78.941158,43.87114],[-78.9411287,43.8710715]]},"properties":{"name":"Centre Street South","roadClass":"local","pavementWidthM":8.0,"lengthM":118.55,"origin":"osm"}},{"type":"Feature","id":"R-29","geometry":{"type":"LineString","coordinates":[[-78.9415635,43.8720893],[-78.941425,43.8721213],[-78.9404656,43.8723341],[-78.9404353,43.8723402],[-78.9403315,43.8723612]]},"properties":{"name":"Pitt Street West","roadClass":"local","pavementWidthM":8.0,"lengthM":103.39,"origin":"osm"}},{"type":"Feature","id":"R-30","geometry":{"type":"LineString","coordinates":[[-78.9412396,43.8744255],[-78.9408244,43.8734806],[-78.9408119,43.8734548],[-78.9407843,43.8733978]]},"properties":{"name":"Byron Street South","roadClass":"local","pavementWidthM":8.0,"lengthM":120.1,"origin":"osm"}},{"type":"Feature","id":"R-31","geometry":{"type":"LineString","coordinates":[[-78.9411859,43.8681888],[-78.9411535,43.8681152],[-78.940708,43.8670872]]},"properties":{"name":"King Street","roadClass":"local","pavementWidthM":8.0,"lengthM":128.49,"origin":"osm"}},{"type":"Feature","id":"R-32","geometry":{"type":"LineString","coordinates":[[-78.9411859,43.8681888],[-78.9400077,43.8684637]]},"properties":{"name":"Arthur Street","roadClass":"local","pavementWidthM":8.0,"lengthM":99.38,"origin":"osm"}},{"type":"Feature","id":"R-33","geometry":{"type":"LineString","coordinates":[[-78.9411287,43.8710715],[-78.9410995,43.8710007],[-78.940748,43.87016],[-78.9405932,43.8697899]]},"properties":{"name":"Centre Street South","roadClass":"local","pavementWidthM":8.0,"lengthM":149.0,"origin":"osm"}},{"type":"Feature","id":"R-34","geometry":{"type":"LineString","coordinates":[[-78.9411287,43.8710715],[-78.9410324,43.8710931],[-78.9399821,43.8713282],[-78.9398965,43.8713474]]},"properties":{"name":"Burns Street West","roadClass":"collector","pavementWidthM":10.0,"lengthM":103.54,"origin":"osm"}},{"type":"Feature","id":"R-35","geometry":{"type":"LineString","coordinates":[[-78.9407843,43.8733978],[-78.9406987,43.873417],[-78.9396946,43.8736417],[-78.9396478,43.8736518],[-78.9395436,43.8736743]]},"properties":{"name":"Trent Street West","roadClass":"local","pavementWidthM":8.0,"lengthM":104.21,"origin":"osm"}},{"type":"Feature","id":"R-36","geometry":{"type":"LineString","coordinates":[[-78.9405932,43.8697899],[-78.9405729,43.8697435],[-78.9404572,43.8694826]]},"properties":{"name":"Centre Street South","roadClass":"local","pavementWidthM":8.0,"lengthM":35.9,"origin":"osm"}},{"type":"Feature","id":"R-37","geometry":{"type":"LineString","coordinates":[[-78.9405932,43.8697899],[-78.9404807,43.8698162],[-78.9394774,43.8700363],[-78.9394321,43.8700465],[-78.9393523,43.8700647]]},"properties":{"name":"Keith Street","roadClass":"local","pavementWidthM":8.0,"lengthM":104.18,"origin":"osm"}},{"type":"Feature","id":"R-38","geometry":{"type":"LineString","coordinates":[[-78.9404572,43.8694826],[-78.9400323,43.8685219],[-78.9400077,43.8684637]]},"properties":{"name":"Centre Street South","roadClass":"local","pavementWidthM":8.0,"lengthM":119.03,"origin":"osm"}},{"type":"Feature","id":"R-39","geometry":{"type":"LineString","coordinates":[[-78.9403315,43.8723612],[-78.9402908,43.8722541],[-78.9399498,43.8714784],[-78.9399313,43.8714397],[-78.9399226,43.8714164],[-78.9398965,43.8713474]]},"properties":{"name":"Byron Street South","roadClass":"local","pavementWidthM":8.0,"lengthM":118.14,"origin":"osm"}},{"type":"Feature","id":"R-40","geometry":{"type":"LineString","coordinates":[[-78.9400077,43.8684637],[-78.9394263,43.8686035],[-78.9387887,43.8687449]]},"properties":{"name":"Arthur Street","roadClass":"local","pavementWidthM":8.0,"lengthM":102.72,"origin":"osm"}},{"type":"Feature","id":"R-41","geometry":{"type":"LineString","coordinates":[[-78.9400077,43.8684637],[-78.9395344,43.8673725],[-78.9393497,43.8669469],[-78.9393095,43.8669085],[-78.9392422,43.8668986],[-78.9388344,43.8668912],[-78.9386871,43.8669032],[-78.938557,43.8669218],[-78.938415,43.8669549],[-78.9382749,43.8670135],[-78.9381731,43.8670662],[-78.9381467,43.8671088],[-78.9381381,43.8671376],[-78.9381408,43.8671722],[-78.9381497,43.8672027],[-78.9387617,43.8686778],[-78.9387887,43.8687449]]},"properties":{"name":"Byron Street South","roadClass":"local","pavementWidthM":8.0,"lengthM":473.06,"origin":"osm"}},{"type":"Feature","id":"R-42","geometry":{"type":"LineString","coordinates":[[-78.9398965,43.8713474],[-78.939869,43.8712855],[-78.9398549,43.8712539],[-78.9393523,43.8700647]]},"properties":{"name":"Byron Street South","roadClass":"local","pavementWidthM":8.0,"lengthM":149.32,"origin":"osm"}},{"type":"Feature","id":"R-43","geometry":{"type":"LineString","coordinates":[[-78.9398965,43.8713474],[-78.9398023,43.8713687],[-78.9394485,43.8714485],[-78.9391331,43.871518],[-78.9387951,43.8715977],[-78.938651,43.8716352]]},"properties":{"name":"Burns Street West","roadClass":"collector","pavementWidthM":10.0,"lengthM":104.97,"origin":"osm"}},{"type":"Feature","id":"R-44","geometry":{"type":"LineString","coordinates":[[-78.9398875,43.8744653],[-78.9395751,43.8737469],[-78.9395436,43.8736743]]},"properties":{"name":"Brock Street South","roadClass":"arterial","pavementWidthM":14.0,"lengthM":92.27,"origin":"osm"}},{"type":"Feature","id":"R-45","geometry":{"type":"LineString","coordinates":[[-78.9395436,43.8736743],[-78.9395116,43.8736027],[-78.9393012,43.873132],[-78.9392705,43.8730614],[-78.9391809,43.8728563],[-78.9391157,43.8727068],[-78.9386947,43.8717352],[-78.938651,43.8716352]]},"properties":{"name":"Brock Street South","roadClass":"arterial","pavementWidthM":14.0,"lengthM":238.03,"origin":"osm"}},{"type":"Feature","id":"R-46","geometry":{"type":"LineString","coordinates":[[-78.9395436,43.8736743],[-78.9394336,43.8737001],[-78.9394166,43.8737041],[-78.9389976,43.8738036],[-78.9386618,43.8738779],[-78.9384478,43.8739253],[-78.9384081,43.8739307],[-78.9383244,43.8739507]]},"properties":{"name":"Trent Street East","roadClass":"local","pavementWidthM":8.0,"lengthM":102.59,"origin":"osm"}},{"type":"Feature","id":"R-47","geometry":{"type":"LineString","coordinates":[[-78.9393523,43.8700647],[-78.9393321,43.8700172],[-78.9388243,43.868825],[-78.9388095,43.8687917],[-78.9387887,43.8687449]]},"properties":{"name":"Byron Street South","roadClass":"local","pavementWidthM":8.0,"lengthM":153.73,"origin":"osm"}},{"type":"Feature","id":"R-48","geometry":{"type":"LineString","coordinates":[[-78.9393523,43.8700647],[-78.9392444,43.8700891],[-78.9386332,43.8702219],[-78.9382345,43.87031],[-78.9382075,43.8703163],[-78.9380821,43.8703456]]},"properties":{"name":"Keith Street","roadClass":"local","pavementWidthM":8.0,"lengthM":106.62,"origin":"osm"}},{"type":"Feature","id":"R-49","geometry":{"type":"LineString","coordinates":[[-78.9387887,43.8687449],[-78.9380588,43.8689093],[-78.9379315,43.868938],[-78.9376555,43.8690001],[-78.9376152,43.8690098],[-78.9375118,43.8690347]]},"properties":{"name":"Arthur Street","roadClass":"local","pavementWidthM":8.0,"lengthM":107.43,"origin":"osm"}},{"type":"Feature","id":"R-50","geometry":{"type":"LineString","coordinates":[[-78.938651,43.8716352],[-78.9386161,43.8715537],[-78.9383557,43.870991],[-78.9383124,43.8708842],[-78.9382178,43.8706508]]},"properties":{"name":"Brock Street South","roadClass":"arterial","pavementWidthM":14.0,"lengthM":114.98,"origin":"osm"}},{"type":"Feature","id":"R-51","geometry":{"type":"LineString","coordinates":[[-78.938651,43.8716352],[-78.9385435,43.871665],[-78.9380772,43.8717666],[-78.9375292,43.8718904],[-78.9374289,43.8719092]]},"properties":{"name":"Burns Street East","roadClass":"collector","pavementWidthM":10.0,"lengthM":102.73,"origin":"osm"}},{"type":"Feature","id":"R-52","geometry":{"type":"LineString","coordinates":[[-78.9383244,43.8739507],[-78.9381456,43.87354],[-78.9380573,43.8733374],[-78.9380472,43.8733101],[-78.9378667,43.8729204],[-78.937522,43.8721121],[-78.937467,43.8719773],[-78.9374289,43.8719092]]},"properties":{"name":"Green Street","roadClass":"local","pavementWidthM":8.0,"lengthM":238.39,"origin":"osm"}},{"type":"Feature","id":"R-53","geometry":{"type":"LineString","coordinates":[[-78.9382178,43.8706508],[-78.9380821,43.8703456]]},"properties":{"name":"Brock Street South","roadClass":"arterial","pavementWidthM":14.0,"lengthM":35.67,"origin":"osm"}},{"type":"Feature","id":"R-54","geometry":{"type":"LineString","coordinates":[[-78.9382178,43.8706508],[-78.938113,43.8706757],[-78.9380787,43.8706838],[-78.9371194,43.870899],[-78.9371041,43.8709022],[-78.9369988,43.8709244]]},"properties":{"name":"Saint Peter Street","roadClass":"local","pavementWidthM":8.0,"lengthM":102.47,"origin":"osm"}},{"type":"Feature","id":"R-55","geometry":{"type":"LineString","coordinates":[[-78.9380821,43.8703456],[-78.9379348,43.8700011],[-78.9379018,43.8699237],[-78.9378357,43.8697846]]},"properties":{"name":"Brock Street South","roadClass":"arterial","pavementWidthM":14.0,"lengthM":65.52,"origin":"osm"}},{"type":"Feature","id":"R-56","geometry":{"type":"LineString","coordinates":[[-78.9378357,43.8697846],[-78.9377677,43.869627],[-78.9376251,43.8692956],[-78.937577,43.8691849],[-78.9375118,43.8690347]]},"properties":{"name":"Brock Street South","roadClass":"arterial","pavementWidthM":14.0,"lengthM":87.42,"origin":"osm"}},{"type":"Feature","id":"R-57","geometry":{"type":"LineString","coordinates":[[-78.9378357,43.8697846],[-78.9377291,43.8698083],[-78.9377028,43.8698142],[-78.9375532,43.8698545],[-78.9375103,43.869866],[-78.9373636,43.8698963],[-78.9367268,43.8700373],[-78.9366139,43.8700613]]},"properties":{"name":"Saint Lawrence Street","roadClass":"local","pavementWidthM":8.0,"lengthM":102.8,"origin":"osm"}},{"type":"Feature","id":"R-58","geometry":{"type":"LineString","coordinates":[[-78.9375118,43.8690347],[-78.9374309,43.8688296],[-78.9373695,43.8686741],[-78.9370987,43.8680536]]},"properties":{"name":"Brock Street South","roadClass":"arterial","pavementWidthM":14.0,"lengthM":114.15,"origin":"osm"}},{"type":"Feature","id":"R-59","geometry":{"type":"LineString","coordinates":[[-78.9374289,43.8719092],[-78.9374052,43.871852],[-78.9370316,43.8709993],[-78.9369988,43.8709244]]},"properties":{"name":"Green Street","roadClass":"local","pavementWidthM":8.0,"lengthM":114.93,"origin":"osm"}},{"type":"Feature","id":"R-60","geometry":{"type":"LineString","coordinates":[[-78.9374289,43.8719092],[-78.9373277,43.8719317],[-78.9363086,43.8721585],[-78.9362099,43.8721833]]},"properties":{"name":"Burns Street East","roadClass":"collector","pavementWidthM":10.0,"lengthM":102.48,"origin":"osm"}},{"type":"Feature","id":"R-61","geometry":{"type":"LineString","coordinates":[[-78.9370987,43.8680536],[-78.9370584,43.8679703]]},"properties":{"name":"Brock Street South","roadClass":"arterial","pavementWidthM":14.0,"lengthM":9.82,"origin":"osm"}},{"type":"Feature","id":"R-62","geometry":{"type":"LineString","coordinates":[[-78.9370987,43.8680536],[-78.9369763,43.8680809],[-78.9369366,43.8680898],[-78.9359711,43.8683062],[-78.9358554,43.868331]]},"properties":{"name":"Clemence Avenue","roadClass":"local","pavementWidthM":8.0,"lengthM":104.44,"origin":"osm"}},{"type":"Feature","id":"R-63","geometry":{"type":"LineString","coordinates":[[-78.9370958,43.8742225],[-78.9362412,43.8722533],[-78.9362099,43.8721833]]},"properties":{"name":"Athol Street","roadClass":"local","pavementWidthM":8.0,"lengthM":237.87,"origin":"osm"}},{"type":"Feature","id":"R-64","geometry":{"type":"LineString","coordinates":[[-78.9370584,43.8679703],[-78.9371033,43.867837],[-78.9369921,43.8675914],[-78.9369472,43.8674869]]},"properties":{"name":"Brock Street South","roadClass":"arterial","pavementWidthM":14.0,"lengthM":56.22,"origin":"osm"}},{"type":"Feature","id":"R-65","geometry":{"type":"LineString","coordinates":[[-78.9370584,43.8679703],[-78.9369759,43.8678835],[-78.9368512,43.8676258],[-78.9368045,43.8675187]]},"properties":{"name":"Brock Street South","roadClass":"arterial","pavementWidthM":14.0,"lengthM":54.6,"origin":"osm"}},{"type":"Feature","id":"R-66","geometry":{"type":"LineString","coordinates":[[-78.9369988,43.8709244],[-78.9366444,43.8701304],[-78.9366139,43.8700613]]},"properties":{"name":"Green Street","roadClass":"local","pavementWidthM":8.0,"lengthM":100.92,"origin":"osm"}},{"type":"Feature","id":"R-67","geometry":{"type":"LineString","coordinates":[[-78.9369988,43.8709244],[-78.9368982,43.870952],[-78.9358918,43.8711786],[-78.9357784,43.8711998]]},"properties":{"name":"Saint Peter Street","roadClass":"local","pavementWidthM":8.0,"lengthM":102.64,"origin":"osm"}},{"type":"Feature","id":"R-68","geometry":{"type":"LineString","coordinates":[[-78.9369472,43.8674869],[-78.9369009,43.8673869]]},"properties":{"name":"Brock Street South","roadClass":"arterial","pavementWidthM":14.0,"lengthM":11.73,"origin":"osm"}},{"type":"Feature","id":"R-69","geometry":{"type":"LineString","coordinates":[[-78.9369472,43.8674869],[-78.9368045,43.8675187]]},"properties":{"name":"Consumers Drive","roadClass":"arterial","pavementWidthM":14.0,"lengthM":11.98,"origin":"osm"}},{"type":"Feature","id":"R-70","geometry":{"type":"LineString","coordinates":[[-78.9369009,43.8673869],[-78.9367614,43.8674168]]},"properties":{"name":"Consumers Drive","roadClass":"arterial","pavementWidthM":14.0,"lengthM":11.68,"origin":"osm"}},{"type":"Feature","id":"R-71","geometry":{"type":"LineString","coordinates":[[-78.9369009,43.8673869],[-78.9368755,43.8673207],[-78.9366058,43.8666557],[-78.9365129,43.8664172],[-78.9362529,43.8657898],[-78.9361609,43.8655201],[-78.9359939,43.865031]]},"properties":{"name":"Brock Street South","roadClass":"arterial","pavementWidthM":14.0,"lengthM":272.23,"origin":"osm"}},{"type":"Feature","id":"R-72","geometry":{"type":"LineString","coordinates":[[-78.9368045,43.8675187],[-78.9367614,43.8674168]]},"properties":{"name":"Brock Street South","roadClass":"arterial","pavementWidthM":14.0,"lengthM":11.86,"origin":"osm"}},{"type":"Feature","id":"R-73","geometry":{"type":"LineString","coordinates":[[-78.9368045,43.8675187],[-78.936666,43.8675494],[-78.9353834,43.8678337]]},"properties":{"name":"Consumers Drive","roadClass":"arterial","pavementWidthM":14.0,"lengthM":119.31,"origin":"osm"}},{"type":"Feature","id":"R-74","geometry":{"type":"LineString","coordinates":[[-78.9367614,43.8674168],[-78.9364387,43.8666455],[-78.9361713,43.8659647],[-78.9361027,43.8657768],[-78.936005,43.8654935],[-78.9358791,43.865136],[-78.935841,43.8650187]]},"properties":{"name":"Brock Street South","roadClass":"arterial","pavementWidthM":14.0,"lengthM":277.05,"origin":"osm"}},{"type":"Feature","id":"R-75","geometry":{"type":"LineString","coordinates":[[-78.9367614,43.8674168],[-78.936622,43.8674466],[-78.9364961,43.8674749],[-78.9362037,43.8675439],[-78.9354469,43.8677015]]},"properties":{"name":"Consumers Drive","roadClass":"arterial","pavementWidthM":14.0,"lengthM":110.15,"origin":"osm"}},{"type":"Feature","id":"R-76","geometry":{"type":"LineString","coordinates":[[-78.9366139,43.8700613],[-78.9365815,43.8699831],[-78.9365751,43.8699676],[-78.9358818,43.8683857],[-78.9358554,43.868331]]},"properties":{"name":"Green Street","roadClass":"local","pavementWidthM":8.0,"lengthM":202.01,"origin":"osm"}},{"type":"Feature","id":"R-77","geometry":{"type":"LineString","coordinates":[[-78.9366139,43.8700613],[-78.9354899,43.8703168],[-78.9353991,43.8703383]]},"properties":{"name":"Saint Lawrence Street","roadClass":"local","pavementWidthM":8.0,"lengthM":102.25,"origin":"osm"}},{"type":"Feature","id":"R-78","geometry":{"type":"LineString","coordinates":[[-78.9362099,43.8721833],[-78.9361775,43.872117],[-78.9358089,43.8712699],[-78.935793,43.8712333],[-78.9357784,43.8711998]]},"properties":{"name":"Athol Street","roadClass":"local","pavementWidthM":8.0,"lengthM":114.84,"origin":"osm"}},{"type":"Feature","id":"R-79","geometry":{"type":"LineString","coordinates":[[-78.9362099,43.8721833],[-78.9361174,43.8722001],[-78.9348924,43.872472],[-78.9342602,43.8726123]]},"properties":{"name":"Burns Street East","roadClass":"collector","pavementWidthM":10.0,"lengthM":163.59,"origin":"osm"}},{"type":"Feature","id":"R-80","geometry":{"type":"LineString","coordinates":[[-78.9358554,43.868331],[-78.9347809,43.8685843],[-78.9346524,43.8686124],[-78.9348392,43.8690696],[-78.934977,43.8693807],[-78.935362,43.8702497],[-78.9353991,43.8703383]]},"properties":{"name":"Athol Street","roadClass":"local","pavementWidthM":8.0,"lengthM":302.76,"origin":"osm"}},{"type":"Feature","id":"R-81","geometry":{"type":"LineString","coordinates":[[-78.9357784,43.8711998],[-78.9353991,43.8703383]]},"properties":{"name":"Athol Street","roadClass":"local","pavementWidthM":8.0,"lengthM":100.62,"origin":"osm"}},{"type":"Feature","id":"R-82","geometry":{"type":"LineString","coordinates":[[-78.9354469,43.8677015],[-78.9354539,43.8676189],[-78.9353949,43.8674941],[-78.9353173,43.8674401]]},"properties":{"name":"Paisley Court","roadClass":"local","pavementWidthM":8.0,"lengthM":32.54,"origin":"osm"}},{"type":"Feature","id":"R-83","geometry":{"type":"LineString","coordinates":[[-78.9354469,43.8677015],[-78.9352534,43.8677448]]},"properties":{"name":"Consumers Drive","roadClass":"arterial","pavementWidthM":14.0,"lengthM":16.26,"origin":"osm"}},{"type":"Feature","id":"R-84","geometry":{"type":"LineString","coordinates":[[-78.9353991,43.8703383],[-78.9353005,43.8703582],[-78.935274,43.8703636],[-78.9346284,43.8704907],[-78.9345007,43.870495],[-78.9343871,43.8704805],[-78.9342798,43.8704505],[-78.9341704,43.8704043],[-78.9339942,43.8703253],[-78.9338528,43.870303],[-78.9337177,43.8702898],[-78.9335477,43.870309],[-78.9333883,43.8703868],[-78.9333476,43.8705227],[-78.9338096,43.8715773],[-78.9338263,43.8716156]]},"properties":{"name":"Saint Lawrence Street","roadClass":"local","pavementWidthM":8.0,"lengthM":314.58,"origin":"osm"}},{"type":"Feature","id":"R-85","geometry":{"type":"LineString","coordinates":[[-78.9353834,43.8678337],[-78.9347761,43.8679507],[-78.9344536,43.8679973],[-78.9341967,43.8680366],[-78.9340683,43.868042],[-78.9338982,43.8680443],[-78.9336675,43.8680473],[-78.9335263,43.8680492],[-78.9332658,43.8680515],[-78.9331273,43.8680003]]},"properties":{"name":"Consumers Drive","roadClass":"arterial","pavementWidthM":14.0,"lengthM":185.14,"origin":"osm"}},{"type":"Feature","id":"R-86","geometry":{"type":"LineString","coordinates":[[-78.9353173,43.8674401],[-78.9352889,43.8673662],[-78.9352256,43.8672337],[-78.9351634,43.8670925]]},"properties":{"name":"Paisley Court","roadClass":"local","pavementWidthM":8.0,"lengthM":40.62,"origin":"osm"}},{"type":"Feature","id":"R-87","geometry":{"type":"LineString","coordinates":[[-78.9352534,43.8677448],[-78.9348042,43.8678401],[-78.9344097,43.8679006],[-78.9340572,43.8679314],[-78.9338849,43.8679358],[-78.9336643,43.8679415],[-78.9335018,43.8679456],[-78.9332585,43.8679426],[-78.9331273,43.8680003]]},"properties":{"name":"Consumers Drive","roadClass":"arterial","pavementWidthM":14.0,"lengthM":174.9,"origin":"osm"}},{"type":"Feature","id":"R-88","geometry":{"type":"LineString","coordinates":[[-78.9344178,43.8714782],[-78.9343655,43.8714906],[-78.9339883,43.87158],[-78.9339318,43.8715927],[-78.9338263,43.8716156]]},"properties":{"name":"Orchard Court","roadClass":"local","pavementWidthM":8.0,"lengthM":49.86,"origin":"osm"}},{"type":"Feature","id":"R-89","geometry":{"type":"LineString","coordinates":[[-78.9342602,43.8726123],[-78.934229,43.8725477],[-78.9341943,43.8724655],[-78.9338263,43.8716156]]},"properties":{"name":"Saint Lawrence Street","roadClass":"local","pavementWidthM":8.0,"lengthM":116.29,"origin":"osm"}},{"type":"Feature","id":"R-90","geometry":{"type":"LineString","coordinates":[[-78.9342602,43.8726123],[-78.9324216,43.8730205]]},"properties":{"name":"Burns Street East","roadClass":"collector","pavementWidthM":10.0,"lengthM":154.39,"origin":"osm"}},{"type":"Feature","id":"R-91","geometry":{"type":"LineString","coordinates":[[-78.9331273,43.8680003],[-78.932211,43.8680077],[-78.9319808,43.8680095],[-78.9315173,43.8680175],[-78.9313516,43.8680165],[-78.93125,43.8680161]]},"properties":{"name":"Consumers Drive","roadClass":"arterial","pavementWidthM":14.0,"lengthM":150.67,"origin":"osm"}},{"type":"Feature","id":"R-92","geometry":{"type":"LineString","coordinates":[[-78.9324216,43.8730205],[-78.9323924,43.8729454],[-78.9323649,43.8728738],[-78.9322096,43.8725317],[-78.9321767,43.8724594]]},"properties":{"name":"Billings Street","roadClass":"local","pavementWidthM":8.0,"lengthM":65.49,"origin":"osm"}},{"type":"Feature","id":"R-93","geometry":{"type":"LineString","coordinates":[[-78.9324216,43.8730205],[-78.9319963,43.873117],[-78.9316505,43.8731828],[-78.9313582,43.8732054],[-78.9310352,43.8732109],[-78.9302496,43.8731209],[-78.9297119,43.8730522],[-78.92946,43.8730429]]},"properties":{"name":"Burns Street East","roadClass":"collector","pavementWidthM":10.0,"lengthM":241.89,"origin":"osm"}},{"type":"Feature","id":"R-94","geometry":{"type":"LineString","coordinates":[[-78.9321767,43.8724594],[-78.9314245,43.870743]]},"properties":{"name":"Billings Street","roadClass":"local","pavementWidthM":8.0,"lengthM":200.38,"origin":"osm"}},{"type":"Feature","id":"R-95","geometry":{"type":"LineString","coordinates":[[-78.9321767,43.8724594],[-78.9322831,43.8724388],[-78.9323129,43.8724319],[-78.9329901,43.8722759],[-78.9331233,43.8722138],[-78.9331563,43.8720994],[-78.9325143,43.8706502],[-78.9324671,43.8704962],[-78.9324148,43.8702882],[-78.9323819,43.8700371],[-78.9323378,43.8698576],[-78.9320532,43.8692283],[-78.9319808,43.8691788],[-78.9318903,43.8691565],[-78.9315057,43.8692406],[-78.9309954,43.8693109],[-78.9308875,43.8693258]]},"properties":{"name":"Irwin Drive","roadClass":"local","pavementWidthM":8.0,"lengthM":525.08,"origin":"osm"}},{"type":"Feature","id":"R-96","geometry":{"type":"LineString","coordinates":[[-78.9314245,43.870743],[-78.9313925,43.870672],[-78.9313035,43.8704747],[-78.9312628,43.8703366],[-78.9312326,43.8701675],[-78.9311802,43.8699905],[-78.930924,43.8694025],[-78.9309187,43.8693915],[-78.9308875,43.8693258]]},"properties":{"name":"Billings Street","roadClass":"local","pavementWidthM":8.0,"lengthM":163.88,"origin":"osm"}},{"type":"Feature","id":"R-97","geometry":{"type":"LineString","coordinates":[[-78.9314245,43.870743],[-78.9313311,43.8707651],[-78.9312978,43.870773],[-78.9303878,43.8709723]]},"properties":{"name":"Glenmore Drive","roadClass":"local","pavementWidthM":8.0,"lengthM":87.03,"origin":"osm"}},{"type":"Feature","id":"R-98","geometry":{"type":"LineString","coordinates":[[-78.93125,43.8680161],[-78.931008,43.8680602],[-78.9302211,43.8680711],[-78.9298915,43.8680828],[-78.9297324,43.8681004],[-78.9296137,43.8681146],[-78.9290748,43.8681984],[-78.9289412,43.8682161]]},"properties":{"name":"Consumers Drive","roadClass":"arterial","pavementWidthM":14.0,"lengthM":187.38,"origin":"osm"}},{"type":"Feature","id":"R-99","geometry":{"type":"LineString","coordinates":[[-78.93125,43.8680161],[-78.9310128,43.8679689],[-78.9306801,43.867968],[-78.9304185,43.8679677],[-78.9301264,43.8679716],[-78.9298762,43.8679876],[-78.9295941,43.8680208],[-78.9291918,43.868075],[-78.9290492,43.8680994],[-78.9289192,43.868116]]},"properties":{"name":"Consumers Drive","roadClass":"arterial","pavementWidthM":14.0,"lengthM":189.18,"origin":"osm"}},{"type":"Feature","id":"R-100","geometry":{"type":"LineString","coordinates":[[-78.9308875,43.8693258],[-78.9298978,43.8694322],[-78.9297972,43.8694441]]},"properties":{"name":"Irwin Drive","roadClass":"local","pavementWidthM":8.0,"lengthM":88.48,"origin":"osm"}},{"type":"Feature","id":"R-101","geometry":{"type":"LineString","coordinates":[[-78.9303878,43.8709723],[-78.9303613,43.8709085],[-78.9303531,43.8708825],[-78.9300352,43.870183]]},"properties":{"name":"Milne Street","roadClass":"local","pavementWidthM":8.0,"lengthM":92.33,"origin":"osm"}},{"type":"Feature","id":"R-102","geometry":{"type":"LineString","coordinates":[[-78.9300352,43.870183],[-78.9300119,43.8701238],[-78.9299296,43.8699138],[-78.9298225,43.8695494],[-78.9298159,43.8695221],[-78.9297972,43.8694441]]},"properties":{"name":"Milne Street","roadClass":"local","pavementWidthM":8.0,"lengthM":84.5,"origin":"osm"}},{"type":"Feature","id":"R-103","geometry":{"type":"LineString","coordinates":[[-78.9297972,43.8694441],[-78.9293179,43.8694314],[-78.9292374,43.8694275],[-78.9290585,43.8694188]]},"properties":{"name":"Irwin Drive","roadClass":"local","pavementWidthM":8.0,"lengthM":59.35,"origin":"osm"}},{"type":"Feature","id":"R-104","geometry":{"type":"LineString","coordinates":[[-78.92946,43.8730429],[-78.9291168,43.87309],[-78.9289275,43.8731135],[-78.9287368,43.8731424],[-78.9286005,43.8731696]]},"properties":{"name":"Burns Street East","roadClass":"collector","pavementWidthM":10.0,"lengthM":70.43,"origin":"osm"}},{"type":"Feature","id":"R-105","geometry":{"type":"LineString","coordinates":[[-78.92946,43.8730429],[-78.9292551,43.873018],[-78.929098,43.8730103],[-78.928912,43.8730253],[-78.9287001,43.8730621],[-78.928565,43.8730864]]},"properties":{"name":"Burns Street East","roadClass":"collector","pavementWidthM":10.0,"lengthM":72.99,"origin":"osm"}},{"type":"Feature","id":"R-106","geometry":{"type":"LineString","coordinates":[[-78.9290862,43.8744653],[-78.9290771,43.8744457],[-78.9287502,43.8737223]]},"properties":{"name":"Garden Street South","roadClass":"collector","pavementWidthM":10.0,"lengthM":86.99,"origin":"osm"}},{"type":"Feature","id":"R-107","geometry":{"type":"LineString","coordinates":[[-78.929063,43.8693415],[-78.9290585,43.8694188]]},"properties":{"name":"Garden Street South","roadClass":"collector","pavementWidthM":10.0,"lengthM":8.61,"origin":"osm"}},{"type":"Feature","id":"R-108","geometry":{"type":"LineString","coordinates":[[-78.929063,43.8693415],[-78.9291449,43.8692806],[-78.9291409,43.8690664],[-78.9290951,43.8689554],[-78.9290905,43.8689276],[-78.929016,43.8685263],[-78.9289588,43.8682958],[-78.9289412,43.8682161]]},"properties":{"name":"Garden Street South","roadClass":"collector","pavementWidthM":10.0,"lengthM":129.42,"origin":"osm"}},{"type":"Feature","id":"R-109","geometry":{"type":"LineString","coordinates":[[-78.929063,43.8693415],[-78.929017,43.8692818],[-78.9290202,43.8691495],[-78.9290149,43.8690558],[-78.9289786,43.8689759],[-78.9289383,43.8687585],[-78.9288908,43.8685529],[-78.9288325,43.8683143],[-78.9288148,43.8682318]]},"properties":{"name":"Garden Street South","roadClass":"collector","pavementWidthM":10.0,"lengthM":126.01,"origin":"osm"}},{"type":"Feature","id":"R-110","geometry":{"type":"LineString","coordinates":[[-78.9290585,43.8694188],[-78.9289999,43.8696309],[-78.9289345,43.8698033],[-78.9288045,43.8700786],[-78.9282384,43.871212],[-78.928087,43.8716324],[-78.9280653,43.8718568]]},"properties":{"name":"Garden Street South","roadClass":"collector","pavementWidthM":10.0,"lengthM":283.84,"origin":"osm"}},{"type":"Feature","id":"R-111","geometry":{"type":"LineString","coordinates":[[-78.9289412,43.8682161],[-78.9289192,43.868116]]},"properties":{"name":"Garden Street South","roadClass":"collector","pavementWidthM":10.0,"lengthM":11.28,"origin":"osm"}},{"type":"Feature","id":"R-112","geometry":{"type":"LineString","coordinates":[[-78.9289412,43.8682161],[-78.9288148,43.8682318]]},"properties":{"name":"Consumers Drive","roadClass":"arterial","pavementWidthM":14.0,"lengthM":10.3,"origin":"osm"}},{"type":"Feature","id":"R-113","geometry":{"type":"LineString","coordinates":[[-78.9289192,43.868116],[-78.9287927,43.8681322]]},"properties":{"name":"Consumers Drive","roadClass":"arterial","pavementWidthM":14.0,"lengthM":10.31,"origin":"osm"}},{"type":"Feature","id":"R-114","geometry":{"type":"LineString","coordinates":[[-78.9288148,43.8682318],[-78.9287927,43.8681322]]},"properties":{"name":"Garden Street South","roadClass":"collector","pavementWidthM":10.0,"lengthM":11.23,"origin":"osm"}},{"type":"Feature","id":"R-115","geometry":{"type":"LineString","coordinates":[[-78.9288148,43.8682318],[-78.9287,43.8682499],[-78.9286407,43.8682574],[-78.9283376,43.8682982],[-78.9281342,43.8682802]]},"properties":{"name":"Consumers Drive","roadClass":"arterial","pavementWidthM":14.0,"lengthM":55.44,"origin":"osm"}},{"type":"Feature","id":"R-116","geometry":{"type":"LineString","coordinates":[[-78.9287927,43.8681322],[-78.9286708,43.8681478],[-78.9283179,43.8681989],[-78.9281342,43.8682802]]},"properties":{"name":"Consumers Drive","roadClass":"arterial","pavementWidthM":14.0,"lengthM":56.11,"origin":"osm"}},{"type":"Feature","id":"R-117","geometry":{"type":"LineString","coordinates":[[-78.9287502,43.8737223],[-78.9287688,43.8735655],[-78.9286301,43.8732506],[-78.9286005,43.8731696]]},"properties":{"name":"Garden Street South","roadClass":"collector","pavementWidthM":10.0,"lengthM":63.62,"origin":"osm"}},{"type":"Feature","id":"R-118","geometry":{"type":"LineString","coordinates":[[-78.9287502,43.8737223],[-78.9286329,43.8736105],[-78.9284957,43.8732792],[-78.9284545,43.8731987]]},"properties":{"name":"Garden Street South","roadClass":"collector","pavementWidthM":10.0,"lengthM":63.65,"origin":"osm"}},{"type":"Feature","id":"R-119","geometry":{"type":"LineString","coordinates":[[-78.9286005,43.8731696],[-78.928565,43.8730864]]},"properties":{"name":"Garden Street South","roadClass":"collector","pavementWidthM":10.0,"lengthM":9.69,"origin":"osm"}},{"type":"Feature","id":"R-120","geometry":{"type":"LineString","coordinates":[[-78.9286005,43.8731696],[-78.9284545,43.8731987]]},"properties":{"name":"Burns Street East","roadClass":"collector","pavementWidthM":10.0,"lengthM":12.16,"origin":"osm"}},{"type":"Feature","id":"R-121","geometry":{"type":"LineString","coordinates":[[-78.928565,43.8730864],[-78.9284237,43.8731119]]},"properties":{"name":"Burns Street East","roadClass":"collector","pavementWidthM":10.0,"lengthM":11.69,"origin":"osm"}},{"type":"Feature","id":"R-122","geometry":{"type":"LineString","coordinates":[[-78.928565,43.8730864],[-78.9285202,43.872982],[-78.9282547,43.8723723],[-78.9281726,43.8721813],[-78.928145,43.8720763],[-78.9280653,43.8718568]]},"properties":{"name":"Garden Street South","roadClass":"collector","pavementWidthM":10.0,"lengthM":142.72,"origin":"osm"}},{"type":"Feature","id":"R-123","geometry":{"type":"LineString","coordinates":[[-78.9284545,43.8731987],[-78.9284237,43.8731119]]},"properties":{"name":"Garden Street South","roadClass":"collector","pavementWidthM":10.0,"lengthM":9.97,"origin":"osm"}},{"type":"Feature","id":"R-124","geometry":{"type":"LineString","coordinates":[[-78.9284545,43.8731987],[-78.928319,43.8732258],[-78.9279295,43.8733115],[-78.9278055,43.8733226],[-78.9275266,43.8733461]]},"properties":{"name":"Burns Street East","roadClass":"collector","pavementWidthM":10.0,"lengthM":76.52,"origin":"osm"}},{"type":"Feature","id":"R-125","geometry":{"type":"LineString","coordinates":[[-78.9284237,43.8731119],[-78.9283871,43.8730088],[-78.9280632,43.8722483],[-78.9280265,43.872105],[-78.9280233,43.8719921],[-78.9280653,43.8718568]]},"properties":{"name":"Garden Street South","roadClass":"collector","pavementWidthM":10.0,"lengthM":144.64,"origin":"osm"}},{"type":"Feature","id":"R-126","geometry":{"type":"LineString","coordinates":[[-78.9284237,43.8731119],[-78.9282805,43.8731377],[-78.9278964,43.8732251],[-78.9275266,43.8733461]]},"properties":{"name":"Burns Street East","roadClass":"collector","pavementWidthM":10.0,"lengthM":76.76,"origin":"osm"}},{"type":"Feature","id":"R-127","geometry":{"type":"LineString","coordinates":[[-78.9281342,43.8682802],[-78.9270366,43.8684543],[-78.9266487,43.868505],[-78.9252298,43.868713]]},"properties":{"name":"Consumers Drive","roadClass":"arterial","pavementWidthM":14.0,"lengthM":238.03,"origin":"osm"}},{"type":"Feature","id":"R-128","geometry":{"type":"LineString","coordinates":[[-78.9275266,43.8733461],[-78.9273707,43.8733889],[-78.9272284,43.8734234],[-78.927051,43.8734777],[-78.9267404,43.8735518],[-78.925626,43.8737764],[-78.925426,43.8738196]]},"properties":{"name":"Burns Street East","roadClass":"collector","pavementWidthM":10.0,"lengthM":176.77,"origin":"osm"}}]}