{"type":"FeatureCollection","name":"service_points","crs_note":"EPSG:4326","features":[{"type":"Feature","id":"SVC-P-00001","geometry":{"type":"Point","coordinates":[-78.9446987,43.8684656]},"properties":{"premiseId":"P-00001"}},{"type":"Feature","id":"SVC-P-00002","geometry":{"type":"Point","coordinates":[-78.944569,43.8676573]},"properties":{"premiseId":"P-00002"}},{"type":"Feature","id":"SVC-P-00003","geometry":{"type":"Point","coordinates":[-78.9443623,43.8676469]},"properties":{"premiseId":"P-00003"}},{"type":"Feature","id":"SVC-P-00004","geometry":{"type":"Point","coordinates":[-78.9441557,43.8676365]},"properties":{"premiseId":"P-00004"}},{"type":"Feature","id":"SVC-P-00005","geometry":{"type":"Point","coordinates":[-78.9439476,43.8676261]},"properties":{"premiseId":"P-00005"}},{"type":"Feature","id":"SVC-P-00006","geometry":{"type":"Point","coordinates":[-78.9437345,43.8676154]},"properties":{"premiseId":"P-00006"}},{"type":"Feature","id":"SVC-P-00007","geometry":{"type":"Point","coordinates":[-78.9436425,43.8680572]},"properties":{"premiseId":"P-00007"}},{"type":"Feature","id":"SVC-P-00008","geometry":{"type":"Point","coordinates":[-78.9437013,43.868205]},"properties":{"premiseId":"P-00008"}},{"type":"Feature","id":"SVC-P-00009","geometry":{"type":"Point","coordinates":[-78.9437589,43.8683498]},"properties":{"premiseId":"P-00009"}},{"type":"Feature","id":"SVC-P-00010","geometry":{"type":"Point","coordinates":[-78.9438195,43.868502]},"properties":{"premiseId":"P-00010"}},{"type":"Feature","id":"SVC-P-00011","geometry":{"type":"Point","coordinates":[-78.9438739,43.8686386]},"properties":{"premiseId":"P-00011"}},{"type":"Feature","id":"SVC-P-00012","geometry":{"type":"Point","coordinates":[-78.9439339,43.868776]},"properties":{"premiseId":"P-00012"}},{"type":"Feature","id":"SVC-P-00013","geometry":{"type":"Point","coordinates":[-78.9440302,43.8689194]},"properties":{"premiseId":"P-00013"}},{"type":"Feature","id":"SVC-P-00014","geometry":{"type":"Point","coordinates":[-78.9441621,43.8690426]},"properties":{"premiseId":"P-00014"}},{"type":"Feature","id":"SVC-P-00015","geometry":{"type":"Point","coordinates":[-78.9442952,43.8691456]},"properties":{"premiseId":"P-00015"}},{"type":"Feature","id":"SVC-P-00016","geometry":{"type":"Point","coordinates":[-78.9442742,43.8674804]},"properties":{"premiseId":"P-00016"}},{"type":"Feature","id":"SVC-P-00017","geometry":{"type":"Point","coordinates":[-78.944074,43.8674704]},"properties":{"premiseId":"P-00017"}},{"type":"Feature","id":"SVC-P-00018","geometry":{"type":"Point","coordinates":[-78.9438769,43.8674605]},"properties":{"premiseId":"P-00018"}},{"type":"Feature","id":"SVC-P-00019","geometry":{"type":"Point","coordinates":[-78.9433322,43.867864]},"properties":{"premiseId":"P-00019"}},{"type":"Feature","id":"SVC-P-00020","geometry":{"type":"Point","coordinates":[-78.9433865,43.8680005]},"properties":{"premiseId":"P-00020"}},{"type":"Feature","id":"SVC-P-00021","geometry":{"type":"Point","coordinates":[-78.9434405,43.8681361]},"properties":{"premiseId":"P-00021"}},{"type":"Feature","id":"SVC-P-00022","geometry":{"type":"Point","coordinates":[-78.9435,43.8682856]},"properties":{"premiseId":"P-00022"}},{"type":"Feature","id":"SVC-P-00023","geometry":{"type":"Point","coordinates":[-78.9435594,43.8684348]},"properties":{"premiseId":"P-00023"}},{"type":"Feature","id":"SVC-P-00024","geometry":{"type":"Point","coordinates":[-78.9436135,43.8685708]},"properties":{"premiseId":"P-00024"}},{"type":"Feature","id":"SVC-P-00025","geometry":{"type":"Point","coordinates":[-78.9436702,43.8687132]},"properties":{"premiseId":"P-00025"}},{"type":"Feature","id":"SVC-P-00026","geometry":{"type":"Point","coordinates":[-78.9439346,43.8691038]},"properties":{"premiseId":"P-00026"}},{"type":"Feature","id":"SVC-P-00027","geometry":{"type":"Point","coordinates":[-78.9440744,43.869212]},"properties":{"premiseId":"P-00027"}},{"type":"Feature","id":"SVC-P-00028","geometry":{"type":"Point","coordinates":[-78.9442089,43.869316]},"properties":{"premiseId":"P-00028"}},{"type":"Feature","id":"SVC-P-00029","geometry":{"type":"Point","coordinates":[-78.9443486,43.8694262]},"properties":{"premiseId":"P-00029"}},{"type":"Feature","id":"SVC-P-00030","geometry":{"type":"Point","coordinates":[-78.9432638,43.8704925]},"properties":{"premiseId":"P-00030"}},{"type":"Feature","id":"SVC-P-00031","geometry":{"type":"Point","coordinates":[-78.9430228,43.8705469]},"properties":{"premiseId":"P-00031"}},{"type":"Feature","id":"SVC-P-00032","geometry":{"type":"Point","coordinates":[-78.9424819,43.8714063]},"properties":{"premiseId":"P-00032"}},{"type":"Feature","id":"SVC-P-00033","geometry":{"type":"Point","coordinates":[-78.9424206,43.8712616]},"properties":{"premiseId":"P-00033"}},{"type":"Feature","id":"SVC-P-00034","geometry":{"type":"Point","coordinates":[-78.9423606,43.8711202]},"properties":{"premiseId":"P-00034"}},{"type":"Feature","id":"SVC-P-00035","geometry":{"type":"Point","coordinates":[-78.9423008,43.8709791]},"properties":{"premiseId":"P-00035"}},{"type":"Feature","id":"SVC-P-00036","geometry":{"type":"Point","coordinates":[-78.9425138,43.8709282]},"properties":{"premiseId":"P-00036"}},{"type":"Feature","id":"SVC-P-00037","geometry":{"type":"Point","coordinates":[-78.9419428,43.8719192]},"properties":{"premiseId":"P-00037"}},{"type":"Feature","id":"SVC-P-00038","geometry":{"type":"Point","coordinates":[-78.9417392,43.8719658]},"properties":{"premiseId":"P-00038"}},{"type":"Feature","id":"SVC-P-00039","geometry":{"type":"Point","coordinates":[-78.9420053,43.8680842]},"properties":{"premiseId":"P-00039"}},{"type":"Feature","id":"SVC-P-00040","geometry":{"type":"Point","coordinates":[-78.9418107,43.8681292]},"properties":{"premiseId":"P-00040"}},{"type":"Feature","id":"SVC-P-00041","geometry":{"type":"Point","coordinates":[-78.9416241,43.8681724]},"properties":{"premiseId":"P-00041"}},{"type":"Feature","id":"SVC-P-00042","geometry":{"type":"Point","coordinates":[-78.9414315,43.8682169]},"properties":{"premiseId":"P-00042"}},{"type":"Feature","id":"SVC-P-00043","geometry":{"type":"Point","coordinates":[-78.9419583,43.8679253]},"properties":{"premiseId":"P-00043"}},{"type":"Feature","id":"SVC-P-00044","geometry":{"type":"Point","coordinates":[-78.9417581,43.8679716]},"properties":{"premiseId":"P-00044"}},{"type":"Feature","id":"SVC-P-00045","geometry":{"type":"Point","coordinates":[-78.9415535,43.8680189]},"properties":{"premiseId":"P-00045"}},{"type":"Feature","id":"SVC-P-00046","geometry":{"type":"Point","coordinates":[-78.9413576,43.8680642]},"properties":{"premiseId":"P-00046"}},{"type":"Feature","id":"SVC-P-00047","geometry":{"type":"Point","coordinates":[-78.9421723,43.8706825]},"properties":{"premiseId":"P-00047"}},{"type":"Feature","id":"SVC-P-00048","geometry":{"type":"Point","coordinates":[-78.9421067,43.8705348]},"properties":{"premiseId":"P-00048"}},{"type":"Feature","id":"SVC-P-00049","geometry":{"type":"Point","coordinates":[-78.9420419,43.870389]},"properties":{"premiseId":"P-00049"}},{"type":"Feature","id":"SVC-P-00050","geometry":{"type":"Point","coordinates":[-78.9419808,43.8702516]},"properties":{"premiseId":"P-00050"}},{"type":"Feature","id":"SVC-P-00051","geometry":{"type":"Point","coordinates":[-78.9419198,43.8701144]},"properties":{"premiseId":"P-00051"}},{"type":"Feature","id":"SVC-P-00052","geometry":{"type":"Point","coordinates":[-78.9418561,43.869971]},"properties":{"premiseId":"P-00052"}},{"type":"Feature","id":"SVC-P-00053","geometry":{"type":"Point","coordinates":[-78.9417895,43.8698212]},"properties":{"premiseId":"P-00053"}},{"type":"Feature","id":"SVC-P-00054","geometry":{"type":"Point","coordinates":[-78.9417274,43.8696814]},"properties":{"premiseId":"P-00054"}},{"type":"Feature","id":"SVC-P-00055","geometry":{"type":"Point","coordinates":[-78.941665,43.869541]},"properties":{"premiseId":"P-00055"}},{"type":"Feature","id":"SVC-P-00056","geometry":{"type":"Point","coordinates":[-78.9416015,43.8693981]},"properties":{"premiseId":"P-00056"}},{"type":"Feature","id":"SVC-P-00057","geometry":{"type":"Point","coordinates":[-78.9423839,43.8706288]},"properties":{"premiseId":"P-00057"}},{"type":"Feature","id":"SVC-P-00058","geometry":{"type":"Point","coordinates":[-78.942323,43.8704916]},"properties":{"premiseId":"P-00058"}},{"type":"Feature","id":"SVC-P-00059","geometry":{"type":"Point","coordinates":[-78.9422613,43.8703527]},"properties":{"premiseId":"P-00059"}},{"type":"Feature","id":"SVC-P-00060","geometry":{"type":"Point","coordinates":[-78.9421969,43.8702078]},"properties":{"premiseId":"P-00060"}},{"type":"Feature","id":"SVC-P-00061","geometry":{"type":"Point","coordinates":[-78.9421317,43.8700611]},"properties":{"premiseId":"P-00061"}},{"type":"Feature","id":"SVC-P-00062","geometry":{"type":"Point","coordinates":[-78.9420651,43.8699112]},"properties":{"premiseId":"P-00062"}},{"type":"Feature","id":"SVC-P-00063","geometry":{"type":"Point","coordinates":[-78.9420015,43.8697681]},"properties":{"premiseId":"P-00063"}},{"type":"Feature","id":"SVC-P-00064","geometry":{"type":"Point","coordinates":[-78.9419416,43.8696334]},"properties":{"premiseId":"P-00064"}},{"type":"Feature","id":"SVC-P-00065","geometry":{"type":"Point","coordinates":[-78.9418782,43.8694908]},"properties":{"premiseId":"P-00065"}},{"type":"Feature","id":"SVC-P-00066","geometry":{"type":"Point","coordinates":[-78.941814,43.8693462]},"properties":{"premiseId":"P-00066"}},{"type":"Feature","id":"SVC-P-00067","geometry":{"type":"Point","coordinates":[-78.9417826,43.8710301]},"properties":{"premiseId":"P-00067"}},{"type":"Feature","id":"SVC-P-00068","geometry":{"type":"Point","coordinates":[-78.9416949,43.8708428]},"properties":{"premiseId":"P-00068"}},{"type":"Feature","id":"SVC-P-00069","geometry":{"type":"Point","coordinates":[-78.9414711,43.8691025]},"properties":{"premiseId":"P-00069"}},{"type":"Feature","id":"SVC-P-00070","geometry":{"type":"Point","coordinates":[-78.9414055,43.8689523]},"properties":{"premiseId":"P-00070"}},{"type":"Feature","id":"SVC-P-00071","geometry":{"type":"Point","coordinates":[-78.9413385,43.8687987]},"properties":{"premiseId":"P-00071"}},{"type":"Feature","id":"SVC-P-00072","geometry":{"type":"Point","coordinates":[-78.9412759,43.8686554]},"properties":{"premiseId":"P-00072"}},{"type":"Feature","id":"SVC-P-00073","geometry":{"type":"Point","coordinates":[-78.9412146,43.8685149]},"properties":{"premiseId":"P-00073"}},{"type":"Feature","id":"SVC-P-00074","geometry":{"type":"Point","coordinates":[-78.9411506,43.8683685]},"properties":{"premiseId":"P-00074"}},{"type":"Feature","id":"SVC-P-00075","geometry":{"type":"Point","coordinates":[-78.9416854,43.8690547]},"properties":{"premiseId":"P-00075"}},{"type":"Feature","id":"SVC-P-00076","geometry":{"type":"Point","coordinates":[-78.9416206,43.8689063]},"properties":{"premiseId":"P-00076"}},{"type":"Feature","id":"SVC-P-00077","geometry":{"type":"Point","coordinates":[-78.9415544,43.8687546]},"properties":{"premiseId":"P-00077"}},{"type":"Feature","id":"SVC-P-00078","geometry":{"type":"Point","coordinates":[-78.9414877,43.8686019]},"properties":{"premiseId":"P-00078"}},{"type":"Feature","id":"SVC-P-00079","geometry":{"type":"Point","coordinates":[-78.9409509,43.8694606]},"properties":{"premiseId":"P-00079"}},{"type":"Feature","id":"SVC-P-00080","geometry":{"type":"Point","coordinates":[-78.9407148,43.869512]},"properties":{"premiseId":"P-00080"}},{"type":"Feature","id":"SVC-P-00081","geometry":{"type":"Point","coordinates":[-78.9409016,43.8693024]},"properties":{"premiseId":"P-00081"}},{"type":"Feature","id":"SVC-P-00082","geometry":{"type":"Point","coordinates":[-78.9406552,43.8693561]},"properties":{"premiseId":"P-00082"}},{"type":"Feature","id":"SVC-P-00083","geometry":{"type":"Point","coordinates":[-78.9413328,43.8718239]},"properties":{"premiseId":"P-00083"}},{"type":"Feature","id":"SVC-P-00084","geometry":{"type":"Point","coordinates":[-78.9412706,43.8716783]},"properties":{"premiseId":"P-00084"}},{"type":"Feature","id":"SVC-P-00085","geometry":{"type":"Point","coordinates":[-78.9412105,43.8715377]},"properties":{"premiseId":"P-00085"}},{"type":"Feature","id":"SVC-P-00086","geometry":{"type":"Point","coordinates":[-78.9411457,43.871386]},"properties":{"premiseId":"P-00086"}},{"type":"Feature","id":"SVC-P-00087","geometry":{"type":"Point","coordinates":[-78.941083,43.8712393]},"properties":{"premiseId":"P-00087"}},{"type":"Feature","id":"SVC-P-00088","geometry":{"type":"Point","coordinates":[-78.9414869,43.8716353]},"properties":{"premiseId":"P-00088"}},{"type":"Feature","id":"SVC-P-00089","geometry":{"type":"Point","coordinates":[-78.9414229,43.8714856]},"properties":{"premiseId":"P-00089"}},{"type":"Feature","id":"SVC-P-00090","geometry":{"type":"Point","coordinates":[-78.9413584,43.8713345]},"properties":{"premiseId":"P-00090"}},{"type":"Feature","id":"SVC-P-00091","geometry":{"type":"Point","coordinates":[-78.9412972,43.8711913]},"properties":{"premiseId":"P-00091"}},{"type":"Feature","id":"SVC-P-00092","geometry":{"type":"Point","coordinates":[-78.9409234,43.872148]},"properties":{"premiseId":"P-00092"}},{"type":"Feature","id":"SVC-P-00093","geometry":{"type":"Point","coordinates":[-78.9407134,43.8721945]},"properties":{"premiseId":"P-00093"}},{"type":"Feature","id":"SVC-P-00094","geometry":{"type":"Point","coordinates":[-78.9405047,43.8722406]},"properties":{"premiseId":"P-00094"}},{"type":"Feature","id":"SVC-P-00095","geometry":{"type":"Point","coordinates":[-78.9410154,43.8680678]},"properties":{"premiseId":"P-00095"}},{"type":"Feature","id":"SVC-P-00096","geometry":{"type":"Point","coordinates":[-78.94095,43.8679168]},"properties":{"premiseId":"P-00096"}},{"type":"Feature","id":"SVC-P-00097","geometry":{"type":"Point","coordinates":[-78.9408827,43.8677614]},"properties":{"premiseId":"P-00097"}},{"type":"Feature","id":"SVC-P-00098","geometry":{"type":"Point","coordinates":[-78.9408191,43.8676147]},"properties":{"premiseId":"P-00098"}},{"type":"Feature","id":"SVC-P-00099","geometry":{"type":"Point","coordinates":[-78.9407578,43.8674732]},"properties":{"premiseId":"P-00099"}},{"type":"Feature","id":"SVC-P-00100","geometry":{"type":"Point","coordinates":[-78.9406949,43.8673282]},"properties":{"premiseId":"P-00100"}},{"type":"Feature","id":"SVC-P-00101","geometry":{"type":"Point","coordinates":[-78.9406312,43.8671811]},"properties":{"premiseId":"P-00101"}},{"type":"Feature","id":"SVC-P-00102","geometry":{"type":"Point","coordinates":[-78.9411015,43.8677242]},"properties":{"premiseId":"P-00102"}},{"type":"Feature","id":"SVC-P-00103","geometry":{"type":"Point","coordinates":[-78.9410408,43.8675839]},"properties":{"premiseId":"P-00103"}},{"type":"Feature","id":"SVC-P-00104","geometry":{"type":"Point","coordinates":[-78.9409748,43.8674317]},"properties":{"premiseId":"P-00104"}},{"type":"Feature","id":"SVC-P-00105","geometry":{"type":"Point","coordinates":[-78.9409082,43.8672779]},"properties":{"premiseId":"P-00105"}},{"type":"Feature","id":"SVC-P-00106","geometry":{"type":"Point","coordinates":[-78.9408458,43.867134]},"properties":{"premiseId":"P-00106"}},{"type":"Feature","id":"SVC-P-00107","geometry":{"type":"Point","coordinates":[-78.9405087,43.8684318]},"properties":{"premiseId":"P-00107"}},{"type":"Feature","id":"SVC-P-00108","geometry":{"type":"Point","coordinates":[-78.9402613,43.8684895]},"properties":{"premiseId":"P-00108"}},{"type":"Feature","id":"SVC-P-00109","geometry":{"type":"Point","coordinates":[-78.9404331,43.8682794]},"properties":{"premiseId":"P-00109"}},{"type":"Feature","id":"SVC-P-00110","geometry":{"type":"Point","coordinates":[-78.9401978,43.8683344]},"properties":{"premiseId":"P-00110"}},{"type":"Feature","id":"SVC-P-00111","geometry":{"type":"Point","coordinates":[-78.9409575,43.8709411]},"properties":{"premiseId":"P-00111"}},{"type":"Feature","id":"SVC-P-00112","geometry":{"type":"Point","coordinates":[-78.94089,43.8707798]},"properties":{"premiseId":"P-00112"}},{"type":"Feature","id":"SVC-P-00113","geometry":{"type":"Point","coordinates":[-78.9408205,43.8706134]},"properties":{"premiseId":"P-00113"}},{"type":"Feature","id":"SVC-P-00114","geometry":{"type":"Point","coordinates":[-78.9407521,43.87045]},"properties":{"premiseId":"P-00114"}},{"type":"Feature","id":"SVC-P-00115","geometry":{"type":"Point","coordinates":[-78.9406859,43.8702917]},"properties":{"premiseId":"P-00115"}},{"type":"Feature","id":"SVC-P-00116","geometry":{"type":"Point","coordinates":[-78.9406208,43.870136]},"properties":{"premiseId":"P-00116"}},{"type":"Feature","id":"SVC-P-00117","geometry":{"type":"Point","coordinates":[-78.9405528,43.8699734]},"properties":{"premiseId":"P-00117"}},{"type":"Feature","id":"SVC-P-00118","geometry":{"type":"Point","coordinates":[-78.9411691,43.8708869]},"properties":{"premiseId":"P-00118"}},{"type":"Feature","id":"SVC-P-00119","geometry":{"type":"Point","coordinates":[-78.9411031,43.8707291]},"properties":{"premiseId":"P-00119"}},{"type":"Feature","id":"SVC-P-00120","geometry":{"type":"Point","coordinates":[-78.9410352,43.8705667]},"properties":{"premiseId":"P-00120"}},{"type":"Feature","id":"SVC-P-00121","geometry":{"type":"Point","coordinates":[-78.9409676,43.8704051]},"properties":{"premiseId":"P-00121"}},{"type":"Feature","id":"SVC-P-00122","geometry":{"type":"Point","coordinates":[-78.9409035,43.8702518]},"properties":{"premiseId":"P-00122"}},{"type":"Feature","id":"SVC-P-00123","geometry":{"type":"Point","coordinates":[-78.9408356,43.8700892]},"properties":{"premiseId":"P-00123"}},{"type":"Feature","id":"SVC-P-00124","geometry":{"type":"Point","coordinates":[-78.9407671,43.8699254]},"properties":{"premiseId":"P-00124"}},{"type":"Feature","id":"SVC-P-00125","geometry":{"type":"Point","coordinates":[-78.940549,43.8713048]},"properties":{"premiseId":"P-00125"}},{"type":"Feature","id":"SVC-P-00126","geometry":{"type":"Point","coordinates":[-78.9404672,43.8711162]},"properties":{"premiseId":"P-00126"}},{"type":"Feature","id":"SVC-P-00127","geometry":{"type":"Point","coordinates":[-78.9404184,43.8696607]},"properties":{"premiseId":"P-00127"}},{"type":"Feature","id":"SVC-P-00128","geometry":{"type":"Point","coordinates":[-78.9400186,43.8700021]},"properties":{"premiseId":"P-00128"}},{"type":"Feature","id":"SVC-P-00129","geometry":{"type":"Point","coordinates":[-78.9398124,43.8700473]},"properties":{"premiseId":"P-00129"}},{"type":"Feature","id":"SVC-P-00130","geometry":{"type":"Point","coordinates":[-78.9396027,43.8700934]},"properties":{"premiseId":"P-00130"}},{"type":"Feature","id":"SVC-P-00131","geometry":{"type":"Point","coordinates":[-78.9399323,43.869852]},"properties":{"premiseId":"P-00131"}},{"type":"Feature","id":"SVC-P-00132","geometry":{"type":"Point","coordinates":[-78.9397181,43.869899]},"properties":{"premiseId":"P-00132"}},{"type":"Feature","id":"SVC-P-00133","geometry":{"type":"Point","coordinates":[-78.9395202,43.8699424]},"properties":{"premiseId":"P-00133"}},{"type":"Feature","id":"SVC-P-00134","geometry":{"type":"Point","coordinates":[-78.9402858,43.8693613]},"properties":{"premiseId":"P-00134"}},{"type":"Feature","id":"SVC-P-00135","geometry":{"type":"Point","coordinates":[-78.9402198,43.8692121]},"properties":{"premiseId":"P-00135"}},{"type":"Feature","id":"SVC-P-00136","geometry":{"type":"Point","coordinates":[-78.9401561,43.8690679]},"properties":{"premiseId":"P-00136"}},{"type":"Feature","id":"SVC-P-00137","geometry":{"type":"Point","coordinates":[-78.9400942,43.868928]},"properties":{"premiseId":"P-00137"}},{"type":"Feature","id":"SVC-P-00138","geometry":{"type":"Point","coordinates":[-78.9400298,43.8687823]},"properties":{"premiseId":"P-00138"}},{"type":"Feature","id":"SVC-P-00139","geometry":{"type":"Point","coordinates":[-78.9399662,43.8686386]},"properties":{"premiseId":"P-00139"}},{"type":"Feature","id":"SVC-P-00140","geometry":{"type":"Point","coordinates":[-78.9403701,43.8690196]},"properties":{"premiseId":"P-00140"}},{"type":"Feature","id":"SVC-P-00141","geometry":{"type":"Point","coordinates":[-78.9403081,43.8688794]},"properties":{"premiseId":"P-00141"}},{"type":"Feature","id":"SVC-P-00142","geometry":{"type":"Point","coordinates":[-78.9401642,43.8722356]},"properties":{"premiseId":"P-00142"}},{"type":"Feature","id":"SVC-P-00143","geometry":{"type":"Point","coordinates":[-78.9401023,43.872093]},"properties":{"premiseId":"P-00143"}},{"type":"Feature","id":"SVC-P-00144","geometry":{"type":"Point","coordinates":[-78.9400382,43.871947]},"properties":{"premiseId":"P-00144"}},{"type":"Feature","id":"SVC-P-00145","geometry":{"type":"Point","coordinates":[-78.9399754,43.8718043]},"properties":{"premiseId":"P-00145"}},{"type":"Feature","id":"SVC-P-00146","geometry":{"type":"Point","coordinates":[-78.9399153,43.8716674]},"properties":{"premiseId":"P-00146"}},{"type":"Feature","id":"SVC-P-00147","geometry":{"type":"Point","coordinates":[-78.9398519,43.8715238]},"properties":{"premiseId":"P-00147"}},{"type":"Feature","id":"SVC-P-00148","geometry":{"type":"Point","coordinates":[-78.9402512,43.8718964]},"properties":{"premiseId":"P-00148"}},{"type":"Feature","id":"SVC-P-00149","geometry":{"type":"Point","coordinates":[-78.9401893,43.8717556]},"properties":{"premiseId":"P-00149"}},{"type":"Feature","id":"SVC-P-00150","geometry":{"type":"Point","coordinates":[-78.9401271,43.871614]},"properties":{"premiseId":"P-00150"}},{"type":"Feature","id":"SVC-P-00151","geometry":{"type":"Point","coordinates":[-78.9400654,43.8714745]},"properties":{"premiseId":"P-00151"}},{"type":"Feature","id":"SVC-P-00152","geometry":{"type":"Point","coordinates":[-78.9393033,43.8687153]},"properties":{"premiseId":"P-00152"}},{"type":"Feature","id":"SVC-P-00153","geometry":{"type":"Point","coordinates":[-78.9390524,43.868771]},"properties":{"premiseId":"P-00153"}},{"type":"Feature","id":"SVC-P-00154","geometry":{"type":"Point","coordinates":[-78.9397471,43.8684411]},"properties":{"premiseId":"P-00154"}},{"type":"Feature","id":"SVC-P-00155","geometry":{"type":"Point","coordinates":[-78.9395001,43.8685003]},"properties":{"premiseId":"P-00155"}},{"type":"Feature","id":"SVC-P-00156","geometry":{"type":"Point","coordinates":[-78.9392415,43.8685599]},"properties":{"premiseId":"P-00156"}},{"type":"Feature","id":"SVC-P-00157","geometry":{"type":"Point","coordinates":[-78.938987,43.8686163]},"properties":{"premiseId":"P-00157"}},{"type":"Feature","id":"SVC-P-00158","geometry":{"type":"Point","coordinates":[-78.9396951,43.868014]},"properties":{"premiseId":"P-00158"}},{"type":"Feature","id":"SVC-P-00159","geometry":{"type":"Point","coordinates":[-78.9396222,43.8678459]},"properties":{"premiseId":"P-00159"}},{"type":"Feature","id":"SVC-P-00160","geometry":{"type":"Point","coordinates":[-78.9395552,43.8676915]},"properties":{"premiseId":"P-00160"}},{"type":"Feature","id":"SVC-P-00161","geometry":{"type":"Point","coordinates":[-78.9394872,43.8675347]},"properties":{"premiseId":"P-00161"}},{"type":"Feature","id":"SVC-P-00162","geometry":{"type":"Point","coordinates":[-78.9394171,43.8673731]},"properties":{"premiseId":"P-00162"}},{"type":"Feature","id":"SVC-P-00163","geometry":{"type":"Point","coordinates":[-78.9393507,43.8672199]},"properties":{"premiseId":"P-00163"}},{"type":"Feature","id":"SVC-P-00164","geometry":{"type":"Point","coordinates":[-78.9392845,43.8670673]},"properties":{"premiseId":"P-00164"}},{"type":"Feature","id":"SVC-P-00165","geometry":{"type":"Point","coordinates":[-78.93889,43.8669766]},"properties":{"premiseId":"P-00165"}},{"type":"Feature","id":"SVC-P-00166","geometry":{"type":"Point","coordinates":[-78.9386661,43.8669915]},"properties":{"premiseId":"P-00166"}},{"type":"Feature","id":"SVC-P-00167","geometry":{"type":"Point","coordinates":[-78.9384492,43.8670437]},"properties":{"premiseId":"P-00167"}},{"type":"Feature","id":"SVC-P-00168","geometry":{"type":"Point","coordinates":[-78.9383022,43.8672882]},"properties":{"premiseId":"P-00168"}},{"type":"Feature","id":"SVC-P-00169","geometry":{"type":"Point","coordinates":[-78.9383694,43.8674502]},"properties":{"premiseId":"P-00169"}},{"type":"Feature","id":"SVC-P-00170","geometry":{"type":"Point","coordinates":[-78.9384369,43.867613]},"properties":{"premiseId":"P-00170"}},{"type":"Feature","id":"SVC-P-00171","geometry":{"type":"Point","coordinates":[-78.9385024,43.8677707]},"properties":{"premiseId":"P-00171"}},{"type":"Feature","id":"SVC-P-00172","geometry":{"type":"Point","coordinates":[-78.9385702,43.8679342]},"properties":{"premiseId":"P-00172"}},{"type":"Feature","id":"SVC-P-00173","geometry":{"type":"Point","coordinates":[-78.938634,43.868088]},"properties":{"premiseId":"P-00173"}},{"type":"Feature","id":"SVC-P-00174","geometry":{"type":"Point","coordinates":[-78.9387001,43.8682474]},"properties":{"premiseId":"P-00174"}},{"type":"Feature","id":"SVC-P-00175","geometry":{"type":"Point","coordinates":[-78.9399061,43.8679587]},"properties":{"premiseId":"P-00175"}},{"type":"Feature","id":"SVC-P-00176","geometry":{"type":"Point","coordinates":[-78.9398374,43.8678002]},"properties":{"premiseId":"P-00176"}},{"type":"Feature","id":"SVC-P-00177","geometry":{"type":"Point","coordinates":[-78.9397699,43.8676447]},"properties":{"premiseId":"P-00177"}},{"type":"Feature","id":"SVC-P-00178","geometry":{"type":"Point","coordinates":[-78.9396995,43.8674823]},"properties":{"premiseId":"P-00178"}},{"type":"Feature","id":"SVC-P-00179","geometry":{"type":"Point","coordinates":[-78.9396317,43.8673261]},"properties":{"premiseId":"P-00179"}},{"type":"Feature","id":"SVC-P-00180","geometry":{"type":"Point","coordinates":[-78.9395654,43.8671731]},"properties":{"premiseId":"P-00180"}},{"type":"Feature","id":"SVC-P-00181","geometry":{"type":"Point","coordinates":[-78.9394951,43.8670112]},"properties":{"premiseId":"P-00181"}},{"type":"Feature","id":"SVC-P-00182","geometry":{"type":"Point","coordinates":[-78.9389588,43.8668126]},"properties":{"premiseId":"P-00182"}},{"type":"Feature","id":"SVC-P-00183","geometry":{"type":"Point","coordinates":[-78.938084,43.8673266]},"properties":{"premiseId":"P-00183"}},{"type":"Feature","id":"SVC-P-00184","geometry":{"type":"Point","coordinates":[-78.9381525,43.8674916]},"properties":{"premiseId":"P-00184"}},{"type":"Feature","id":"SVC-P-00185","geometry":{"type":"Point","coordinates":[-78.9382219,43.8676589]},"properties":{"premiseId":"P-00185"}},{"type":"Feature","id":"SVC-P-00186","geometry":{"type":"Point","coordinates":[-78.9382842,43.8678092]},"properties":{"premiseId":"P-00186"}},{"type":"Feature","id":"SVC-P-00187","geometry":{"type":"Point","coordinates":[-78.9383501,43.8679679]},"properties":{"premiseId":"P-00187"}},{"type":"Feature","id":"SVC-P-00188","geometry":{"type":"Point","coordinates":[-78.938419,43.8681341]},"properties":{"premiseId":"P-00188"}},{"type":"Feature","id":"SVC-P-00189","geometry":{"type":"Point","coordinates":[-78.9384814,43.8682845]},"properties":{"premiseId":"P-00189"}},{"type":"Feature","id":"SVC-P-00190","geometry":{"type":"Point","coordinates":[-78.9385498,43.8684493]},"properties":{"premiseId":"P-00190"}},{"type":"Feature","id":"SVC-P-00191","geometry":{"type":"Point","coordinates":[-78.9386184,43.8686148]},"properties":{"premiseId":"P-00191"}},{"type":"Feature","id":"SVC-P-00192","geometry":{"type":"Point","coordinates":[-78.9397201,43.8712119]},"properties":{"premiseId":"P-00192"}},{"type":"Feature","id":"SVC-P-00193","geometry":{"type":"Point","coordinates":[-78.9396491,43.8710445]},"properties":{"premiseId":"P-00193"}},{"type":"Feature","id":"SVC-P-00194","geometry":{"type":"Point","coordinates":[-78.9395837,43.8708896]},"properties":{"premiseId":"P-00194"}},{"type":"Feature","id":"SVC-P-00195","geometry":{"type":"Point","coordinates":[-78.9395182,43.8707347]},"properties":{"premiseId":"P-00195"}},{"type":"Feature","id":"SVC-P-00196","geometry":{"type":"Point","coordinates":[-78.9394472,43.8705666]},"properties":{"premiseId":"P-00196"}},{"type":"Feature","id":"SVC-P-00197","geometry":{"type":"Point","coordinates":[-78.9393793,43.8704061]},"properties":{"premiseId":"P-00197"}},{"type":"Feature","id":"SVC-P-00198","geometry":{"type":"Point","coordinates":[-78.9393124,43.8702476]},"properties":{"premiseId":"P-00198"}},{"type":"Feature","id":"SVC-P-00199","geometry":{"type":"Point","coordinates":[-78.9399349,43.8711653]},"properties":{"premiseId":"P-00199"}},{"type":"Feature","id":"SVC-P-00200","geometry":{"type":"Point","coordinates":[-78.9398666,43.8710041]},"properties":{"premiseId":"P-00200"}},{"type":"Feature","id":"SVC-P-00201","geometry":{"type":"Point","coordinates":[-78.9397996,43.8708457]},"properties":{"premiseId":"P-00201"}},{"type":"Feature","id":"SVC-P-00202","geometry":{"type":"Point","coordinates":[-78.939732,43.8706857]},"properties":{"premiseId":"P-00202"}},{"type":"Feature","id":"SVC-P-00203","geometry":{"type":"Point","coordinates":[-78.9396625,43.8705213]},"properties":{"premiseId":"P-00203"}},{"type":"Feature","id":"SVC-P-00204","geometry":{"type":"Point","coordinates":[-78.939329,43.8715782]},"properties":{"premiseId":"P-00204"}},{"type":"Feature","id":"SVC-P-00205","geometry":{"type":"Point","coordinates":[-78.9391119,43.8716274]},"properties":{"premiseId":"P-00205"}},{"type":"Feature","id":"SVC-P-00206","geometry":{"type":"Point","coordinates":[-78.9392217,43.8713952]},"properties":{"premiseId":"P-00206"}},{"type":"Feature","id":"SVC-P-00207","geometry":{"type":"Point","coordinates":[-78.9390116,43.8714429]},"properties":{"premiseId":"P-00207"}},{"type":"Feature","id":"SVC-P-00208","geometry":{"type":"Point","coordinates":[-78.9391792,43.8699335]},"properties":{"premiseId":"P-00208"}},{"type":"Feature","id":"SVC-P-00209","geometry":{"type":"Point","coordinates":[-78.9391095,43.8697699]},"properties":{"premiseId":"P-00209"}},{"type":"Feature","id":"SVC-P-00210","geometry":{"type":"Point","coordinates":[-78.9390385,43.8696032]},"properties":{"premiseId":"P-00210"}},{"type":"Feature","id":"SVC-P-00211","geometry":{"type":"Point","coordinates":[-78.9389672,43.8694359]},"properties":{"premiseId":"P-00211"}},{"type":"Feature","id":"SVC-P-00212","geometry":{"type":"Point","coordinates":[-78.9388945,43.8692652]},"properties":{"premiseId":"P-00212"}},{"type":"Feature","id":"SVC-P-00213","geometry":{"type":"Point","coordinates":[-78.9388256,43.8691035]},"properties":{"premiseId":"P-00213"}},{"type":"Feature","id":"SVC-P-00214","geometry":{"type":"Point","coordinates":[-78.9387544,43.8689363]},"properties":{"premiseId":"P-00214"}},{"type":"Feature","id":"SVC-P-00215","geometry":{"type":"Point","coordinates":[-78.9392474,43.8695428]},"properties":{"premiseId":"P-00215"}},{"type":"Feature","id":"SVC-P-00216","geometry":{"type":"Point","coordinates":[-78.9391754,43.8693737]},"properties":{"premiseId":"P-00216"}},{"type":"Feature","id":"SVC-P-00217","geometry":{"type":"Point","coordinates":[-78.9391075,43.8692144]},"properties":{"premiseId":"P-00217"}},{"type":"Feature","id":"SVC-P-00218","geometry":{"type":"Point","coordinates":[-78.9387506,43.8702808]},"properties":{"premiseId":"P-00218"}},{"type":"Feature","id":"SVC-P-00219","geometry":{"type":"Point","coordinates":[-78.9385411,43.8703268]},"properties":{"premiseId":"P-00219"}},{"type":"Feature","id":"SVC-P-00220","geometry":{"type":"Point","coordinates":[-78.9386863,43.8701259]},"properties":{"premiseId":"P-00220"}},{"type":"Feature","id":"SVC-P-00221","geometry":{"type":"Point","coordinates":[-78.9384649,43.8701745]},"properties":{"premiseId":"P-00221"}},{"type":"Feature","id":"SVC-P-00222","geometry":{"type":"Point","coordinates":[-78.9380587,43.868994]},"properties":{"premiseId":"P-00222"}},{"type":"Feature","id":"SVC-P-00223","geometry":{"type":"Point","coordinates":[-78.9377885,43.8690551]},"properties":{"premiseId":"P-00223"}},{"type":"Feature","id":"SVC-P-00224","geometry":{"type":"Point","coordinates":[-78.9379964,43.8688387]},"properties":{"premiseId":"P-00224"}},{"type":"Feature","id":"SVC-P-00225","geometry":{"type":"Point","coordinates":[-78.9382752,43.8718267]},"properties":{"premiseId":"P-00225"}},{"type":"Feature","id":"SVC-P-00226","geometry":{"type":"Point","coordinates":[-78.9380712,43.8718717]},"properties":{"premiseId":"P-00226"}},{"type":"Feature","id":"SVC-P-00227","geometry":{"type":"Point","coordinates":[-78.9382013,43.8716363]},"properties":{"premiseId":"P-00227"}},{"type":"Feature","id":"SVC-P-00228","geometry":{"type":"Point","coordinates":[-78.93801,43.8716785]},"properties":{"premiseId":"P-00228"}},{"type":"Feature","id":"SVC-P-00229","geometry":{"type":"Point","coordinates":[-78.9376429,43.8726707]},"properties":{"premiseId":"P-00229"}},{"type":"Feature","id":"SVC-P-00230","geometry":{"type":"Point","coordinates":[-78.9375829,43.8725301]},"properties":{"premiseId":"P-00230"}},{"type":"Feature","id":"SVC-P-00231","geometry":{"type":"Point","coordinates":[-78.9375201,43.8723827]},"properties":{"premiseId":"P-00231"}},{"type":"Feature","id":"SVC-P-00232","geometry":{"type":"Point","coordinates":[-78.9374563,43.8722331]},"properties":{"premiseId":"P-00232"}},{"type":"Feature","id":"SVC-P-00233","geometry":{"type":"Point","coordinates":[-78.9373955,43.8720879]},"properties":{"premiseId":"P-00233"}},{"type":"Feature","id":"SVC-P-00234","geometry":{"type":"Point","coordinates":[-78.9379825,43.872913]},"properties":{"premiseId":"P-00234"}},{"type":"Feature","id":"SVC-P-00235","geometry":{"type":"Point","coordinates":[-78.9379174,43.8727641]},"properties":{"premiseId":"P-00235"}},{"type":"Feature","id":"SVC-P-00236","geometry":{"type":"Point","coordinates":[-78.9378545,43.8726166]},"properties":{"premiseId":"P-00236"}},{"type":"Feature","id":"SVC-P-00237","geometry":{"type":"Point","coordinates":[-78.9377938,43.8724744]},"properties":{"premiseId":"P-00237"}},{"type":"Feature","id":"SVC-P-00238","geometry":{"type":"Point","coordinates":[-78.9377301,43.8723248]},"properties":{"premiseId":"P-00238"}},{"type":"Feature","id":"SVC-P-00239","geometry":{"type":"Point","coordinates":[-78.9376665,43.8721758]},"properties":{"premiseId":"P-00239"}},{"type":"Feature","id":"SVC-P-00240","geometry":{"type":"Point","coordinates":[-78.9376051,43.8720289]},"properties":{"premiseId":"P-00240"}},{"type":"Feature","id":"SVC-P-00241","geometry":{"type":"Point","coordinates":[-78.9378539,43.8708189]},"properties":{"premiseId":"P-00241"}},{"type":"Feature","id":"SVC-P-00242","geometry":{"type":"Point","coordinates":[-78.9376427,43.8708663]},"properties":{"premiseId":"P-00242"}},{"type":"Feature","id":"SVC-P-00243","geometry":{"type":"Point","coordinates":[-78.9374314,43.8709137]},"properties":{"premiseId":"P-00243"}},{"type":"Feature","id":"SVC-P-00244","geometry":{"type":"Point","coordinates":[-78.9372333,43.870958]},"properties":{"premiseId":"P-00244"}},{"type":"Feature","id":"SVC-P-00245","geometry":{"type":"Point","coordinates":[-78.9377695,43.8706685]},"properties":{"premiseId":"P-00245"}},{"type":"Feature","id":"SVC-P-00246","geometry":{"type":"Point","coordinates":[-78.9375723,43.8707127]},"properties":{"premiseId":"P-00246"}},{"type":"Feature","id":"SVC-P-00247","geometry":{"type":"Point","coordinates":[-78.937369,43.8707583]},"properties":{"premiseId":"P-00247"}},{"type":"Feature","id":"SVC-P-00248","geometry":{"type":"Point","coordinates":[-78.9371693,43.870803]},"properties":{"premiseId":"P-00248"}},{"type":"Feature","id":"SVC-P-00249","geometry":{"type":"Point","coordinates":[-78.9373894,43.8699762]},"properties":{"premiseId":"P-00249"}},{"type":"Feature","id":"SVC-P-00250","geometry":{"type":"Point","coordinates":[-78.9371351,43.8700315]},"properties":{"premiseId":"P-00250"}},{"type":"Feature","id":"SVC-P-00251","geometry":{"type":"Point","coordinates":[-78.9368851,43.8700868]},"properties":{"premiseId":"P-00251"}},{"type":"Feature","id":"SVC-P-00252","geometry":{"type":"Point","coordinates":[-78.9375671,43.8697639]},"properties":{"premiseId":"P-00252"}},{"type":"Feature","id":"SVC-P-00253","geometry":{"type":"Point","coordinates":[-78.9373089,43.8698247]},"properties":{"premiseId":"P-00253"}},{"type":"Feature","id":"SVC-P-00254","geometry":{"type":"Point","coordinates":[-78.937053,43.8698805]},"properties":{"premiseId":"P-00254"}},{"type":"Feature","id":"SVC-P-00255","geometry":{"type":"Point","coordinates":[-78.9368084,43.8699347]},"properties":{"premiseId":"P-00255"}},{"type":"Feature","id":"SVC-P-00256","geometry":{"type":"Point","coordinates":[-78.9372542,43.8717758]},"properties":{"premiseId":"P-00256"}},{"type":"Feature","id":"SVC-P-00257","geometry":{"type":"Point","coordinates":[-78.9371833,43.8716139]},"properties":{"premiseId":"P-00257"}},{"type":"Feature","id":"SVC-P-00258","geometry":{"type":"Point","coordinates":[-78.9371088,43.8714437]},"properties":{"premiseId":"P-00258"}},{"type":"Feature","id":"SVC-P-00259","geometry":{"type":"Point","coordinates":[-78.9370351,43.8712755]},"properties":{"premiseId":"P-00259"}},{"type":"Feature","id":"SVC-P-00260","geometry":{"type":"Point","coordinates":[-78.9369627,43.8711103]},"properties":{"premiseId":"P-00260"}},{"type":"Feature","id":"SVC-P-00261","geometry":{"type":"Point","coordinates":[-78.9374682,43.8717272]},"properties":{"premiseId":"P-00261"}},{"type":"Feature","id":"SVC-P-00262","geometry":{"type":"Point","coordinates":[-78.9373951,43.8715604]},"properties":{"premiseId":"P-00262"}},{"type":"Feature","id":"SVC-P-00263","geometry":{"type":"Point","coordinates":[-78.9373218,43.871393]},"properties":{"premiseId":"P-00263"}},{"type":"Feature","id":"SVC-P-00264","geometry":{"type":"Point","coordinates":[-78.9368592,43.8721394]},"properties":{"premiseId":"P-00264"}},{"type":"Feature","id":"SVC-P-00265","geometry":{"type":"Point","coordinates":[-78.9367627,43.871954]},"properties":{"premiseId":"P-00265"}},{"type":"Feature","id":"SVC-P-00266","geometry":{"type":"Point","coordinates":[-78.9367067,43.868226]},"properties":{"premiseId":"P-00266"}},{"type":"Feature","id":"SVC-P-00267","geometry":{"type":"Point","coordinates":[-78.936498,43.8682728]},"properties":{"premiseId":"P-00267"}},{"type":"Feature","id":"SVC-P-00268","geometry":{"type":"Point","coordinates":[-78.9363015,43.8683168]},"properties":{"premiseId":"P-00268"}},{"type":"Feature","id":"SVC-P-00269","geometry":{"type":"Point","coordinates":[-78.9361033,43.8683612]},"properties":{"premiseId":"P-00269"}},{"type":"Feature","id":"SVC-P-00270","geometry":{"type":"Point","coordinates":[-78.9366429,43.868071]},"properties":{"premiseId":"P-00270"}},{"type":"Feature","id":"SVC-P-00271","geometry":{"type":"Point","coordinates":[-78.9364517,43.8681138]},"properties":{"premiseId":"P-00271"}},{"type":"Feature","id":"SVC-P-00272","geometry":{"type":"Point","coordinates":[-78.9362451,43.8681601]},"properties":{"premiseId":"P-00272"}},{"type":"Feature","id":"SVC-P-00273","geometry":{"type":"Point","coordinates":[-78.9360319,43.8682079]},"properties":{"premiseId":"P-00273"}},{"type":"Feature","id":"SVC-P-00274","geometry":{"type":"Point","coordinates":[-78.9364804,43.8730751]},"properties":{"premiseId":"P-00274"}},{"type":"Feature","id":"SVC-P-00275","geometry":{"type":"Point","coordinates":[-78.9364207,43.8729377]},"properties":{"premiseId":"P-00275"}},{"type":"Feature","id":"SVC-P-00276","geometry":{"type":"Point","coordinates":[-78.93636,43.8727977]},"properties":{"premiseId":"P-00276"}},{"type":"Feature","id":"SVC-P-00277","geometry":{"type":"Point","coordinates":[-78.9362945,43.8726467]},"properties":{"premiseId":"P-00277"}},{"type":"Feature","id":"SVC-P-00278","geometry":{"type":"Point","coordinates":[-78.936232,43.8725029]},"properties":{"premiseId":"P-00278"}},{"type":"Feature","id":"SVC-P-00279","geometry":{"type":"Point","coordinates":[-78.9361692,43.8723581]},"properties":{"premiseId":"P-00279"}},{"type":"Feature","id":"SVC-P-00280","geometry":{"type":"Point","coordinates":[-78.9366337,43.8728868]},"properties":{"premiseId":"P-00280"}},{"type":"Feature","id":"SVC-P-00281","geometry":{"type":"Point","coordinates":[-78.9365727,43.8727464]},"properties":{"premiseId":"P-00281"}},{"type":"Feature","id":"SVC-P-00282","geometry":{"type":"Point","coordinates":[-78.936507,43.872595]},"properties":{"premiseId":"P-00282"}},{"type":"Feature","id":"SVC-P-00283","geometry":{"type":"Point","coordinates":[-78.936444,43.8724497]},"properties":{"premiseId":"P-00283"}},{"type":"Feature","id":"SVC-P-00284","geometry":{"type":"Point","coordinates":[-78.9363822,43.8723073]},"properties":{"premiseId":"P-00284"}},{"type":"Feature","id":"SVC-P-00285","geometry":{"type":"Point","coordinates":[-78.9368243,43.8707976]},"properties":{"premiseId":"P-00285"}},{"type":"Feature","id":"SVC-P-00286","geometry":{"type":"Point","coordinates":[-78.9367595,43.8706524]},"properties":{"premiseId":"P-00286"}},{"type":"Feature","id":"SVC-P-00287","geometry":{"type":"Point","coordinates":[-78.9366961,43.8705104]},"properties":{"premiseId":"P-00287"}},{"type":"Feature","id":"SVC-P-00288","geometry":{"type":"Point","coordinates":[-78.9366347,43.8703727]},"properties":{"premiseId":"P-00288"}},{"type":"Feature","id":"SVC-P-00289","geometry":{"type":"Point","coordinates":[-78.9365731,43.8702346]},"properties":{"premiseId":"P-00289"}},{"type":"Feature","id":"SVC-P-00290","geometry":{"type":"Point","coordinates":[-78.9369153,43.8704736]},"properties":{"premiseId":"P-00290"}},{"type":"Feature","id":"SVC-P-00291","geometry":{"type":"Point","coordinates":[-78.9364243,43.8711434]},"properties":{"premiseId":"P-00291"}},{"type":"Feature","id":"SVC-P-00292","geometry":{"type":"Point","coordinates":[-78.9362295,43.8711872]},"properties":{"premiseId":"P-00292"}},{"type":"Feature","id":"SVC-P-00293","geometry":{"type":"Point","coordinates":[-78.9360215,43.8712339]},"properties":{"premiseId":"P-00293"}},{"type":"Feature","id":"SVC-P-00294","geometry":{"type":"Point","coordinates":[-78.9363533,43.87099]},"properties":{"premiseId":"P-00294"}},{"type":"Feature","id":"SVC-P-00295","geometry":{"type":"Point","coordinates":[-78.9361524,43.8710352]},"properties":{"premiseId":"P-00295"}},{"type":"Feature","id":"SVC-P-00296","geometry":{"type":"Point","coordinates":[-78.9359517,43.8710803]},"properties":{"premiseId":"P-00296"}},{"type":"Feature","id":"SVC-P-00297","geometry":{"type":"Point","coordinates":[-78.9364374,43.8699221]},"properties":{"premiseId":"P-00297"}},{"type":"Feature","id":"SVC-P-00298","geometry":{"type":"Point","coordinates":[-78.9363595,43.8697441]},"properties":{"premiseId":"P-00298"}},{"type":"Feature","id":"SVC-P-00299","geometry":{"type":"Point","coordinates":[-78.9362816,43.8695663]},"properties":{"premiseId":"P-00299"}},{"type":"Feature","id":"SVC-P-00300","geometry":{"type":"Point","coordinates":[-78.9362068,43.8693955]},"properties":{"premiseId":"P-00300"}},{"type":"Feature","id":"SVC-P-00301","geometry":{"type":"Point","coordinates":[-78.9361327,43.8692265]},"properties":{"premiseId":"P-00301"}},{"type":"Feature","id":"SVC-P-00302","geometry":{"type":"Point","coordinates":[-78.9360567,43.8690532]},"properties":{"premiseId":"P-00302"}},{"type":"Feature","id":"SVC-P-00303","geometry":{"type":"Point","coordinates":[-78.9359783,43.8688743]},"properties":{"premiseId":"P-00303"}},{"type":"Feature","id":"SVC-P-00304","geometry":{"type":"Point","coordinates":[-78.9358989,43.868693]},"properties":{"premiseId":"P-00304"}},{"type":"Feature","id":"SVC-P-00305","geometry":{"type":"Point","coordinates":[-78.9358218,43.8685171]},"properties":{"premiseId":"P-00305"}},{"type":"Feature","id":"SVC-P-00306","geometry":{"type":"Point","coordinates":[-78.9364966,43.8695203]},"properties":{"premiseId":"P-00306"}},{"type":"Feature","id":"SVC-P-00307","geometry":{"type":"Point","coordinates":[-78.9364225,43.8693512]},"properties":{"premiseId":"P-00307"}},{"type":"Feature","id":"SVC-P-00308","geometry":{"type":"Point","coordinates":[-78.9363428,43.8691692]},"properties":{"premiseId":"P-00308"}},{"type":"Feature","id":"SVC-P-00309","geometry":{"type":"Point","coordinates":[-78.9362652,43.8689922]},"properties":{"premiseId":"P-00309"}},{"type":"Feature","id":"SVC-P-00310","geometry":{"type":"Point","coordinates":[-78.9361935,43.8688284]},"properties":{"premiseId":"P-00310"}},{"type":"Feature","id":"SVC-P-00311","geometry":{"type":"Point","coordinates":[-78.9360356,43.8702776]},"properties":{"premiseId":"P-00311"}},{"type":"Feature","id":"SVC-P-00312","geometry":{"type":"Point","coordinates":[-78.9358322,43.8703238]},"properties":{"premiseId":"P-00312"}},{"type":"Feature","id":"SVC-P-00313","geometry":{"type":"Point","coordinates":[-78.935635,43.8703686]},"properties":{"premiseId":"P-00313"}},{"type":"Feature","id":"SVC-P-00314","geometry":{"type":"Point","coordinates":[-78.9359765,43.8701214]},"properties":{"premiseId":"P-00314"}},{"type":"Feature","id":"SVC-P-00315","geometry":{"type":"Point","coordinates":[-78.9357701,43.8701683]},"properties":{"premiseId":"P-00315"}},{"type":"Feature","id":"SVC-P-00316","geometry":{"type":"Point","coordinates":[-78.9355701,43.8702138]},"properties":{"premiseId":"P-00316"}},{"type":"Feature","id":"SVC-P-00317","geometry":{"type":"Point","coordinates":[-78.9360334,43.8720558]},"properties":{"premiseId":"P-00317"}},{"type":"Feature","id":"SVC-P-00318","geometry":{"type":"Point","coordinates":[-78.9359583,43.8718833]},"properties":{"premiseId":"P-00318"}},{"type":"Feature","id":"SVC-P-00319","geometry":{"type":"Point","coordinates":[-78.9358808,43.8717053]},"properties":{"premiseId":"P-00319"}},{"type":"Feature","id":"SVC-P-00320","geometry":{"type":"Point","coordinates":[-78.9358101,43.8715426]},"properties":{"premiseId":"P-00320"}},{"type":"Feature","id":"SVC-P-00321","geometry":{"type":"Point","coordinates":[-78.9357403,43.8713823]},"properties":{"premiseId":"P-00321"}},{"type":"Feature","id":"SVC-P-00322","geometry":{"type":"Point","coordinates":[-78.9362457,43.8720036]},"properties":{"premiseId":"P-00322"}},{"type":"Feature","id":"SVC-P-00323","geometry":{"type":"Point","coordinates":[-78.9361732,43.8718369]},"properties":{"premiseId":"P-00323"}},{"type":"Feature","id":"SVC-P-00324","geometry":{"type":"Point","coordinates":[-78.9360956,43.8716586]},"properties":{"premiseId":"P-00324"}},{"type":"Feature","id":"SVC-P-00325","geometry":{"type":"Point","coordinates":[-78.9356035,43.8724176]},"properties":{"premiseId":"P-00325"}},{"type":"Feature","id":"SVC-P-00326","geometry":{"type":"Point","coordinates":[-78.9353851,43.8724661]},"properties":{"premiseId":"P-00326"}},{"type":"Feature","id":"SVC-P-00327","geometry":{"type":"Point","coordinates":[-78.9351639,43.8725152]},"properties":{"premiseId":"P-00327"}},{"type":"Feature","id":"SVC-P-00328","geometry":{"type":"Point","coordinates":[-78.9349462,43.8725635]},"properties":{"premiseId":"P-00328"}},{"type":"Feature","id":"SVC-P-00329","geometry":{"type":"Point","coordinates":[-78.9347219,43.8726132]},"properties":{"premiseId":"P-00329"}},{"type":"Feature","id":"SVC-P-00330","geometry":{"type":"Point","coordinates":[-78.934508,43.8726607]},"properties":{"premiseId":"P-00330"}},{"type":"Feature","id":"SVC-P-00331","geometry":{"type":"Point","coordinates":[-78.9355161,43.8722302]},"properties":{"premiseId":"P-00331"}},{"type":"Feature","id":"SVC-P-00332","geometry":{"type":"Point","coordinates":[-78.9353087,43.8722762]},"properties":{"premiseId":"P-00332"}},{"type":"Feature","id":"SVC-P-00333","geometry":{"type":"Point","coordinates":[-78.9350936,43.872324]},"properties":{"premiseId":"P-00333"}},{"type":"Feature","id":"SVC-P-00334","geometry":{"type":"Point","coordinates":[-78.9348685,43.872374]},"properties":{"premiseId":"P-00334"}},{"type":"Feature","id":"SVC-P-00335","geometry":{"type":"Point","coordinates":[-78.9352246,43.8685648]},"properties":{"premiseId":"P-00335"}},{"type":"Feature","id":"SVC-P-00336","geometry":{"type":"Point","coordinates":[-78.9350023,43.8686172]},"properties":{"premiseId":"P-00336"}},{"type":"Feature","id":"SVC-P-00337","geometry":{"type":"Point","coordinates":[-78.9349369,43.8690203]},"properties":{"premiseId":"P-00337"}},{"type":"Feature","id":"SVC-P-00338","geometry":{"type":"Point","coordinates":[-78.9350038,43.8691754]},"properties":{"premiseId":"P-00338"}},{"type":"Feature","id":"SVC-P-00339","geometry":{"type":"Point","coordinates":[-78.9350765,43.8693395]},"properties":{"premiseId":"P-00339"}},{"type":"Feature","id":"SVC-P-00340","geometry":{"type":"Point","coordinates":[-78.9351517,43.8695093]},"properties":{"premiseId":"P-00340"}},{"type":"Feature","id":"SVC-P-00341","geometry":{"type":"Point","coordinates":[-78.9352217,43.8696673]},"properties":{"premiseId":"P-00341"}},{"type":"Feature","id":"SVC-P-00342","geometry":{"type":"Point","coordinates":[-78.9352915,43.8698248]},"properties":{"premiseId":"P-00342"}},{"type":"Feature","id":"SVC-P-00343","geometry":{"type":"Point","coordinates":[-78.9356107,43.8683036]},"properties":{"premiseId":"P-00343"}},{"type":"Feature","id":"SVC-P-00344","geometry":{"type":"Point","coordinates":[-78.9353927,43.868355]},"properties":{"premiseId":"P-00344"}},{"type":"Feature","id":"SVC-P-00345","geometry":{"type":"Point","coordinates":[-78.9351513,43.8684119]},"properties":{"premiseId":"P-00345"}},{"type":"Feature","id":"SVC-P-00346","geometry":{"type":"Point","coordinates":[-78.934924,43.8684655]},"properties":{"premiseId":"P-00346"}},{"type":"Feature","id":"SVC-P-00347","geometry":{"type":"Point","coordinates":[-78.9347123,43.8685142]},"properties":{"premiseId":"P-00347"}},{"type":"Feature","id":"SVC-P-00348","geometry":{"type":"Point","coordinates":[-78.934585,43.8687337]},"properties":{"premiseId":"P-00348"}},{"type":"Feature","id":"SVC-P-00349","geometry":{"type":"Point","coordinates":[-78.9346564,43.8689084]},"properties":{"premiseId":"P-00349"}},{"type":"Feature","id":"SVC-P-00350","geometry":{"type":"Point","coordinates":[-78.9347283,43.8690815]},"properties":{"premiseId":"P-00350"}},{"type":"Feature","id":"SVC-P-00351","geometry":{"type":"Point","coordinates":[-78.9347936,43.8692324]},"properties":{"premiseId":"P-00351"}},{"type":"Feature","id":"SVC-P-00352","geometry":{"type":"Point","coordinates":[-78.9348631,43.8693893]},"properties":{"premiseId":"P-00352"}},{"type":"Feature","id":"SVC-P-00353","geometry":{"type":"Point","coordinates":[-78.9349395,43.8695618]},"properties":{"premiseId":"P-00353"}},{"type":"Feature","id":"SVC-P-00354","geometry":{"type":"Point","coordinates":[-78.9350092,43.8697192]},"properties":{"premiseId":"P-00354"}},{"type":"Feature","id":"SVC-P-00355","geometry":{"type":"Point","coordinates":[-78.9350804,43.8698799]},"properties":{"premiseId":"P-00355"}},{"type":"Feature","id":"SVC-P-00356","geometry":{"type":"Point","coordinates":[-78.9351515,43.8700404]},"properties":{"premiseId":"P-00356"}},{"type":"Feature","id":"SVC-P-00357","geometry":{"type":"Point","coordinates":[-78.9352209,43.8701974]},"properties":{"premiseId":"P-00357"}},{"type":"Feature","id":"SVC-P-00358","geometry":{"type":"Point","coordinates":[-78.9356046,43.8710722]},"properties":{"premiseId":"P-00358"}},{"type":"Feature","id":"SVC-P-00359","geometry":{"type":"Point","coordinates":[-78.9355415,43.8709288]},"properties":{"premiseId":"P-00359"}},{"type":"Feature","id":"SVC-P-00360","geometry":{"type":"Point","coordinates":[-78.9354803,43.8707899]},"properties":{"premiseId":"P-00360"}},{"type":"Feature","id":"SVC-P-00361","geometry":{"type":"Point","coordinates":[-78.9354183,43.8706491]},"properties":{"premiseId":"P-00361"}},{"type":"Feature","id":"SVC-P-00362","geometry":{"type":"Point","coordinates":[-78.9353567,43.8705093]},"properties":{"premiseId":"P-00362"}},{"type":"Feature","id":"SVC-P-00363","geometry":{"type":"Point","coordinates":[-78.9356937,43.8707401]},"properties":{"premiseId":"P-00363"}},{"type":"Feature","id":"SVC-P-00364","geometry":{"type":"Point","coordinates":[-78.9348153,43.8705377]},"properties":{"premiseId":"P-00364"}},{"type":"Feature","id":"SVC-P-00365","geometry":{"type":"Point","coordinates":[-78.9340415,43.8704416]},"properties":{"premiseId":"P-00365"}},{"type":"Feature","id":"SVC-P-00366","geometry":{"type":"Point","coordinates":[-78.9338523,43.8703898]},"properties":{"premiseId":"P-00366"}},{"type":"Feature","id":"SVC-P-00367","geometry":{"type":"Point","coordinates":[-78.933557,43.8707322]},"properties":{"premiseId":"P-00367"}},{"type":"Feature","id":"SVC-P-00368","geometry":{"type":"Point","coordinates":[-78.9336213,43.870879]},"properties":{"premiseId":"P-00368"}},{"type":"Feature","id":"SVC-P-00369","geometry":{"type":"Point","coordinates":[-78.9336825,43.8710187]},"properties":{"premiseId":"P-00369"}},{"type":"Feature","id":"SVC-P-00370","geometry":{"type":"Point","coordinates":[-78.9337421,43.8711548]},"properties":{"premiseId":"P-00370"}},{"type":"Feature","id":"SVC-P-00371","geometry":{"type":"Point","coordinates":[-78.9338057,43.8713]},"properties":{"premiseId":"P-00371"}},{"type":"Feature","id":"SVC-P-00372","geometry":{"type":"Point","coordinates":[-78.9338683,43.8714428]},"properties":{"premiseId":"P-00372"}},{"type":"Feature","id":"SVC-P-00373","geometry":{"type":"Point","coordinates":[-78.9347394,43.8703851]},"properties":{"premiseId":"P-00373"}},{"type":"Feature","id":"SVC-P-00374","geometry":{"type":"Point","coordinates":[-78.9345273,43.8704039]},"properties":{"premiseId":"P-00374"}},{"type":"Feature","id":"SVC-P-00375","geometry":{"type":"Point","coordinates":[-78.9343256,43.8703696]},"properties":{"premiseId":"P-00375"}},{"type":"Feature","id":"SVC-P-00376","geometry":{"type":"Point","coordinates":[-78.9341407,43.8702958]},"properties":{"premiseId":"P-00376"}},{"type":"Feature","id":"SVC-P-00377","geometry":{"type":"Point","coordinates":[-78.9332652,43.8706032]},"properties":{"premiseId":"P-00377"}},{"type":"Feature","id":"SVC-P-00378","geometry":{"type":"Point","coordinates":[-78.9333276,43.8707455]},"properties":{"premiseId":"P-00378"}},{"type":"Feature","id":"SVC-P-00379","geometry":{"type":"Point","coordinates":[-78.9333915,43.8708914]},"properties":{"premiseId":"P-00379"}},{"type":"Feature","id":"SVC-P-00380","geometry":{"type":"Point","coordinates":[-78.933456,43.8710386]},"properties":{"premiseId":"P-00380"}},{"type":"Feature","id":"SVC-P-00381","geometry":{"type":"Point","coordinates":[-78.933522,43.8711893]},"properties":{"premiseId":"P-00381"}},{"type":"Feature","id":"SVC-P-00382","geometry":{"type":"Point","coordinates":[-78.9335859,43.8713352]},"properties":{"premiseId":"P-00382"}},{"type":"Feature","id":"SVC-P-00383","geometry":{"type":"Point","coordinates":[-78.9336511,43.871484]},"properties":{"premiseId":"P-00383"}},{"type":"Feature","id":"SVC-P-00384","geometry":{"type":"Point","coordinates":[-78.9353328,43.8672043]},"properties":{"premiseId":"P-00384"}},{"type":"Feature","id":"SVC-P-00385","geometry":{"type":"Point","coordinates":[-78.9343247,43.8715854]},"properties":{"premiseId":"P-00385"}},{"type":"Feature","id":"SVC-P-00386","geometry":{"type":"Point","coordinates":[-78.9340813,43.8716427]},"properties":{"premiseId":"P-00386"}},{"type":"Feature","id":"SVC-P-00387","geometry":{"type":"Point","coordinates":[-78.9340793,43.8724722]},"properties":{"premiseId":"P-00387"}},{"type":"Feature","id":"SVC-P-00388","geometry":{"type":"Point","coordinates":[-78.934006,43.8723019]},"properties":{"premiseId":"P-00388"}},{"type":"Feature","id":"SVC-P-00389","geometry":{"type":"Point","coordinates":[-78.9339348,43.8721375]},"properties":{"premiseId":"P-00389"}},{"type":"Feature","id":"SVC-P-00390","geometry":{"type":"Point","coordinates":[-78.9338622,43.8719696]},"properties":{"premiseId":"P-00390"}},{"type":"Feature","id":"SVC-P-00391","geometry":{"type":"Point","coordinates":[-78.9337894,43.8718016]},"properties":{"premiseId":"P-00391"}},{"type":"Feature","id":"SVC-P-00392","geometry":{"type":"Point","coordinates":[-78.9342967,43.8724315]},"properties":{"premiseId":"P-00392"}},{"type":"Feature","id":"SVC-P-00393","geometry":{"type":"Point","coordinates":[-78.9342251,43.8722652]},"properties":{"premiseId":"P-00393"}},{"type":"Feature","id":"SVC-P-00394","geometry":{"type":"Point","coordinates":[-78.934152,43.8720964]},"properties":{"premiseId":"P-00394"}},{"type":"Feature","id":"SVC-P-00395","geometry":{"type":"Point","coordinates":[-78.933608,43.8726537]},"properties":{"premiseId":"P-00395"}},{"type":"Feature","id":"SVC-P-00396","geometry":{"type":"Point","coordinates":[-78.9334001,43.8726998]},"properties":{"premiseId":"P-00396"}},{"type":"Feature","id":"SVC-P-00397","geometry":{"type":"Point","coordinates":[-78.9331922,43.872746]},"properties":{"premiseId":"P-00397"}},{"type":"Feature","id":"SVC-P-00398","geometry":{"type":"Point","coordinates":[-78.9317537,43.8717626]},"properties":{"premiseId":"P-00398"}},{"type":"Feature","id":"SVC-P-00399","geometry":{"type":"Point","coordinates":[-78.9316911,43.8716197]},"properties":{"premiseId":"P-00399"}},{"type":"Feature","id":"SVC-P-00400","geometry":{"type":"Point","coordinates":[-78.9316269,43.8714731]},"properties":{"premiseId":"P-00400"}},{"type":"Feature","id":"SVC-P-00401","geometry":{"type":"Point","coordinates":[-78.9315669,43.8713362]},"properties":{"premiseId":"P-00401"}},{"type":"Feature","id":"SVC-P-00402","geometry":{"type":"Point","coordinates":[-78.9315082,43.8712023]},"properties":{"premiseId":"P-00402"}},{"type":"Feature","id":"SVC-P-00403","geometry":{"type":"Point","coordinates":[-78.9314439,43.8710556]},"properties":{"premiseId":"P-00403"}},{"type":"Feature","id":"SVC-P-00404","geometry":{"type":"Point","coordinates":[-78.9313804,43.8709105]},"properties":{"premiseId":"P-00404"}},{"type":"Feature","id":"SVC-P-00405","geometry":{"type":"Point","coordinates":[-78.9322186,43.8722865]},"properties":{"premiseId":"P-00405"}},{"type":"Feature","id":"SVC-P-00406","geometry":{"type":"Point","coordinates":[-78.9321544,43.87214]},"properties":{"premiseId":"P-00406"}},{"type":"Feature","id":"SVC-P-00407","geometry":{"type":"Point","coordinates":[-78.9320921,43.871998]},"properties":{"premiseId":"P-00407"}},{"type":"Feature","id":"SVC-P-00408","geometry":{"type":"Point","coordinates":[-78.9320304,43.8718571]},"properties":{"premiseId":"P-00408"}},{"type":"Feature","id":"SVC-P-00409","geometry":{"type":"Point","coordinates":[-78.931968,43.8717146]},"properties":{"premiseId":"P-00409"}},{"type":"Feature","id":"SVC-P-00410","geometry":{"type":"Point","coordinates":[-78.9319061,43.8715734]},"properties":{"premiseId":"P-00410"}},{"type":"Feature","id":"SVC-P-00411","geometry":{"type":"Point","coordinates":[-78.9318461,43.8714365]},"properties":{"premiseId":"P-00411"}},{"type":"Feature","id":"SVC-P-00412","geometry":{"type":"Point","coordinates":[-78.9317845,43.871296]},"properties":{"premiseId":"P-00412"}},{"type":"Feature","id":"SVC-P-00413","geometry":{"type":"Point","coordinates":[-78.93172,43.8711488]},"properties":{"premiseId":"P-00413"}},{"type":"Feature","id":"SVC-P-00414","geometry":{"type":"Point","coordinates":[-78.9316562,43.8710033]},"properties":{"premiseId":"P-00414"}},{"type":"Feature","id":"SVC-P-00415","geometry":{"type":"Point","coordinates":[-78.9315944,43.8708622]},"properties":{"premiseId":"P-00415"}},{"type":"Feature","id":"SVC-P-00416","geometry":{"type":"Point","coordinates":[-78.9327499,43.8722464]},"properties":{"premiseId":"P-00416"}},{"type":"Feature","id":"SVC-P-00417","geometry":{"type":"Point","coordinates":[-78.9329678,43.8719396]},"properties":{"premiseId":"P-00417"}},{"type":"Feature","id":"SVC-P-00418","geometry":{"type":"Point","coordinates":[-78.9329076,43.8718038]},"properties":{"premiseId":"P-00418"}},{"type":"Feature","id":"SVC-P-00419","geometry":{"type":"Point","coordinates":[-78.9328475,43.8716681]},"properties":{"premiseId":"P-00419"}},{"type":"Feature","id":"SVC-P-00420","geometry":{"type":"Point","coordinates":[-78.9327858,43.8715288]},"properties":{"premiseId":"P-00420"}},{"type":"Feature","id":"SVC-P-00421","geometry":{"type":"Point","coordinates":[-78.9327196,43.8713793]},"properties":{"premiseId":"P-00421"}},{"type":"Feature","id":"SVC-P-00422","geometry":{"type":"Point","coordinates":[-78.9326585,43.8712415]},"properties":{"premiseId":"P-00422"}},{"type":"Feature","id":"SVC-P-00423","geometry":{"type":"Point","coordinates":[-78.932597,43.8711026]},"properties":{"premiseId":"P-00423"}},{"type":"Feature","id":"SVC-P-00424","geometry":{"type":"Point","coordinates":[-78.9325297,43.8709508]},"properties":{"premiseId":"P-00424"}},{"type":"Feature","id":"SVC-P-00425","geometry":{"type":"Point","coordinates":[-78.9324677,43.8708108]},"properties":{"premiseId":"P-00425"}},{"type":"Feature","id":"SVC-P-00426","geometry":{"type":"Point","coordinates":[-78.9323628,43.8705249]},"properties":{"premiseId":"P-00426"}},{"type":"Feature","id":"SVC-P-00427","geometry":{"type":"Point","coordinates":[-78.9323242,43.870381]},"properties":{"premiseId":"P-00427"}},{"type":"Feature","id":"SVC-P-00428","geometry":{"type":"Point","coordinates":[-78.9322962,43.8702354]},"properties":{"premiseId":"P-00428"}},{"type":"Feature","id":"SVC-P-00429","geometry":{"type":"Point","coordinates":[-78.9322729,43.8700819]},"properties":{"premiseId":"P-00429"}},{"type":"Feature","id":"SVC-P-00430","geometry":{"type":"Point","coordinates":[-78.9322424,43.8699372]},"properties":{"premiseId":"P-00430"}},{"type":"Feature","id":"SVC-P-00431","geometry":{"type":"Point","coordinates":[-78.9321907,43.8697932]},"properties":{"premiseId":"P-00431"}},{"type":"Feature","id":"SVC-P-00432","geometry":{"type":"Point","coordinates":[-78.9321267,43.8696516]},"properties":{"premiseId":"P-00432"}},{"type":"Feature","id":"SVC-P-00433","geometry":{"type":"Point","coordinates":[-78.9320662,43.8695177]},"properties":{"premiseId":"P-00433"}},{"type":"Feature","id":"SVC-P-00434","geometry":{"type":"Point","coordinates":[-78.9320023,43.8693765]},"properties":{"premiseId":"P-00434"}},{"type":"Feature","id":"SVC-P-00435","geometry":{"type":"Point","coordinates":[-78.9313138,43.8693494]},"properties":{"premiseId":"P-00435"}},{"type":"Feature","id":"SVC-P-00436","geometry":{"type":"Point","coordinates":[-78.9311173,43.8693764]},"properties":{"premiseId":"P-00436"}},{"type":"Feature","id":"SVC-P-00437","geometry":{"type":"Point","coordinates":[-78.9328157,43.872401]},"properties":{"premiseId":"P-00437"}},{"type":"Feature","id":"SVC-P-00438","geometry":{"type":"Point","coordinates":[-78.9332277,43.8719948]},"properties":{"premiseId":"P-00438"}},{"type":"Feature","id":"SVC-P-00439","geometry":{"type":"Point","coordinates":[-78.9331663,43.8718562]},"properties":{"premiseId":"P-00439"}},{"type":"Feature","id":"SVC-P-00440","geometry":{"type":"Point","coordinates":[-78.9331014,43.8717097]},"properties":{"premiseId":"P-00440"}},{"type":"Feature","id":"SVC-P-00441","geometry":{"type":"Point","coordinates":[-78.9330403,43.8715718]},"properties":{"premiseId":"P-00441"}},{"type":"Feature","id":"SVC-P-00442","geometry":{"type":"Point","coordinates":[-78.9329802,43.8714361]},"properties":{"premiseId":"P-00442"}},{"type":"Feature","id":"SVC-P-00443","geometry":{"type":"Point","coordinates":[-78.9329158,43.8712907]},"properties":{"premiseId":"P-00443"}},{"type":"Feature","id":"SVC-P-00444","geometry":{"type":"Point","coordinates":[-78.9328491,43.8711402]},"properties":{"premiseId":"P-00444"}},{"type":"Feature","id":"SVC-P-00445","geometry":{"type":"Point","coordinates":[-78.9327861,43.8709979]},"properties":{"premiseId":"P-00445"}},{"type":"Feature","id":"SVC-P-00446","geometry":{"type":"Point","coordinates":[-78.9327241,43.870858]},"properties":{"premiseId":"P-00446"}},{"type":"Feature","id":"SVC-P-00447","geometry":{"type":"Point","coordinates":[-78.9326593,43.8707117]},"properties":{"premiseId":"P-00447"}},{"type":"Feature","id":"SVC-P-00448","geometry":{"type":"Point","coordinates":[-78.9326059,43.8705715]},"properties":{"premiseId":"P-00448"}},{"type":"Feature","id":"SVC-P-00449","geometry":{"type":"Point","coordinates":[-78.932563,43.870422]},"properties":{"premiseId":"P-00449"}},{"type":"Feature","id":"SVC-P-00450","geometry":{"type":"Point","coordinates":[-78.9325288,43.8702686]},"properties":{"premiseId":"P-00450"}},{"type":"Feature","id":"SVC-P-00451","geometry":{"type":"Point","coordinates":[-78.9325052,43.8701181]},"properties":{"premiseId":"P-00451"}},{"type":"Feature","id":"SVC-P-00452","geometry":{"type":"Point","coordinates":[-78.93248,43.8699761]},"properties":{"premiseId":"P-00452"}},{"type":"Feature","id":"SVC-P-00453","geometry":{"type":"Point","coordinates":[-78.9323771,43.8696837]},"properties":{"premiseId":"P-00453"}},{"type":"Feature","id":"SVC-P-00454","geometry":{"type":"Point","coordinates":[-78.9323115,43.8695385]},"properties":{"premiseId":"P-00454"}},{"type":"Feature","id":"SVC-P-00455","geometry":{"type":"Point","coordinates":[-78.9322479,43.8693981]},"properties":{"premiseId":"P-00455"}},{"type":"Feature","id":"SVC-P-00456","geometry":{"type":"Point","coordinates":[-78.932186,43.8692612]},"properties":{"premiseId":"P-00456"}},{"type":"Feature","id":"SVC-P-00457","geometry":{"type":"Point","coordinates":[-78.9317004,43.8691135]},"properties":{"premiseId":"P-00457"}},{"type":"Feature","id":"SVC-P-00458","geometry":{"type":"Point","coordinates":[-78.9312489,43.8706152]},"properties":{"premiseId":"P-00458"}},{"type":"Feature","id":"SVC-P-00459","geometry":{"type":"Point","coordinates":[-78.9311417,43.8702858]},"properties":{"premiseId":"P-00459"}},{"type":"Feature","id":"SVC-P-00460","geometry":{"type":"Point","coordinates":[-78.9311038,43.8701243]},"properties":{"premiseId":"P-00460"}},{"type":"Feature","id":"SVC-P-00461","geometry":{"type":"Point","coordinates":[-78.9310543,43.8699769]},"properties":{"premiseId":"P-00461"}},{"type":"Feature","id":"SVC-P-00462","geometry":{"type":"Point","coordinates":[-78.9309917,43.8698278]},"properties":{"premiseId":"P-00462"}},{"type":"Feature","id":"SVC-P-00463","geometry":{"type":"Point","coordinates":[-78.9309216,43.8696669]},"properties":{"premiseId":"P-00463"}},{"type":"Feature","id":"SVC-P-00464","geometry":{"type":"Point","coordinates":[-78.9308522,43.8695077]},"properties":{"premiseId":"P-00464"}},{"type":"Feature","id":"SVC-P-00465","geometry":{"type":"Point","coordinates":[-78.931461,43.8705623]},"properties":{"premiseId":"P-00465"}},{"type":"Feature","id":"SVC-P-00466","geometry":{"type":"Point","coordinates":[-78.9314005,43.8704068]},"properties":{"premiseId":"P-00466"}},{"type":"Feature","id":"SVC-P-00467","geometry":{"type":"Point","coordinates":[-78.9313612,43.8702519]},"properties":{"premiseId":"P-00467"}},{"type":"Feature","id":"SVC-P-00468","geometry":{"type":"Point","coordinates":[-78.9313238,43.870092]},"properties":{"premiseId":"P-00468"}},{"type":"Feature","id":"SVC-P-00469","geometry":{"type":"Point","coordinates":[-78.9311994,43.8697649]},"properties":{"premiseId":"P-00469"}},{"type":"Feature","id":"SVC-P-00470","geometry":{"type":"Point","coordinates":[-78.9308283,43.8709603]},"properties":{"premiseId":"P-00470"}},{"type":"Feature","id":"SVC-P-00471","geometry":{"type":"Point","coordinates":[-78.9307706,43.870804]},"properties":{"premiseId":"P-00471"}},{"type":"Feature","id":"SVC-P-00472","geometry":{"type":"Point","coordinates":[-78.930465,43.869453]},"properties":{"premiseId":"P-00472"}},{"type":"Feature","id":"SVC-P-00473","geometry":{"type":"Point","coordinates":[-78.9302492,43.8694762]},"properties":{"premiseId":"P-00473"}},{"type":"Feature","id":"SVC-P-00474","geometry":{"type":"Point","coordinates":[-78.9300357,43.8694992]},"properties":{"premiseId":"P-00474"}},{"type":"Feature","id":"SVC-P-00475","geometry":{"type":"Point","coordinates":[-78.9304192,43.8692944]},"properties":{"premiseId":"P-00475"}},{"type":"Feature","id":"SVC-P-00476","geometry":{"type":"Point","coordinates":[-78.9302076,43.8693172]},"properties":{"premiseId":"P-00476"}},{"type":"Feature","id":"SVC-P-00477","geometry":{"type":"Point","coordinates":[-78.9299972,43.8693398]},"properties":{"premiseId":"P-00477"}},{"type":"Feature","id":"SVC-P-00478","geometry":{"type":"Point","coordinates":[-78.9302836,43.8704697]},"properties":{"premiseId":"P-00478"}},{"type":"Feature","id":"SVC-P-00479","geometry":{"type":"Point","coordinates":[-78.9302124,43.870313]},"properties":{"premiseId":"P-00479"}},{"type":"Feature","id":"SVC-P-00480","geometry":{"type":"Point","coordinates":[-78.9300767,43.8699917]},"properties":{"premiseId":"P-00480"}},{"type":"Feature","id":"SVC-P-00481","geometry":{"type":"Point","coordinates":[-78.938464,43.8707778]},"properties":{"premiseId":"P-00481"}},{"type":"Feature","id":"SVC-P-00482","geometry":{"type":"Point","coordinates":[-78.937825,43.8702017]},"properties":{"premiseId":"P-00482"}},{"type":"Feature","id":"SVC-P-00483","geometry":{"type":"Point","coordinates":[-78.938096,43.8699242]},"properties":{"premiseId":"P-00483"}},{"type":"Feature","id":"SVC-P-00484","geometry":{"type":"Point","coordinates":[-78.9374076,43.869246]},"properties":{"premiseId":"P-00484"}},{"type":"Feature","id":"SVC-P-00485","geometry":{"type":"Point","coordinates":[-78.9379388,43.8695696]},"properties":{"premiseId":"P-00485"}},{"type":"Feature","id":"SVC-P-00486","geometry":{"type":"Point","coordinates":[-78.9372725,43.8689206]},"properties":{"premiseId":"P-00486"}},{"type":"Feature","id":"SVC-P-00487","geometry":{"type":"Point","coordinates":[-78.9372166,43.8687792]},"properties":{"premiseId":"P-00487"}},{"type":"Feature","id":"SVC-P-00488","geometry":{"type":"Point","coordinates":[-78.9371026,43.8685116]},"properties":{"premiseId":"P-00488"}},{"type":"Feature","id":"SVC-P-00489","geometry":{"type":"Point","coordinates":[-78.9376344,43.8688528]},"properties":{"premiseId":"P-00489"}},{"type":"Feature","id":"SVC-P-00490","geometry":{"type":"Point","coordinates":[-78.9375803,43.8687158]},"properties":{"premiseId":"P-00490"}},{"type":"Feature","id":"SVC-P-00491","geometry":{"type":"Point","coordinates":[-78.9375202,43.8685709]},"properties":{"premiseId":"P-00491"}},{"type":"Feature","id":"SVC-P-00492","geometry":{"type":"Point","coordinates":[-78.9374577,43.8684271]},"properties":{"premiseId":"P-00492"}},{"type":"Feature","id":"SVC-P-00493","geometry":{"type":"Point","coordinates":[-78.9373982,43.8682908]},"properties":{"premiseId":"P-00493"}},{"type":"Feature","id":"SVC-P-00494","geometry":{"type":"Point","coordinates":[-78.9373396,43.8681567]},"properties":{"premiseId":"P-00494"}},{"type":"Feature","id":"SVC-P-00495","geometry":{"type":"Point","coordinates":[-78.9372456,43.8677169]},"properties":{"premiseId":"P-00495"}},{"type":"Feature","id":"SVC-P-00496","geometry":{"type":"Point","coordinates":[-78.9371878,43.8675886]},"properties":{"premiseId":"P-00496"}},{"type":"Feature","id":"SVC-P-00497","geometry":{"type":"Point","coordinates":[-78.9370177,43.8671912]},"properties":{"premiseId":"P-00497"}},{"type":"Feature","id":"SVC-P-00498","geometry":{"type":"Point","coordinates":[-78.93695,43.8670242]},"properties":{"premiseId":"P-00498"}},{"type":"Feature","id":"SVC-P-00499","geometry":{"type":"Point","coordinates":[-78.9368854,43.866865]},"properties":{"premiseId":"P-00499"}},{"type":"Feature","id":"SVC-P-00500","geometry":{"type":"Point","coordinates":[-78.9368194,43.8667021]},"properties":{"premiseId":"P-00500"}},{"type":"Feature","id":"SVC-P-00501","geometry":{"type":"Point","coordinates":[-78.936753,43.8665352]},"properties":{"premiseId":"P-00501"}},{"type":"Feature","id":"SVC-P-00502","geometry":{"type":"Point","coordinates":[-78.9366921,43.8663813]},"properties":{"premiseId":"P-00502"}},{"type":"Feature","id":"SVC-P-00503","geometry":{"type":"Point","coordinates":[-78.9366265,43.8662207]},"properties":{"premiseId":"P-00503"}},{"type":"Feature","id":"SVC-P-00504","geometry":{"type":"Point","coordinates":[-78.9365593,43.8660585]},"properties":{"premiseId":"P-00504"}},{"type":"Feature","id":"SVC-P-00505","geometry":{"type":"Point","coordinates":[-78.9364917,43.8658953]},"properties":{"premiseId":"P-00505"}},{"type":"Feature","id":"SVC-P-00506","geometry":{"type":"Point","coordinates":[-78.9364297,43.8657378]},"properties":{"premiseId":"P-00506"}},{"type":"Feature","id":"SVC-P-00507","geometry":{"type":"Point","coordinates":[-78.9363744,43.8655817]},"properties":{"premiseId":"P-00507"}},{"type":"Feature","id":"SVC-P-00508","geometry":{"type":"Point","coordinates":[-78.9363141,43.8654053]},"properties":{"premiseId":"P-00508"}},{"type":"Feature","id":"SVC-P-00509","geometry":{"type":"Point","coordinates":[-78.9362575,43.8652394]},"properties":{"premiseId":"P-00509"}},{"type":"Feature","id":"SVC-P-00510","geometry":{"type":"Point","coordinates":[-78.9362038,43.8650821]},"properties":{"premiseId":"P-00510"}},{"type":"Feature","id":"SVC-P-00511","geometry":{"type":"Point","coordinates":[-78.9364498,43.8677383]},"properties":{"premiseId":"P-00511"}},{"type":"Feature","id":"SVC-P-00512","geometry":{"type":"Point","coordinates":[-78.9362559,43.8677813]},"properties":{"premiseId":"P-00512"}},{"type":"Feature","id":"SVC-P-00513","geometry":{"type":"Point","coordinates":[-78.9360622,43.8678242]},"properties":{"premiseId":"P-00513"}},{"type":"Feature","id":"SVC-P-00514","geometry":{"type":"Point","coordinates":[-78.9358545,43.8678702]},"properties":{"premiseId":"P-00514"}},{"type":"Feature","id":"SVC-P-00515","geometry":{"type":"Point","coordinates":[-78.9365136,43.8672911]},"properties":{"premiseId":"P-00515"}},{"type":"Feature","id":"SVC-P-00516","geometry":{"type":"Point","coordinates":[-78.9364436,43.8671239]},"properties":{"premiseId":"P-00516"}},{"type":"Feature","id":"SVC-P-00517","geometry":{"type":"Point","coordinates":[-78.9363766,43.8669637]},"properties":{"premiseId":"P-00517"}},{"type":"Feature","id":"SVC-P-00518","geometry":{"type":"Point","coordinates":[-78.9363109,43.8668066]},"properties":{"premiseId":"P-00518"}},{"type":"Feature","id":"SVC-P-00519","geometry":{"type":"Point","coordinates":[-78.9362413,43.866636]},"properties":{"premiseId":"P-00519"}},{"type":"Feature","id":"SVC-P-00520","geometry":{"type":"Point","coordinates":[-78.9361755,43.8664699]},"properties":{"premiseId":"P-00520"}},{"type":"Feature","id":"SVC-P-00521","geometry":{"type":"Point","coordinates":[-78.9361111,43.8663061]},"properties":{"premiseId":"P-00521"}},{"type":"Feature","id":"SVC-P-00522","geometry":{"type":"Point","coordinates":[-78.9360414,43.8661284]},"properties":{"premiseId":"P-00522"}},{"type":"Feature","id":"SVC-P-00523","geometry":{"type":"Point","coordinates":[-78.9359774,43.8659614]},"properties":{"premiseId":"P-00523"}},{"type":"Feature","id":"SVC-P-00524","geometry":{"type":"Point","coordinates":[-78.9359165,43.8657934]},"properties":{"premiseId":"P-00524"}},{"type":"Feature","id":"SVC-P-00525","geometry":{"type":"Point","coordinates":[-78.9358573,43.8656238]},"properties":{"premiseId":"P-00525"}},{"type":"Feature","id":"SVC-P-00526","geometry":{"type":"Point","coordinates":[-78.9358019,43.8654646]},"properties":{"premiseId":"P-00526"}},{"type":"Feature","id":"SVC-P-00527","geometry":{"type":"Point","coordinates":[-78.9357434,43.8652983]},"properties":{"premiseId":"P-00527"}},{"type":"Feature","id":"SVC-P-00528","geometry":{"type":"Point","coordinates":[-78.9356855,43.8651292]},"properties":{"premiseId":"P-00528"}},{"type":"Feature","id":"SVC-P-00529","geometry":{"type":"Point","coordinates":[-78.9359031,43.8674662]},"properties":{"premiseId":"P-00529"}},{"type":"Feature","id":"SVC-P-00530","geometry":{"type":"Point","coordinates":[-78.9356372,43.8675216]},"properties":{"premiseId":"P-00530"}},{"type":"Feature","id":"SVC-P-00531","geometry":{"type":"Point","coordinates":[-78.9351995,43.8680086]},"properties":{"premiseId":"P-00531"}},{"type":"Feature","id":"SVC-P-00532","geometry":{"type":"Point","coordinates":[-78.9349519,43.8680563]},"properties":{"premiseId":"P-00532"}},{"type":"Feature","id":"SVC-P-00533","geometry":{"type":"Point","coordinates":[-78.9347161,43.8680965]},"properties":{"premiseId":"P-00533"}},{"type":"Feature","id":"SVC-P-00534","geometry":{"type":"Point","coordinates":[-78.9344838,43.8681309]},"properties":{"premiseId":"P-00534"}},{"type":"Feature","id":"SVC-P-00535","geometry":{"type":"Point","coordinates":[-78.9339897,43.8681774]},"properties":{"premiseId":"P-00535"}},{"type":"Feature","id":"SVC-P-00536","geometry":{"type":"Point","coordinates":[-78.9337509,43.868181]},"properties":{"premiseId":"P-00536"}},{"type":"Feature","id":"SVC-P-00537","geometry":{"type":"Point","coordinates":[-78.9335018,43.868184]},"properties":{"premiseId":"P-00537"}},{"type":"Feature","id":"SVC-P-00538","geometry":{"type":"Point","coordinates":[-78.9349718,43.8676641]},"properties":{"premiseId":"P-00538"}},{"type":"Feature","id":"SVC-P-00539","geometry":{"type":"Point","coordinates":[-78.9347344,43.8677103]},"properties":{"premiseId":"P-00539"}},{"type":"Feature","id":"SVC-P-00540","geometry":{"type":"Point","coordinates":[-78.9344892,43.86775]},"properties":{"premiseId":"P-00540"}},{"type":"Feature","id":"SVC-P-00541","geometry":{"type":"Point","coordinates":[-78.9342326,43.8677804]},"properties":{"premiseId":"P-00541"}},{"type":"Feature","id":"SVC-P-00542","geometry":{"type":"Point","coordinates":[-78.9339883,43.8677964]},"properties":{"premiseId":"P-00542"}},{"type":"Feature","id":"SVC-P-00543","geometry":{"type":"Point","coordinates":[-78.933749,43.8678045]},"properties":{"premiseId":"P-00543"}},{"type":"Feature","id":"SVC-P-00544","geometry":{"type":"Point","coordinates":[-78.9335011,43.8678084]},"properties":{"premiseId":"P-00544"}},{"type":"Feature","id":"SVC-P-00545","geometry":{"type":"Point","coordinates":[-78.9329204,43.8681368]},"properties":{"premiseId":"P-00545"}},{"type":"Feature","id":"SVC-P-00546","geometry":{"type":"Point","coordinates":[-78.9327152,43.8681384]},"properties":{"premiseId":"P-00546"}},{"type":"Feature","id":"SVC-P-00547","geometry":{"type":"Point","coordinates":[-78.9329139,43.8678673]},"properties":{"premiseId":"P-00547"}},{"type":"Feature","id":"SVC-P-00548","geometry":{"type":"Point","coordinates":[-78.9327053,43.867869]},"properties":{"premiseId":"P-00548"}},{"type":"Feature","id":"SVC-P-00549","geometry":{"type":"Point","coordinates":[-78.9282939,43.8684029]},"properties":{"premiseId":"P-00549"}},{"type":"Feature","id":"SVC-P-00550","geometry":{"type":"Point","coordinates":[-78.9398248,43.8739606]},"properties":{"premiseId":"P-00550"}},{"type":"Feature","id":"SVC-P-00551","geometry":{"type":"Point","coordinates":[-78.9443565,43.8720176]},"properties":{"premiseId":"P-00551"}},{"type":"Feature","id":"SVC-P-00552","geometry":{"type":"Point","coordinates":[-78.9282125,43.868372]},"properties":{"premiseId":"P-00552"}}]}