{"type":"FeatureCollection","name":"water_equipment","crs_note":"EPSG:4326","features":[{"type":"Feature","id":"HYD-00001","geometry":{"type":"Point","coordinates":[-78.9281038,43.8685761]},"properties":{"kind":"hydrant","edgeId":"water-E1","chainageM":5.0}},{"type":"Feature","id":"HYD-00002","geometry":{"type":"Point","coordinates":[-78.9290271,43.8689325]},"properties":{"kind":"hydrant","edgeId":"water-E7","chainageM":85.0}},{"type":"Feature","id":"HYD-00003","geometry":{"type":"Point","coordinates":[-78.928993,43.8681682]},"properties":{"kind":"hydrant","edgeId":"water-E11","chainageM":5.0}},{"type":"Feature","id":"HYD-00004","geometry":{"type":"Point","coordinates":[-78.9287843,43.8702384]},"properties":{"kind":"hydrant","edgeId":"water-E14","chainageM":95.0}},{"type":"Feature","id":"HYD-00005","geometry":{"type":"Point","coordinates":[-78.9282188,43.8714274]},"properties":{"kind":"hydrant","edgeId":"water-E14","chainageM":235.0}},{"type":"Feature","id":"HYD-00006","geometry":{"type":"Point","coordinates":[-78.9284472,43.8726794]},"properties":{"kind":"hydrant","edgeId":"water-E19","chainageM":95.0}},{"type":"Feature","id":"HYD-00007","geometry":{"type":"Point","coordinates":[-78.9300422,43.8679364]},"properties":{"kind":"hydrant","edgeId":"water-E23","chainageM":5.0}},{"type":"Feature","id":"HYD-00008","geometry":{"type":"Point","coordinates":[-78.9301477,43.8730668]},"properties":{"kind":"hydrant","edgeId":"water-E29","chainageM":55.0}},{"type":"Feature","id":"HYD-00009","geometry":{"type":"Point","coordinates":[-78.9318711,43.873099]},"properties":{"kind":"hydrant","edgeId":"water-E29","chainageM":195.0}},{"type":"Feature","id":"HYD-00010","geometry":{"type":"Point","coordinates":[-78.930366,43.8707811]},"properties":{"kind":"hydrant","edgeId":"water-E45","chainageM":35.0}},{"type":"Feature","id":"HYD-00011","geometry":{"type":"Point","coordinates":[-78.9336026,43.872716]},"properties":{"kind":"hydrant","edgeId":"water-E47","chainageM":15.0}},{"type":"Feature","id":"HYD-00012","geometry":{"type":"Point","coordinates":[-78.9311714,43.8679887]},"properties":{"kind":"hydrant","edgeId":"water-E50","chainageM":25.0}},{"type":"Feature","id":"HYD-00013","geometry":{"type":"Point","coordinates":[-78.9307483,43.8692999]},"properties":{"kind":"hydrant","edgeId":"water-E52","chainageM":25.0}},{"type":"Feature","id":"HYD-00014","geometry":{"type":"Point","coordinates":[-78.932279,43.8679667]},"properties":{"kind":"hydrant","edgeId":"water-E94","chainageM":15.0}},{"type":"Feature","id":"HYD-00015","geometry":{"type":"Point","coordinates":[-78.9340881,43.8715138]},"properties":{"kind":"hydrant","edgeId":"water-E109","chainageM":5.0}},{"type":"Feature","id":"HYD-00016","geometry":{"type":"Point","coordinates":[-78.93237,43.8697983]},"properties":{"kind":"hydrant","edgeId":"water-E114","chainageM":5.0}},{"type":"Feature","id":"HYD-00017","geometry":{"type":"Point","coordinates":[-78.9334225,43.8680097]},"properties":{"kind":"hydrant","edgeId":"water-E132","chainageM":25.0}},{"type":"Feature","id":"HYD-00018","geometry":{"type":"Point","coordinates":[-78.9344943,43.8679502]},"properties":{"kind":"hydrant","edgeId":"water-E148","chainageM":5.0}},{"type":"Feature","id":"HYD-00019","geometry":{"type":"Point","coordinates":[-78.9318114,43.8714915]},"properties":{"kind":"hydrant","edgeId":"water-E159","chainageM":5.0}},{"type":"Feature","id":"HYD-00020","geometry":{"type":"Point","coordinates":[-78.9355476,43.867755]},"properties":{"kind":"hydrant","edgeId":"water-E164","chainageM":15.0}},{"type":"Feature","id":"HYD-00021","geometry":{"type":"Point","coordinates":[-78.936594,43.8674106]},"properties":{"kind":"hydrant","edgeId":"water-E179","chainageM":55.0}},{"type":"Feature","id":"HYD-00022","geometry":{"type":"Point","coordinates":[-78.9371704,43.8680831]},"properties":{"kind":"hydrant","edgeId":"water-E199","chainageM":5.0}},{"type":"Feature","id":"HYD-00023","geometry":{"type":"Point","coordinates":[-78.9364897,43.866627]},"properties":{"kind":"hydrant","edgeId":"water-E209","chainageM":15.0}},{"type":"Feature","id":"HYD-00024","geometry":{"type":"Point","coordinates":[-78.936196,43.8658734]},"properties":{"kind":"hydrant","edgeId":"water-E235","chainageM":5.0}},{"type":"Feature","id":"HYD-00025","geometry":{"type":"Point","coordinates":[-78.9375056,43.8688712]},"properties":{"kind":"hydrant","edgeId":"water-E237","chainageM":15.0}},{"type":"Feature","id":"HYD-00026","geometry":{"type":"Point","coordinates":[-78.936001,43.8685234]},"properties":{"kind":"hydrant","edgeId":"water-E255","chainageM":5.0}},{"type":"Feature","id":"HYD-00027","geometry":{"type":"Point","coordinates":[-78.935933,43.8651246]},"properties":{"kind":"hydrant","edgeId":"water-E257","chainageM":15.0}},{"type":"Feature","id":"HYD-00028","geometry":{"type":"Point","coordinates":[-78.9378323,43.8696404]},"properties":{"kind":"hydrant","edgeId":"water-E264","chainageM":5.0}},{"type":"Feature","id":"HYD-00029","geometry":{"type":"Point","coordinates":[-78.9385483,43.8687567]},"properties":{"kind":"hydrant","edgeId":"water-E267","chainageM":45.0}},{"type":"Feature","id":"HYD-00030","geometry":{"type":"Point","coordinates":[-78.9381548,43.8703765]},"properties":{"kind":"hydrant","edgeId":"water-E290","chainageM":5.0}},{"type":"Feature","id":"HYD-00031","geometry":{"type":"Point","coordinates":[-78.9346278,43.8686954]},"properties":{"kind":"hydrant","edgeId":"water-E292","chainageM":25.0}},{"type":"Feature","id":"HYD-00032","geometry":{"type":"Point","coordinates":[-78.9363119,43.8692328]},"properties":{"kind":"hydrant","edgeId":"water-E302","chainageM":5.0}},{"type":"Feature","id":"HYD-00033","geometry":{"type":"Point","coordinates":[-78.9368908,43.8699587]},"properties":{"kind":"hydrant","edgeId":"water-E306","chainageM":15.0}},{"type":"Feature","id":"HYD-00034","geometry":{"type":"Point","coordinates":[-78.9384192,43.8679934]},"properties":{"kind":"hydrant","edgeId":"water-E322","chainageM":15.0}},{"type":"Feature","id":"HYD-00035","geometry":{"type":"Point","coordinates":[-78.9390391,43.869467]},"properties":{"kind":"hydrant","edgeId":"water-E323","chainageM":5.0}},{"type":"Feature","id":"HYD-00036","geometry":{"type":"Point","coordinates":[-78.9384648,43.8710991]},"properties":{"kind":"hydrant","edgeId":"water-E326","chainageM":15.0}},{"type":"Feature","id":"HYD-00037","geometry":{"type":"Point","coordinates":[-78.9393842,43.8702788]},"properties":{"kind":"hydrant","edgeId":"water-E355","chainageM":5.0}},{"type":"Feature","id":"HYD-00038","geometry":{"type":"Point","coordinates":[-78.9402743,43.868359]},"properties":{"kind":"hydrant","edgeId":"water-E357","chainageM":5.0}},{"type":"Feature","id":"HYD-00039","geometry":{"type":"Point","coordinates":[-78.9372029,43.8708379]},"properties":{"kind":"hydrant","edgeId":"water-E363","chainageM":15.0}},{"type":"Feature","id":"HYD-00040","geometry":{"type":"Point","coordinates":[-78.9387978,43.8718375]},"properties":{"kind":"hydrant","edgeId":"water-E366","chainageM":25.0}},{"type":"Feature","id":"HYD-00041","geometry":{"type":"Point","coordinates":[-78.9377161,43.8718058]},"properties":{"kind":"hydrant","edgeId":"water-E421","chainageM":25.0}},{"type":"Feature","id":"HYD-00042","geometry":{"type":"Point","coordinates":[-78.9396891,43.8713519]},"properties":{"kind":"hydrant","edgeId":"water-E422","chainageM":35.0}},{"type":"Feature","id":"HYD-00043","geometry":{"type":"Point","coordinates":[-78.9352015,43.870336]},"properties":{"kind":"hydrant","edgeId":"water-E435","chainageM":15.0}},{"type":"Feature","id":"HYD-00044","geometry":{"type":"Point","coordinates":[-78.9391138,43.8725669]},"properties":{"kind":"hydrant","edgeId":"water-E444","chainageM":25.0}},{"type":"Feature","id":"HYD-00045","geometry":{"type":"Point","coordinates":[-78.9396529,43.8737905]},"properties":{"kind":"hydrant","edgeId":"water-E466","chainageM":15.0}},{"type":"Feature","id":"HYD-00046","geometry":{"type":"Point","coordinates":[-78.9381199,43.867272]},"properties":{"kind":"hydrant","edgeId":"water-E474","chainageM":5.0}},{"type":"Feature","id":"HYD-00047","geometry":{"type":"Point","coordinates":[-78.9360115,43.8721813]},"properties":{"kind":"hydrant","edgeId":"water-E498","chainageM":15.0}},{"type":"Feature","id":"HYD-00048","geometry":{"type":"Point","coordinates":[-78.9414098,43.870967]},"properties":{"kind":"hydrant","edgeId":"water-E499","chainageM":25.0}},{"type":"Feature","id":"HYD-00049","geometry":{"type":"Point","coordinates":[-78.9419532,43.8679689]},"properties":{"kind":"hydrant","edgeId":"water-E505","chainageM":15.0}},{"type":"Feature","id":"HYD-00050","geometry":{"type":"Point","coordinates":[-78.9415739,43.8691983]},"properties":{"kind":"hydrant","edgeId":"water-E544","chainageM":55.0}},{"type":"Feature","id":"HYD-00051","geometry":{"type":"Point","coordinates":[-78.9431063,43.8705894]},"properties":{"kind":"hydrant","edgeId":"water-E567","chainageM":5.0}},{"type":"Feature","id":"HYD-00052","geometry":{"type":"Point","coordinates":[-78.9421689,43.8671753]},"properties":{"kind":"hydrant","edgeId":"water-E574","chainageM":15.0}},{"type":"Feature","id":"HYD-00053","geometry":{"type":"Point","coordinates":[-78.9377986,43.8726232]},"properties":{"kind":"hydrant","edgeId":"water-E579","chainageM":15.0}},{"type":"Feature","id":"HYD-00054","geometry":{"type":"Point","coordinates":[-78.9401481,43.8720633]},"properties":{"kind":"hydrant","edgeId":"water-E586","chainageM":15.0}},{"type":"Feature","id":"HYD-00055","geometry":{"type":"Point","coordinates":[-78.9441041,43.8716615]},"properties":{"kind":"hydrant","edgeId":"water-E605","chainageM":15.0}},{"type":"Feature","id":"HYD-00056","geometry":{"type":"Point","coordinates":[-78.9441625,43.8703558]},"properties":{"kind":"hydrant","edgeId":"water-E606","chainageM":15.0}},{"type":"Feature","id":"HYD-00057","geometry":{"type":"Point","coordinates":[-78.9459272,43.869971]},"properties":{"kind":"hydrant","edgeId":"water-E616","chainageM":85.0}},{"type":"Feature","id":"HYD-00058","geometry":{"type":"Point","coordinates":[-78.9472909,43.8691704]},"properties":{"kind":"hydrant","edgeId":"water-E626","chainageM":55.0}},{"type":"Feature","id":"HYD-00059","geometry":{"type":"Point","coordinates":[-78.9418597,43.8664424]},"properties":{"kind":"hydrant","edgeId":"water-E631","chainageM":15.0}},{"type":"Feature","id":"HYD-00060","geometry":{"type":"Point","coordinates":[-78.9451323,43.8687805]},"properties":{"kind":"hydrant","edgeId":"water-E634","chainageM":195.0}},{"type":"Feature","id":"HYD-00061","geometry":{"type":"Point","coordinates":[-78.9433436,43.867636]},"properties":{"kind":"hydrant","edgeId":"water-E664","chainageM":25.0}},{"type":"Feature","id":"HYD-00062","geometry":{"type":"Point","coordinates":[-78.9432705,43.8697844]},"properties":{"kind":"hydrant","edgeId":"water-E1284","chainageM":35.0}},{"type":"Feature","id":"WV-00001","geometry":{"type":"Point","coordinates":[-78.9281563,43.8682685]},"properties":{"kind":"valve","edgeId":"water-E1","normally":"open"}},{"type":"Feature","id":"WV-00002","geometry":{"type":"Point","coordinates":[-78.928151,43.8682409]},"properties":{"kind":"valve","edgeId":"water-E2","normally":"open"}},{"type":"Feature","id":"WV-00003","geometry":{"type":"Point","coordinates":[-78.9287663,43.8681981]},"properties":{"kind":"valve","edgeId":"water-E5","normally":"open"}},{"type":"Feature","id":"WV-00004","geometry":{"type":"Point","coordinates":[-78.9288203,43.8682161]},"properties":{"kind":"valve","edgeId":"water-E7","normally":"open"}},{"type":"Feature","id":"WV-00005","geometry":{"type":"Point","coordinates":[-78.9288396,43.8681877]},"properties":{"kind":"valve","edgeId":"water-E8","normally":"open"}},{"type":"Feature","id":"WV-00006","geometry":{"type":"Point","coordinates":[-78.9287461,43.8680971]},"properties":{"kind":"valve","edgeId":"water-E6","normally":"open"}},{"type":"Feature","id":"WV-00007","geometry":{"type":"Point","coordinates":[-78.9288197,43.8680877]},"properties":{"kind":"valve","edgeId":"water-E9","normally":"open"}},{"type":"Feature","id":"WV-00008","geometry":{"type":"Point","coordinates":[-78.9290939,43.8692983]},"properties":{"kind":"valve","edgeId":"water-E7","normally":"open"}},{"type":"Feature","id":"WV-00009","geometry":{"type":"Point","coordinates":[-78.9291127,43.8693488]},"properties":{"kind":"valve","edgeId":"water-E10","normally":"open"}},{"type":"Feature","id":"WV-00010","geometry":{"type":"Point","coordinates":[-78.9288949,43.8681809]},"properties":{"kind":"valve","edgeId":"water-E8","normally":"open"}},{"type":"Feature","id":"WV-00011","geometry":{"type":"Point","coordinates":[-78.9289685,43.8681714]},"properties":{"kind":"valve","edgeId":"water-E11","normally":"open"}},{"type":"Feature","id":"WV-00012","geometry":{"type":"Point","coordinates":[-78.9289491,43.8682001]},"properties":{"kind":"valve","edgeId":"water-E12","normally":"open"}},{"type":"Feature","id":"WV-00013","geometry":{"type":"Point","coordinates":[-78.9288726,43.8680809]},"properties":{"kind":"valve","edgeId":"water-E9","normally":"open"}},{"type":"Feature","id":"WV-00014","geometry":{"type":"Point","coordinates":[-78.9289462,43.8680715]},"properties":{"kind":"valve","edgeId":"water-E13","normally":"open"}},{"type":"Feature","id":"WV-00015","geometry":{"type":"Point","coordinates":[-78.9291138,43.8693935]},"properties":{"kind":"valve","edgeId":"water-E10","normally":"open"}},{"type":"Feature","id":"WV-00016","geometry":{"type":"Point","coordinates":[-78.9291073,43.8694469]},"properties":{"kind":"valve","edgeId":"water-E14","normally":"open"}},{"type":"Feature","id":"WV-00017","geometry":{"type":"Point","coordinates":[-78.9297619,43.8694027]},"properties":{"kind":"valve","edgeId":"water-E20","normally":"open"}},{"type":"Feature","id":"WV-00018","geometry":{"type":"Point","coordinates":[-78.9298361,43.869399]},"properties":{"kind":"valve","edgeId":"water-E25","normally":"open"}},{"type":"Feature","id":"WV-00019","geometry":{"type":"Point","coordinates":[-78.9323691,43.87299]},"properties":{"kind":"valve","edgeId":"water-E29","normally":"open"}},{"type":"Feature","id":"WV-00020","geometry":{"type":"Point","coordinates":[-78.9324405,43.872974]},"properties":{"kind":"valve","edgeId":"water-E34","normally":"open"}},{"type":"Feature","id":"WV-00021","geometry":{"type":"Point","coordinates":[-78.9312,43.8679835]},"properties":{"kind":"valve","edgeId":"water-E50","normally":"open"}},{"type":"Feature","id":"WV-00022","geometry":{"type":"Point","coordinates":[-78.9312736,43.8679767]},"properties":{"kind":"valve","edgeId":"water-E54","normally":"open"}},{"type":"Feature","id":"WV-00023","geometry":{"type":"Point","coordinates":[-78.9308422,43.8692898]},"properties":{"kind":"valve","edgeId":"water-E52","normally":"open"}},{"type":"Feature","id":"WV-00024","geometry":{"type":"Point","coordinates":[-78.9309159,43.8692807]},"properties":{"kind":"valve","edgeId":"water-E56","normally":"open"}},{"type":"Feature","id":"WV-00025","geometry":{"type":"Point","coordinates":[-78.934208,43.8725816]},"properties":{"kind":"valve","edgeId":"water-E55","normally":"open"}},{"type":"Feature","id":"WV-00026","geometry":{"type":"Point","coordinates":[-78.9342795,43.8725657]},"properties":{"kind":"valve","edgeId":"water-E60","normally":"open"}},{"type":"Feature","id":"WV-00027","geometry":{"type":"Point","coordinates":[-78.933784,43.8716534]},"properties":{"kind":"valve","edgeId":"water-E99","normally":"open"}},{"type":"Feature","id":"WV-00028","geometry":{"type":"Point","coordinates":[-78.9337645,43.8716086]},"properties":{"kind":"valve","edgeId":"water-E103","normally":"open"}},{"type":"Feature","id":"WV-00029","geometry":{"type":"Point","coordinates":[-78.9314663,43.8707048]},"properties":{"kind":"valve","edgeId":"water-E115","normally":"open"}},{"type":"Feature","id":"WV-00030","geometry":{"type":"Point","coordinates":[-78.9314891,43.8707562]},"properties":{"kind":"valve","edgeId":"water-E119","normally":"open"}},{"type":"Feature","id":"WV-00031","geometry":{"type":"Point","coordinates":[-78.9330893,43.8679602]},"properties":{"kind":"valve","edgeId":"water-E128","normally":"open"}},{"type":"Feature","id":"WV-00032","geometry":{"type":"Point","coordinates":[-78.9331605,43.8679713]},"properties":{"kind":"valve","edgeId":"water-E132","normally":"open"}},{"type":"Feature","id":"WV-00033","geometry":{"type":"Point","coordinates":[-78.9353946,43.8676708]},"properties":{"kind":"valve","edgeId":"water-E165","normally":"open"}},{"type":"Feature","id":"WV-00034","geometry":{"type":"Point","coordinates":[-78.9354587,43.8676453]},"properties":{"kind":"valve","edgeId":"water-E169","normally":"open"}},{"type":"Feature","id":"WV-00035","geometry":{"type":"Point","coordinates":[-78.9367096,43.8673857]},"properties":{"kind":"valve","edgeId":"water-E179","normally":"open"}},{"type":"Feature","id":"WV-00036","geometry":{"type":"Point","coordinates":[-78.9367812,43.8673704]},"properties":{"kind":"valve","edgeId":"water-E183","normally":"open"}},{"type":"Feature","id":"WV-00037","geometry":{"type":"Point","coordinates":[-78.9367456,43.8673511]},"properties":{"kind":"valve","edgeId":"water-E184","normally":"open"}},{"type":"Feature","id":"WV-00038","geometry":{"type":"Point","coordinates":[-78.9367523,43.867488]},"properties":{"kind":"valve","edgeId":"water-E182","normally":"open"}},{"type":"Feature","id":"WV-00039","geometry":{"type":"Point","coordinates":[-78.9368079,43.8675028]},"properties":{"kind":"valve","edgeId":"water-E187","normally":"open"}},{"type":"Feature","id":"WV-00040","geometry":{"type":"Point","coordinates":[-78.9368237,43.8674721]},"properties":{"kind":"valve","edgeId":"water-E188","normally":"open"}},{"type":"Feature","id":"WV-00041","geometry":{"type":"Point","coordinates":[-78.9368491,43.8673558]},"properties":{"kind":"valve","edgeId":"water-E183","normally":"open"}},{"type":"Feature","id":"WV-00042","geometry":{"type":"Point","coordinates":[-78.9369072,43.8673289]},"properties":{"kind":"valve","edgeId":"water-E189","normally":"open"}},{"type":"Feature","id":"WV-00043","geometry":{"type":"Point","coordinates":[-78.9370836,43.8679253]},"properties":{"kind":"valve","edgeId":"water-E187","normally":"open"}},{"type":"Feature","id":"WV-00044","geometry":{"type":"Point","coordinates":[-78.9371175,43.8679728]},"properties":{"kind":"valve","edgeId":"water-E193","normally":"open"}},{"type":"Feature","id":"WV-00045","geometry":{"type":"Point","coordinates":[-78.9368949,43.8674562]},"properties":{"kind":"valve","edgeId":"water-E188","normally":"open"}},{"type":"Feature","id":"WV-00046","geometry":{"type":"Point","coordinates":[-78.9369506,43.867471]},"properties":{"kind":"valve","edgeId":"water-E194","normally":"open"}},{"type":"Feature","id":"WV-00047","geometry":{"type":"Point","coordinates":[-78.9371388,43.868015]},"properties":{"kind":"valve","edgeId":"water-E193","normally":"open"}},{"type":"Feature","id":"WV-00048","geometry":{"type":"Point","coordinates":[-78.9371629,43.868066]},"properties":{"kind":"valve","edgeId":"water-E199","normally":"open"}},{"type":"Feature","id":"WV-00049","geometry":{"type":"Point","coordinates":[-78.9322189,43.8724215]},"properties":{"kind":"valve","edgeId":"water-E198","normally":"open"}},{"type":"Feature","id":"WV-00050","geometry":{"type":"Point","coordinates":[-78.9322621,43.8724613]},"properties":{"kind":"valve","edgeId":"water-E205","normally":"open"}},{"type":"Feature","id":"WV-00051","geometry":{"type":"Point","coordinates":[-78.9358753,43.8682846]},"properties":{"kind":"valve","edgeId":"water-E243","normally":"open"}},{"type":"Feature","id":"WV-00052","geometry":{"type":"Point","coordinates":[-78.9358039,43.8683006]},"properties":{"kind":"valve","edgeId":"water-E248","normally":"open"}},{"type":"Feature","id":"WV-00053","geometry":{"type":"Point","coordinates":[-78.9375555,43.8689978]},"properties":{"kind":"valve","edgeId":"water-E247","normally":"open"}},{"type":"Feature","id":"WV-00054","geometry":{"type":"Point","coordinates":[-78.9375807,43.868999]},"properties":{"kind":"valve","edgeId":"water-E252","normally":"open"}},{"type":"Feature","id":"WV-00055","geometry":{"type":"Point","coordinates":[-78.9378781,43.8697468]},"properties":{"kind":"valve","edgeId":"water-E264","normally":"open"}},{"type":"Feature","id":"WV-00056","geometry":{"type":"Point","coordinates":[-78.9378518,43.869772]},"properties":{"kind":"valve","edgeId":"water-E268","normally":"open"}},{"type":"Feature","id":"WV-00057","geometry":{"type":"Point","coordinates":[-78.9387363,43.8687144]},"properties":{"kind":"valve","edgeId":"water-E267","normally":"open"}},{"type":"Feature","id":"WV-00058","geometry":{"type":"Point","coordinates":[-78.9388077,43.8686984]},"properties":{"kind":"valve","edgeId":"water-E272","normally":"open"}},{"type":"Feature","id":"WV-00059","geometry":{"type":"Point","coordinates":[-78.9387399,43.8686978]},"properties":{"kind":"valve","edgeId":"water-E273","normally":"open"}},{"type":"Feature","id":"WV-00060","geometry":{"type":"Point","coordinates":[-78.9381247,43.870308]},"properties":{"kind":"valve","edgeId":"water-E283","normally":"open"}},{"type":"Feature","id":"WV-00061","geometry":{"type":"Point","coordinates":[-78.9381471,43.8703594]},"properties":{"kind":"valve","edgeId":"water-E290","normally":"open"}},{"type":"Feature","id":"WV-00062","geometry":{"type":"Point","coordinates":[-78.9382598,43.8706128]},"properties":{"kind":"valve","edgeId":"water-E290","normally":"open"}},{"type":"Feature","id":"WV-00063","geometry":{"type":"Point","coordinates":[-78.9382339,43.8706382]},"properties":{"kind":"valve","edgeId":"water-E298","normally":"open"}},{"type":"Feature","id":"WV-00064","geometry":{"type":"Point","coordinates":[-78.9399545,43.8684339]},"properties":{"kind":"valve","edgeId":"water-E321","normally":"open"}},{"type":"Feature","id":"WV-00065","geometry":{"type":"Point","coordinates":[-78.9400255,43.868417]},"properties":{"kind":"valve","edgeId":"water-E330","normally":"open"}},{"type":"Feature","id":"WV-00066","geometry":{"type":"Point","coordinates":[-78.9400136,43.8684462]},"properties":{"kind":"valve","edgeId":"water-E331","normally":"open"}},{"type":"Feature","id":"WV-00067","geometry":{"type":"Point","coordinates":[-78.936634,43.8700149]},"properties":{"kind":"valve","edgeId":"water-E324","normally":"open"}},{"type":"Feature","id":"WV-00068","geometry":{"type":"Point","coordinates":[-78.9366206,43.8700441]},"properties":{"kind":"valve","edgeId":"water-E335","normally":"open"}},{"type":"Feature","id":"WV-00069","geometry":{"type":"Point","coordinates":[-78.9366155,43.8699987]},"properties":{"kind":"valve","edgeId":"water-E336","normally":"open"}},{"type":"Feature","id":"WV-00070","geometry":{"type":"Point","coordinates":[-78.9392999,43.8700342]},"properties":{"kind":"valve","edgeId":"water-E327","normally":"open"}},{"type":"Feature","id":"WV-00071","geometry":{"type":"Point","coordinates":[-78.9393712,43.870018]},"properties":{"kind":"valve","edgeId":"water-E340","normally":"open"}},{"type":"Feature","id":"WV-00072","geometry":{"type":"Point","coordinates":[-78.9393395,43.870053]},"properties":{"kind":"valve","edgeId":"water-E341","normally":"open"}},{"type":"Feature","id":"WV-00073","geometry":{"type":"Point","coordinates":[-78.9386936,43.8715975]},"properties":{"kind":"valve","edgeId":"water-E353","normally":"open"}},{"type":"Feature","id":"WV-00074","geometry":{"type":"Point","coordinates":[-78.9386672,43.871624]},"properties":{"kind":"valve","edgeId":"water-E364","normally":"open"}},{"type":"Feature","id":"WV-00075","geometry":{"type":"Point","coordinates":[-78.9387282,43.8716024]},"properties":{"kind":"valve","edgeId":"water-E365","normally":"open"}},{"type":"Feature","id":"WV-00076","geometry":{"type":"Point","coordinates":[-78.9411331,43.8681586]},"properties":{"kind":"valve","edgeId":"water-E383","normally":"open"}},{"type":"Feature","id":"WV-00077","geometry":{"type":"Point","coordinates":[-78.9412042,43.8681421]},"properties":{"kind":"valve","edgeId":"water-E396","normally":"open"}},{"type":"Feature","id":"WV-00078","geometry":{"type":"Point","coordinates":[-78.9411943,43.8681699]},"properties":{"kind":"valve","edgeId":"water-E397","normally":"open"}},{"type":"Feature","id":"WV-00079","geometry":{"type":"Point","coordinates":[-78.9370189,43.8708781]},"properties":{"kind":"valve","edgeId":"water-E389","normally":"open"}},{"type":"Feature","id":"WV-00080","geometry":{"type":"Point","coordinates":[-78.937005,43.8709074]},"properties":{"kind":"valve","edgeId":"water-E403","normally":"open"}},{"type":"Feature","id":"WV-00081","geometry":{"type":"Point","coordinates":[-78.9369833,43.8708587]},"properties":{"kind":"valve","edgeId":"water-E404","normally":"open"}},{"type":"Feature","id":"WV-00082","geometry":{"type":"Point","coordinates":[-78.9354171,43.8702915]},"properties":{"kind":"valve","edgeId":"water-E418","normally":"open"}},{"type":"Feature","id":"WV-00083","geometry":{"type":"Point","coordinates":[-78.9353513,43.8702841]},"properties":{"kind":"valve","edgeId":"water-E433","normally":"open"}},{"type":"Feature","id":"WV-00084","geometry":{"type":"Point","coordinates":[-78.9353855,43.8703267]},"properties":{"kind":"valve","edgeId":"water-E434","normally":"open"}},{"type":"Feature","id":"WV-00085","geometry":{"type":"Point","coordinates":[-78.937451,43.8718633]},"properties":{"kind":"valve","edgeId":"water-E421","normally":"open"}},{"type":"Feature","id":"WV-00086","geometry":{"type":"Point","coordinates":[-78.9374383,43.871891]},"properties":{"kind":"valve","edgeId":"water-E438","normally":"open"}},{"type":"Feature","id":"WV-00087","geometry":{"type":"Point","coordinates":[-78.9374368,43.8718551]},"properties":{"kind":"valve","edgeId":"water-E439","normally":"open"}},{"type":"Feature","id":"WV-00088","geometry":{"type":"Point","coordinates":[-78.9398441,43.8713169]},"properties":{"kind":"valve","edgeId":"water-E422","normally":"open"}},{"type":"Feature","id":"WV-00089","geometry":{"type":"Point","coordinates":[-78.9399154,43.8713009]},"properties":{"kind":"valve","edgeId":"water-E441","normally":"open"}},{"type":"Feature","id":"WV-00090","geometry":{"type":"Point","coordinates":[-78.9398772,43.8713358]},"properties":{"kind":"valve","edgeId":"water-E442","normally":"open"}},{"type":"Feature","id":"WV-00091","geometry":{"type":"Point","coordinates":[-78.9405404,43.8697597]},"properties":{"kind":"valve","edgeId":"water-E424","normally":"open"}},{"type":"Feature","id":"WV-00092","geometry":{"type":"Point","coordinates":[-78.9405935,43.8697752]},"properties":{"kind":"valve","edgeId":"water-E445","normally":"open"}},{"type":"Feature","id":"WV-00093","geometry":{"type":"Point","coordinates":[-78.9404992,43.8694447]},"properties":{"kind":"valve","edgeId":"water-E452","normally":"open"}},{"type":"Feature","id":"WV-00094","geometry":{"type":"Point","coordinates":[-78.9405176,43.8694484]},"properties":{"kind":"valve","edgeId":"water-E472","normally":"open"}},{"type":"Feature","id":"WV-00095","geometry":{"type":"Point","coordinates":[-78.9362268,43.8721363]},"properties":{"kind":"valve","edgeId":"water-E480","normally":"open"}},{"type":"Feature","id":"WV-00096","geometry":{"type":"Point","coordinates":[-78.9361907,43.8721721]},"properties":{"kind":"valve","edgeId":"water-E496","normally":"open"}},{"type":"Feature","id":"WV-00097","geometry":{"type":"Point","coordinates":[-78.9361579,43.8721375]},"properties":{"kind":"valve","edgeId":"water-E497","normally":"open"}},{"type":"Feature","id":"WV-00098","geometry":{"type":"Point","coordinates":[-78.9410763,43.8710409]},"properties":{"kind":"valve","edgeId":"water-E481","normally":"open"}},{"type":"Feature","id":"WV-00099","geometry":{"type":"Point","coordinates":[-78.9411477,43.871025]},"properties":{"kind":"valve","edgeId":"water-E499","normally":"open"}},{"type":"Feature","id":"WV-00100","geometry":{"type":"Point","coordinates":[-78.9411345,43.8710544]},"properties":{"kind":"valve","edgeId":"water-E500","normally":"open"}},{"type":"Feature","id":"WV-00101","geometry":{"type":"Point","coordinates":[-78.9358005,43.8711539]},"properties":{"kind":"valve","edgeId":"water-E513","normally":"open"}},{"type":"Feature","id":"WV-00102","geometry":{"type":"Point","coordinates":[-78.9357566,43.871187]},"properties":{"kind":"valve","edgeId":"water-E530","normally":"open"}},{"type":"Feature","id":"WV-00103","geometry":{"type":"Point","coordinates":[-78.9422906,43.8707717]},"properties":{"kind":"valve","edgeId":"water-E536","normally":"open"}},{"type":"Feature","id":"WV-00104","geometry":{"type":"Point","coordinates":[-78.942362,43.8707556]},"properties":{"kind":"valve","edgeId":"water-E552","normally":"open"}},{"type":"Feature","id":"WV-00105","geometry":{"type":"Point","coordinates":[-78.9423478,43.8707856]},"properties":{"kind":"valve","edgeId":"water-E553","normally":"open"}},{"type":"Feature","id":"WV-00106","geometry":{"type":"Point","coordinates":[-78.9423352,43.867881]},"properties":{"kind":"valve","edgeId":"water-E541","normally":"open"}},{"type":"Feature","id":"WV-00107","geometry":{"type":"Point","coordinates":[-78.9424012,43.8678723]},"properties":{"kind":"valve","edgeId":"water-E559","normally":"open"}},{"type":"Feature","id":"WV-00108","geometry":{"type":"Point","coordinates":[-78.9415905,43.8691947]},"properties":{"kind":"valve","edgeId":"water-E544","normally":"open"}},{"type":"Feature","id":"WV-00109","geometry":{"type":"Point","coordinates":[-78.9416506,43.8692074]},"properties":{"kind":"valve","edgeId":"water-E562","normally":"open"}},{"type":"Feature","id":"WV-00110","geometry":{"type":"Point","coordinates":[-78.943484,43.8705024]},"properties":{"kind":"valve","edgeId":"water-E581","normally":"open"}},{"type":"Feature","id":"WV-00111","geometry":{"type":"Point","coordinates":[-78.9435387,43.8705169]},"properties":{"kind":"valve","edgeId":"water-E593","normally":"open"}},{"type":"Feature","id":"WV-00112","geometry":{"type":"Point","coordinates":[-78.9435553,43.8704862]},"properties":{"kind":"valve","edgeId":"water-E594","normally":"open"}},{"type":"Feature","id":"WV-00113","geometry":{"type":"Point","coordinates":[-78.9448784,43.8702017]},"properties":{"kind":"valve","edgeId":"water-E606","normally":"open"}},{"type":"Feature","id":"WV-00114","geometry":{"type":"Point","coordinates":[-78.94495,43.8701861]},"properties":{"kind":"valve","edgeId":"water-E616","normally":"open"}},{"type":"Feature","id":"WV-00115","geometry":{"type":"Point","coordinates":[-78.9416061,43.8720516]},"properties":{"kind":"valve","edgeId":"water-E630","normally":"open"}},{"type":"Feature","id":"WV-00116","geometry":{"type":"Point","coordinates":[-78.9416275,43.8720542]},"properties":{"kind":"valve","edgeId":"water-E637","normally":"open"}},{"type":"Feature","id":"WV-00117","geometry":{"type":"Point","coordinates":[-78.9282031,43.8714708]},"properties":{"kind":"valve","edgeId":"water-E14","normally":"open"}},{"type":"Feature","id":"water-supply","geometry":{"type":"Point","coordinates":[-78.9398875,43.8744653]},"properties":{"kind":"external_supply","label":"Treated water supply (off-map)","elevationM":88.047}},{"type":"Feature","id":"water-station","geometry":{"type":"Point","coordinates":[-78.9280962,43.8686207]},"properties":{"kind":"pump_station","label":"Pumping station","facilityId":"PUMP-01","pumps":3,"elevationM":96.073}},{"type":"Feature","id":"water-tank-1","geometry":{"type":"Point","coordinates":[-78.9310332,43.8690245]},"properties":{"kind":"elevated_tank","label":"Elevated water tank 1","facilityId":"TANK-01","zone":0,"overflowElevationM":138.62,"capacityM3":3785.0,"elevationM":89.685}}]}