{"type":"FeatureCollection","name":"water_transmission","crs_note":"EPSG:4326","features":[{"type":"Feature","id":"water-E0","geometry":{"type":"LineString","coordinates":[[-78.9398875,43.8744653],[-78.9395751,43.8737469],[-78.9395436,43.8736743],[-78.9395116,43.8736027],[-78.9393012,43.873132],[-78.9392705,43.8730614],[-78.9391809,43.8728563],[-78.9391157,43.8727068],[-78.9386947,43.8717352],[-78.938651,43.8716352],[-78.9386161,43.8715537],[-78.9383557,43.870991],[-78.9383124,43.8708842],[-78.9382178,43.8706508],[-78.9380821,43.8703456],[-78.9379348,43.8700011],[-78.9379018,43.8699237],[-78.9378357,43.8697846],[-78.9377677,43.869627],[-78.9376251,43.8692956],[-78.937577,43.8691849],[-78.9375118,43.8690347],[-78.9374309,43.8688296],[-78.9373695,43.8686741],[-78.9370987,43.8680536],[-78.9370584,43.8679703],[-78.9369759,43.8678835],[-78.9368512,43.8676258],[-78.9368045,43.8675187],[-78.936666,43.8675494],[-78.9353834,43.8678337],[-78.9347761,43.8679507],[-78.9344536,43.8679973],[-78.9341967,43.8680366],[-78.9340683,43.868042],[-78.9338982,43.8680443],[-78.9336675,43.8680473],[-78.9335263,43.8680492],[-78.9332658,43.8680515],[-78.9331273,43.8680003],[-78.932211,43.8680077],[-78.9319808,43.8680095],[-78.9315173,43.8680175],[-78.9313516,43.8680165],[-78.93125,43.8680161],[-78.931008,43.8680602],[-78.9302211,43.8680711],[-78.9298915,43.8680828],[-78.9297324,43.8681004],[-78.9296137,43.8681146],[-78.9290748,43.8681984],[-78.9289412,43.8682161],[-78.9288148,43.8682318],[-78.9287,43.8682499],[-78.9286407,43.8682574],[-78.9283376,43.8682982],[-78.9281541,43.8682819],[-78.9280962,43.8686207]]},"properties":{"kind":"supply","tier":"transmission","placement":"underground","from":"water-supply","to":"water-station","lengthM":1557.11,"sizeMm":400,"diameterIn":15.7,"nominalLabel":"16\" ductile iron","material":"ductile iron","depthM":1.8,"zone":0}}]}